<?xml version="1.0" encoding="UTF-8"?>
<gpx creator="StravaGPX" version="1.1" xmlns="http://www.topografix.com/GPX/1/1" xmlns:xsi="http://www.w3.org/2001/XMLSchema-instance" xsi:schemaLocation="http://www.topografix.com/GPX/1/1 http://www.topografix.com/GPX/1/1/gpx.xsd">
 <metadata>
  <name>SUC 037 LRG</name>
  <author>
   <name>Brandon Costa</name>
   <link href="https://www.strava.com/athletes/778990"/>
  </author>
  <copyright author="OpenStreetMap contributors">
   <year>2020</year>
   <license>https://www.openstreetmap.org/copyright</license>
  </copyright>
  <link href="https://www.strava.com/routes/3457562787031678446"/>
 </metadata>
 <trk>
  <name>SUC 037 LRG</name>
  <link href="https://www.strava.com/routes/3457562787031678446"/>
  <type>trail_running</type>
  <trkseg>
   <trkpt lat="38.96698000000001" lon="-120.9518">
    <ele>519.9100000000001</ele>
   </trkpt>
   <trkpt lat="38.96743" lon="-120.95175">
    <ele>525.6</ele>
   </trkpt>
   <trkpt lat="38.96788" lon="-120.95154000000001">
    <ele>530.2</ele>
   </trkpt>
   <trkpt lat="38.96806" lon="-120.95153">
    <ele>533.6200000000001</ele>
   </trkpt>
   <trkpt lat="38.96824" lon="-120.95144">
    <ele>536.81</ele>
   </trkpt>
   <trkpt lat="38.968500000000006" lon="-120.95144">
    <ele>540.12</ele>
   </trkpt>
   <trkpt lat="38.96876" lon="-120.95131">
    <ele>544.98</ele>
   </trkpt>
   <trkpt lat="38.969080000000005" lon="-120.95122">
    <ele>546.9900000000001</ele>
   </trkpt>
   <trkpt lat="38.96943" lon="-120.95125000000002">
    <ele>545.4</ele>
   </trkpt>
   <trkpt lat="38.969480000000004" lon="-120.95126">
    <ele>545.0200000000001</ele>
   </trkpt>
   <trkpt lat="38.969710000000006" lon="-120.95148">
    <ele>541.5699999999999</ele>
   </trkpt>
   <trkpt lat="38.96989000000001" lon="-120.95166">
    <ele>540.01</ele>
   </trkpt>
   <trkpt lat="38.97025" lon="-120.95197">
    <ele>542.5600000000001</ele>
   </trkpt>
   <trkpt lat="38.97039" lon="-120.95212000000001">
    <ele>543.7800000000001</ele>
   </trkpt>
   <trkpt lat="38.97048" lon="-120.95233">
    <ele>544.49</ele>
   </trkpt>
   <trkpt lat="38.97063" lon="-120.95242">
    <ele>545.76</ele>
   </trkpt>
   <trkpt lat="38.970850000000006" lon="-120.95252">
    <ele>546.39</ele>
   </trkpt>
   <trkpt lat="38.970980000000004" lon="-120.95279000000001">
    <ele>546.4</ele>
   </trkpt>
   <trkpt lat="38.9711" lon="-120.95296">
    <ele>545.59</ele>
   </trkpt>
   <trkpt lat="38.971210000000006" lon="-120.95309">
    <ele>546.0400000000001</ele>
   </trkpt>
   <trkpt lat="38.97135" lon="-120.95314">
    <ele>547.59</ele>
   </trkpt>
   <trkpt lat="38.97162" lon="-120.95336">
    <ele>549.7500000000001</ele>
   </trkpt>
   <trkpt lat="38.971830000000004" lon="-120.95345">
    <ele>550.64</ele>
   </trkpt>
   <trkpt lat="38.971990000000005" lon="-120.95358000000002">
    <ele>551.7500000000001</ele>
   </trkpt>
   <trkpt lat="38.972240000000006" lon="-120.95368">
    <ele>551.74</ele>
   </trkpt>
   <trkpt lat="38.97229" lon="-120.95376000000002">
    <ele>551.49</ele>
   </trkpt>
   <trkpt lat="38.97229" lon="-120.95386">
    <ele>550.49</ele>
   </trkpt>
   <trkpt lat="38.972240000000006" lon="-120.95399">
    <ele>549.7200000000001</ele>
   </trkpt>
   <trkpt lat="38.972100000000005" lon="-120.95408">
    <ele>548.5300000000001</ele>
   </trkpt>
   <trkpt lat="38.97193" lon="-120.95412">
    <ele>547.24</ele>
   </trkpt>
   <trkpt lat="38.97149" lon="-120.95396000000001">
    <ele>547.1</ele>
   </trkpt>
   <trkpt lat="38.97142" lon="-120.95396000000001">
    <ele>547.1</ele>
   </trkpt>
   <trkpt lat="38.97142" lon="-120.95399">
    <ele>548.2</ele>
   </trkpt>
   <trkpt lat="38.97169" lon="-120.95439">
    <ele>551.51</ele>
   </trkpt>
   <trkpt lat="38.97182" lon="-120.9548">
    <ele>556.12</ele>
   </trkpt>
   <trkpt lat="38.97187" lon="-120.95511">
    <ele>560.8000000000001</ele>
   </trkpt>
   <trkpt lat="38.97198" lon="-120.95524">
    <ele>561.97</ele>
   </trkpt>
   <trkpt lat="38.97216" lon="-120.95529">
    <ele>562.96</ele>
   </trkpt>
   <trkpt lat="38.972350000000006" lon="-120.95529">
    <ele>564.21</ele>
   </trkpt>
   <trkpt lat="38.9727" lon="-120.95538">
    <ele>566.5400000000001</ele>
   </trkpt>
   <trkpt lat="38.972860000000004" lon="-120.95529">
    <ele>567.4800000000001</ele>
   </trkpt>
   <trkpt lat="38.97314" lon="-120.95507">
    <ele>568.34</ele>
   </trkpt>
   <trkpt lat="38.97326" lon="-120.95519000000002">
    <ele>568.57</ele>
   </trkpt>
   <trkpt lat="38.97352" lon="-120.95493">
    <ele>569.28</ele>
   </trkpt>
   <trkpt lat="38.97375" lon="-120.95453">
    <ele>570.06</ele>
   </trkpt>
   <trkpt lat="38.973870000000005" lon="-120.95411000000001">
    <ele>570.7</ele>
   </trkpt>
   <trkpt lat="38.97406" lon="-120.95413">
    <ele>571.43</ele>
   </trkpt>
   <trkpt lat="38.97453" lon="-120.95448">
    <ele>569.35</ele>
   </trkpt>
   <trkpt lat="38.974630000000005" lon="-120.95449">
    <ele>568.9399999999999</ele>
   </trkpt>
   <trkpt lat="38.97466" lon="-120.95457">
    <ele>568.79</ele>
   </trkpt>
   <trkpt lat="38.974680000000006" lon="-120.95484">
    <ele>568.67</ele>
   </trkpt>
   <trkpt lat="38.97471" lon="-120.95490000000001">
    <ele>568.77</ele>
   </trkpt>
   <trkpt lat="38.974810000000005" lon="-120.95498">
    <ele>569.4800000000001</ele>
   </trkpt>
   <trkpt lat="38.9752" lon="-120.95506">
    <ele>573.26</ele>
   </trkpt>
   <trkpt lat="38.975260000000006" lon="-120.95511">
    <ele>574.0</ele>
   </trkpt>
   <trkpt lat="38.97536" lon="-120.95511">
    <ele>574.6600000000001</ele>
   </trkpt>
   <trkpt lat="38.97554" lon="-120.95511">
    <ele>575.96</ele>
   </trkpt>
   <trkpt lat="38.97565" lon="-120.95502">
    <ele>576.5100000000001</ele>
   </trkpt>
   <trkpt lat="38.975680000000004" lon="-120.95503000000001">
    <ele>576.5100000000001</ele>
   </trkpt>
   <trkpt lat="38.97572" lon="-120.95506">
    <ele>576.91</ele>
   </trkpt>
   <trkpt lat="38.975970000000004" lon="-120.95538">
    <ele>578.13</ele>
   </trkpt>
   <trkpt lat="38.976240000000004" lon="-120.9556">
    <ele>578.48</ele>
   </trkpt>
   <trkpt lat="38.97655" lon="-120.95591">
    <ele>577.2400000000001</ele>
   </trkpt>
   <trkpt lat="38.97655" lon="-120.956">
    <ele>577.09</ele>
   </trkpt>
   <trkpt lat="38.976470000000006" lon="-120.95615000000001">
    <ele>576.8199999999999</ele>
   </trkpt>
   <trkpt lat="38.976400000000005" lon="-120.95623">
    <ele>576.7800000000001</ele>
   </trkpt>
   <trkpt lat="38.97618000000001" lon="-120.95633000000001">
    <ele>577.72</ele>
   </trkpt>
   <trkpt lat="38.97614" lon="-120.95637">
    <ele>577.72</ele>
   </trkpt>
   <trkpt lat="38.97605" lon="-120.95667000000002">
    <ele>579.1400000000001</ele>
   </trkpt>
   <trkpt lat="38.97598" lon="-120.95677">
    <ele>579.43</ele>
   </trkpt>
   <trkpt lat="38.9759" lon="-120.95681">
    <ele>580.3900000000001</ele>
   </trkpt>
   <trkpt lat="38.97580000000001" lon="-120.95685">
    <ele>580.87</ele>
   </trkpt>
   <trkpt lat="38.97567" lon="-120.95685">
    <ele>580.85</ele>
   </trkpt>
   <trkpt lat="38.97545" lon="-120.95681">
    <ele>579.4100000000001</ele>
   </trkpt>
   <trkpt lat="38.975" lon="-120.95637">
    <ele>580.47</ele>
   </trkpt>
   <trkpt lat="38.97485" lon="-120.95631000000002">
    <ele>580.8199999999999</ele>
   </trkpt>
   <trkpt lat="38.97473" lon="-120.95628">
    <ele>581.19</ele>
   </trkpt>
   <trkpt lat="38.97464" lon="-120.95632">
    <ele>581.32</ele>
   </trkpt>
   <trkpt lat="38.974540000000005" lon="-120.95641">
    <ele>581.32</ele>
   </trkpt>
   <trkpt lat="38.97455" lon="-120.95639000000001">
    <ele>581.32</ele>
   </trkpt>
   <trkpt lat="38.97437" lon="-120.95655000000001">
    <ele>582.69</ele>
   </trkpt>
   <trkpt lat="38.97415" lon="-120.9569">
    <ele>583.25</ele>
   </trkpt>
   <trkpt lat="38.974070000000005" lon="-120.95699">
    <ele>582.79</ele>
   </trkpt>
   <trkpt lat="38.97374000000001" lon="-120.95717">
    <ele>579.69</ele>
   </trkpt>
   <trkpt lat="38.973620000000004" lon="-120.95721">
    <ele>579.0600000000001</ele>
   </trkpt>
   <trkpt lat="38.97326" lon="-120.9573">
    <ele>577.72</ele>
   </trkpt>
   <trkpt lat="38.973150000000004" lon="-120.9573">
    <ele>577.55</ele>
   </trkpt>
   <trkpt lat="38.97305" lon="-120.95726">
    <ele>577.2400000000001</ele>
   </trkpt>
   <trkpt lat="38.97296" lon="-120.95727000000001">
    <ele>576.47</ele>
   </trkpt>
   <trkpt lat="38.97294" lon="-120.95726">
    <ele>576.47</ele>
   </trkpt>
   <trkpt lat="38.972930000000005" lon="-120.95703">
    <ele>573.34</ele>
   </trkpt>
   <trkpt lat="38.97288" lon="-120.95686">
    <ele>571.9300000000001</ele>
   </trkpt>
   <trkpt lat="38.972660000000005" lon="-120.95668">
    <ele>567.3900000000001</ele>
   </trkpt>
   <trkpt lat="38.97236" lon="-120.95636">
    <ele>561.88</ele>
   </trkpt>
   <trkpt lat="38.97225" lon="-120.95632">
    <ele>559.83</ele>
   </trkpt>
   <trkpt lat="38.972010000000004" lon="-120.95605">
    <ele>557.5300000000001</ele>
   </trkpt>
   <trkpt lat="38.971880000000006" lon="-120.95592">
    <ele>557.44</ele>
   </trkpt>
   <trkpt lat="38.97166" lon="-120.95583">
    <ele>556.62</ele>
   </trkpt>
   <trkpt lat="38.97135" lon="-120.95561000000001">
    <ele>554.23</ele>
   </trkpt>
   <trkpt lat="38.97126" lon="-120.9556">
    <ele>553.71</ele>
   </trkpt>
   <trkpt lat="38.97097" lon="-120.95574">
    <ele>550.6300000000001</ele>
   </trkpt>
   <trkpt lat="38.97084" lon="-120.95578">
    <ele>549.76</ele>
   </trkpt>
   <trkpt lat="38.970510000000004" lon="-120.95570000000001">
    <ele>545.9300000000001</ele>
   </trkpt>
   <trkpt lat="38.970380000000006" lon="-120.95573000000002">
    <ele>544.12</ele>
   </trkpt>
   <trkpt lat="38.970330000000004" lon="-120.95574">
    <ele>544.12</ele>
   </trkpt>
   <trkpt lat="38.97028" lon="-120.95583">
    <ele>542.97</ele>
   </trkpt>
   <trkpt lat="38.97021" lon="-120.95605">
    <ele>542.1700000000001</ele>
   </trkpt>
   <trkpt lat="38.97021" lon="-120.95623">
    <ele>541.08</ele>
   </trkpt>
   <trkpt lat="38.97039" lon="-120.95691000000001">
    <ele>540.03</ele>
   </trkpt>
   <trkpt lat="38.97037" lon="-120.95708">
    <ele>539.66</ele>
   </trkpt>
   <trkpt lat="38.970270000000006" lon="-120.9574">
    <ele>537.5699999999999</ele>
   </trkpt>
   <trkpt lat="38.97019" lon="-120.95753">
    <ele>535.78</ele>
   </trkpt>
   <trkpt lat="38.96987" lon="-120.95784">
    <ele>533.44</ele>
   </trkpt>
   <trkpt lat="38.96925" lon="-120.95788">
    <ele>533.5600000000001</ele>
   </trkpt>
   <trkpt lat="38.968990000000005" lon="-120.95790000000001">
    <ele>536.37</ele>
   </trkpt>
   <trkpt lat="38.968900000000005" lon="-120.95789">
    <ele>536.78</ele>
   </trkpt>
   <trkpt lat="38.968770000000006" lon="-120.95784">
    <ele>537.72</ele>
   </trkpt>
   <trkpt lat="38.968700000000005" lon="-120.95776000000001">
    <ele>538.08</ele>
   </trkpt>
   <trkpt lat="38.968650000000004" lon="-120.95766">
    <ele>538.2600000000001</ele>
   </trkpt>
   <trkpt lat="38.96864" lon="-120.95757">
    <ele>538.3800000000001</ele>
   </trkpt>
   <trkpt lat="38.968680000000006" lon="-120.95744">
    <ele>538.3800000000001</ele>
   </trkpt>
   <trkpt lat="38.96878" lon="-120.95725000000002">
    <ele>538.5300000000001</ele>
   </trkpt>
   <trkpt lat="38.96885" lon="-120.9569">
    <ele>537.98</ele>
   </trkpt>
   <trkpt lat="38.96882" lon="-120.95663">
    <ele>537.47</ele>
   </trkpt>
   <trkpt lat="38.96875" lon="-120.95649000000002">
    <ele>537.08</ele>
   </trkpt>
   <trkpt lat="38.96869" lon="-120.95645">
    <ele>536.9900000000001</ele>
   </trkpt>
   <trkpt lat="38.968630000000005" lon="-120.95646">
    <ele>536.94</ele>
   </trkpt>
   <trkpt lat="38.968430000000005" lon="-120.95667000000002">
    <ele>537.44</ele>
   </trkpt>
   <trkpt lat="38.968270000000004" lon="-120.95677">
    <ele>539.12</ele>
   </trkpt>
   <trkpt lat="38.96813" lon="-120.95685">
    <ele>539.72</ele>
   </trkpt>
   <trkpt lat="38.96793" lon="-120.95686">
    <ele>540.91</ele>
   </trkpt>
   <trkpt lat="38.967800000000004" lon="-120.95681">
    <ele>541.6800000000001</ele>
   </trkpt>
   <trkpt lat="38.967740000000006" lon="-120.95673000000001">
    <ele>543.15</ele>
   </trkpt>
   <trkpt lat="38.967690000000005" lon="-120.95641">
    <ele>544.5600000000001</ele>
   </trkpt>
   <trkpt lat="38.967470000000006" lon="-120.95597000000001">
    <ele>542.8700000000001</ele>
   </trkpt>
   <trkpt lat="38.96726" lon="-120.95579000000001">
    <ele>540.94</ele>
   </trkpt>
   <trkpt lat="38.967200000000005" lon="-120.95582000000002">
    <ele>540.3100000000001</ele>
   </trkpt>
   <trkpt lat="38.967150000000004" lon="-120.95584000000001">
    <ele>540.0400000000001</ele>
   </trkpt>
   <trkpt lat="38.96701" lon="-120.95623">
    <ele>539.52</ele>
   </trkpt>
   <trkpt lat="38.966930000000005" lon="-120.95633000000001">
    <ele>540.07</ele>
   </trkpt>
   <trkpt lat="38.96665" lon="-120.95663">
    <ele>540.33</ele>
   </trkpt>
   <trkpt lat="38.966530000000006" lon="-120.95672">
    <ele>540.6500000000001</ele>
   </trkpt>
   <trkpt lat="38.966260000000005" lon="-120.95685">
    <ele>542.13</ele>
   </trkpt>
   <trkpt lat="38.966010000000004" lon="-120.95704">
    <ele>542.2</ele>
   </trkpt>
   <trkpt lat="38.965610000000005" lon="-120.95727000000001">
    <ele>545.72</ele>
   </trkpt>
   <trkpt lat="38.96556" lon="-120.95739">
    <ele>546.32</ele>
   </trkpt>
   <trkpt lat="38.96556" lon="-120.95767000000001">
    <ele>546.71</ele>
   </trkpt>
   <trkpt lat="38.965540000000004" lon="-120.95784">
    <ele>546.83</ele>
   </trkpt>
   <trkpt lat="38.96547" lon="-120.95797">
    <ele>547.24</ele>
   </trkpt>
   <trkpt lat="38.965140000000005" lon="-120.95803000000001">
    <ele>549.42</ele>
   </trkpt>
   <trkpt lat="38.96473" lon="-120.95807">
    <ele>552.4499999999999</ele>
   </trkpt>
   <trkpt lat="38.96446" lon="-120.95806">
    <ele>555.13</ele>
   </trkpt>
   <trkpt lat="38.96435" lon="-120.95807">
    <ele>558.03</ele>
   </trkpt>
   <trkpt lat="38.96406" lon="-120.95824">
    <ele>559.85</ele>
   </trkpt>
   <trkpt lat="38.963620000000006" lon="-120.95830000000001">
    <ele>564.5400000000001</ele>
   </trkpt>
   <trkpt lat="38.963260000000005" lon="-120.95847">
    <ele>568.0400000000001</ele>
   </trkpt>
   <trkpt lat="38.9632" lon="-120.95852000000001">
    <ele>568.3900000000001</ele>
   </trkpt>
   <trkpt lat="38.963060000000006" lon="-120.95870000000001">
    <ele>569.2400000000001</ele>
   </trkpt>
   <trkpt lat="38.962830000000004" lon="-120.95909">
    <ele>569.9399999999999</ele>
   </trkpt>
   <trkpt lat="38.96263500135765" lon="-120.95967500191773">
    <ele>568.3100000000001</ele>
   </trkpt>
   <trkpt lat="38.96244" lon="-120.96026">
    <ele>571.76</ele>
   </trkpt>
   <trkpt lat="38.962300000000006" lon="-120.96088">
    <ele>573.22</ele>
   </trkpt>
   <trkpt lat="38.96222" lon="-120.96102">
    <ele>574.34</ele>
   </trkpt>
   <trkpt lat="38.962" lon="-120.96116">
    <ele>575.79</ele>
   </trkpt>
   <trkpt lat="38.96191" lon="-120.9612">
    <ele>576.55</ele>
   </trkpt>
   <trkpt lat="38.961740000000006" lon="-120.96110000000002">
    <ele>577.6300000000001</ele>
   </trkpt>
   <trkpt lat="38.96134" lon="-120.96058000000001">
    <ele>583.0000000000001</ele>
   </trkpt>
   <trkpt lat="38.961000000000006" lon="-120.96008">
    <ele>585.4100000000001</ele>
   </trkpt>
   <trkpt lat="38.960950000000004" lon="-120.9599">
    <ele>585.6</ele>
   </trkpt>
   <trkpt lat="38.96088" lon="-120.95928">
    <ele>585.0200000000001</ele>
   </trkpt>
   <trkpt lat="38.960840000000005" lon="-120.95915000000001">
    <ele>585.1500000000001</ele>
   </trkpt>
   <trkpt lat="38.96079" lon="-120.95909">
    <ele>585.1800000000001</ele>
   </trkpt>
   <trkpt lat="38.96072" lon="-120.95904000000002">
    <ele>585.13</ele>
   </trkpt>
   <trkpt lat="38.9605" lon="-120.95895000000002">
    <ele>583.6</ele>
   </trkpt>
   <trkpt lat="38.960390000000004" lon="-120.95884000000001">
    <ele>581.72</ele>
   </trkpt>
   <trkpt lat="38.96013000000001" lon="-120.95852000000001">
    <ele>579.55</ele>
   </trkpt>
   <trkpt lat="38.96" lon="-120.95847">
    <ele>578.74</ele>
   </trkpt>
   <trkpt lat="38.95966000000001" lon="-120.95843">
    <ele>577.9300000000001</ele>
   </trkpt>
   <trkpt lat="38.95946" lon="-120.95837000000002">
    <ele>578.13</ele>
   </trkpt>
   <trkpt lat="38.95888" lon="-120.95775">
    <ele>573.8199999999999</ele>
   </trkpt>
   <trkpt lat="38.958540000000006" lon="-120.95721">
    <ele>570.37</ele>
   </trkpt>
   <trkpt lat="38.958270000000006" lon="-120.95694">
    <ele>568.5300000000001</ele>
   </trkpt>
   <trkpt lat="38.95814" lon="-120.95685">
    <ele>567.6800000000001</ele>
   </trkpt>
   <trkpt lat="38.958040000000004" lon="-120.95685">
    <ele>566.59</ele>
   </trkpt>
   <trkpt lat="38.95779" lon="-120.9569">
    <ele>565.13</ele>
   </trkpt>
   <trkpt lat="38.95772" lon="-120.9569">
    <ele>564.4200000000001</ele>
   </trkpt>
   <trkpt lat="38.95767" lon="-120.95686">
    <ele>563.95</ele>
   </trkpt>
   <trkpt lat="38.957510000000006" lon="-120.95664000000001">
    <ele>559.89</ele>
   </trkpt>
   <trkpt lat="38.957280000000004" lon="-120.9565">
    <ele>557.96</ele>
   </trkpt>
   <trkpt lat="38.957190000000004" lon="-120.95645">
    <ele>555.07</ele>
   </trkpt>
   <trkpt lat="38.95691" lon="-120.95641">
    <ele>550.54</ele>
   </trkpt>
   <trkpt lat="38.95682" lon="-120.95645">
    <ele>550.54</ele>
   </trkpt>
   <trkpt lat="38.95676" lon="-120.9565">
    <ele>550.54</ele>
   </trkpt>
   <trkpt lat="38.95674" lon="-120.95685">
    <ele>547.3800000000001</ele>
   </trkpt>
   <trkpt lat="38.956680000000006" lon="-120.95708">
    <ele>546.6</ele>
   </trkpt>
   <trkpt lat="38.95662" lon="-120.95757">
    <ele>544.2</ele>
   </trkpt>
   <trkpt lat="38.95655" lon="-120.95779">
    <ele>542.0500000000001</ele>
   </trkpt>
   <trkpt lat="38.95644" lon="-120.95797">
    <ele>539.66</ele>
   </trkpt>
   <trkpt lat="38.95613" lon="-120.95837000000002">
    <ele>534.9</ele>
   </trkpt>
   <trkpt lat="38.95586" lon="-120.95864000000002">
    <ele>535.97</ele>
   </trkpt>
   <trkpt lat="38.95582" lon="-120.95875000000001">
    <ele>536.18</ele>
   </trkpt>
   <trkpt lat="38.9559" lon="-120.95882">
    <ele>536.35</ele>
   </trkpt>
   <trkpt lat="38.956210000000006" lon="-120.95888000000001">
    <ele>538.3</ele>
   </trkpt>
   <trkpt lat="38.95628000000001" lon="-120.95895000000002">
    <ele>539.82</ele>
   </trkpt>
   <trkpt lat="38.956360000000004" lon="-120.95905">
    <ele>540.2600000000001</ele>
   </trkpt>
   <trkpt lat="38.956390000000006" lon="-120.95923">
    <ele>541.34</ele>
   </trkpt>
   <trkpt lat="38.95633" lon="-120.95963">
    <ele>544.7</ele>
   </trkpt>
   <trkpt lat="38.95637" lon="-120.95981">
    <ele>545.85</ele>
   </trkpt>
   <trkpt lat="38.95646" lon="-120.9599">
    <ele>546.3800000000001</ele>
   </trkpt>
   <trkpt lat="38.95676" lon="-120.96009000000001">
    <ele>548.19</ele>
   </trkpt>
   <trkpt lat="38.95689" lon="-120.96031">
    <ele>551.03</ele>
   </trkpt>
   <trkpt lat="38.956990000000005" lon="-120.96043000000002">
    <ele>552.3</ele>
   </trkpt>
   <trkpt lat="38.957040000000006" lon="-120.96052000000002">
    <ele>552.79</ele>
   </trkpt>
   <trkpt lat="38.957060000000006" lon="-120.96062">
    <ele>553.4100000000001</ele>
   </trkpt>
   <trkpt lat="38.95703" lon="-120.96133">
    <ele>555.83</ele>
   </trkpt>
   <trkpt lat="38.956990000000005" lon="-120.96142">
    <ele>556.35</ele>
   </trkpt>
   <trkpt lat="38.956700000000005" lon="-120.96169">
    <ele>556.5600000000001</ele>
   </trkpt>
   <trkpt lat="38.956630000000004" lon="-120.96182">
    <ele>556.46</ele>
   </trkpt>
   <trkpt lat="38.956520000000005" lon="-120.96214">
    <ele>556.34</ele>
   </trkpt>
   <trkpt lat="38.95649" lon="-120.96232">
    <ele>556.96</ele>
   </trkpt>
   <trkpt lat="38.95649" lon="-120.96255000000001">
    <ele>557.69</ele>
   </trkpt>
   <trkpt lat="38.956450000000004" lon="-120.96276">
    <ele>558.6600000000001</ele>
   </trkpt>
   <trkpt lat="38.95635" lon="-120.96299">
    <ele>560.1700000000001</ele>
   </trkpt>
   <trkpt lat="38.956120000000006" lon="-120.96322">
    <ele>560.12</ele>
   </trkpt>
   <trkpt lat="38.955830000000006" lon="-120.9637">
    <ele>559.4100000000001</ele>
   </trkpt>
   <trkpt lat="38.95572000000001" lon="-120.96402">
    <ele>557.98</ele>
   </trkpt>
   <trkpt lat="38.955670000000005" lon="-120.96429">
    <ele>555.11</ele>
   </trkpt>
   <trkpt lat="38.955670000000005" lon="-120.96447">
    <ele>553.9900000000001</ele>
   </trkpt>
   <trkpt lat="38.955760000000005" lon="-120.96473">
    <ele>552.2600000000001</ele>
   </trkpt>
   <trkpt lat="38.95581000000001" lon="-120.96479000000001">
    <ele>552.2600000000001</ele>
   </trkpt>
   <trkpt lat="38.95624" lon="-120.96515000000001">
    <ele>546.36</ele>
   </trkpt>
   <trkpt lat="38.95638" lon="-120.96532">
    <ele>543.8700000000001</ele>
   </trkpt>
   <trkpt lat="38.956430000000005" lon="-120.96549000000002">
    <ele>542.39</ele>
   </trkpt>
   <trkpt lat="38.956450000000004" lon="-120.96573000000001">
    <ele>539.8000000000001</ele>
   </trkpt>
   <trkpt lat="38.956520000000005" lon="-120.96585">
    <ele>539.8000000000001</ele>
   </trkpt>
   <trkpt lat="38.95665" lon="-120.96595">
    <ele>538.63</ele>
   </trkpt>
   <trkpt lat="38.95675000000001" lon="-120.96608">
    <ele>536.9300000000001</ele>
   </trkpt>
   <trkpt lat="38.95678" lon="-120.96617">
    <ele>535.9900000000001</ele>
   </trkpt>
   <trkpt lat="38.95678" lon="-120.96626">
    <ele>535.49</ele>
   </trkpt>
   <trkpt lat="38.95675000000001" lon="-120.96635">
    <ele>535.49</ele>
   </trkpt>
   <trkpt lat="38.95671" lon="-120.96640000000001">
    <ele>532.91</ele>
   </trkpt>
   <trkpt lat="38.956500000000005" lon="-120.96657">
    <ele>530.9</ele>
   </trkpt>
   <trkpt lat="38.956320000000005" lon="-120.96666">
    <ele>528.76</ele>
   </trkpt>
   <trkpt lat="38.95619000000001" lon="-120.9667">
    <ele>527.88</ele>
   </trkpt>
   <trkpt lat="38.95586" lon="-120.96666">
    <ele>524.6800000000001</ele>
   </trkpt>
   <trkpt lat="38.95577" lon="-120.9667">
    <ele>522.58</ele>
   </trkpt>
   <trkpt lat="38.95562" lon="-120.96679">
    <ele>521.6700000000001</ele>
   </trkpt>
   <trkpt lat="38.955510000000004" lon="-120.96693">
    <ele>520.69</ele>
   </trkpt>
   <trkpt lat="38.955360000000006" lon="-120.96730000000001">
    <ele>517.71</ele>
   </trkpt>
   <trkpt lat="38.955090000000006" lon="-120.96766000000001">
    <ele>512.47</ele>
   </trkpt>
   <trkpt lat="38.95501" lon="-120.96783">
    <ele>511.94000000000005</ele>
   </trkpt>
   <trkpt lat="38.955000000000005" lon="-120.968">
    <ele>512.14</ele>
   </trkpt>
   <trkpt lat="38.955020000000005" lon="-120.96832">
    <ele>511.78000000000003</ele>
   </trkpt>
   <trkpt lat="38.95505" lon="-120.9685">
    <ele>510.17</ele>
   </trkpt>
   <trkpt lat="38.95515" lon="-120.96880000000002">
    <ele>507.82000000000005</ele>
   </trkpt>
   <trkpt lat="38.95528" lon="-120.96903">
    <ele>504.97</ele>
   </trkpt>
   <trkpt lat="38.95534000000001" lon="-120.96918000000001">
    <ele>504.09000000000003</ele>
   </trkpt>
   <trkpt lat="38.955380000000005" lon="-120.96931000000001">
    <ele>503.0</ele>
   </trkpt>
   <trkpt lat="38.955420000000004" lon="-120.96966">
    <ele>502.04</ele>
   </trkpt>
   <trkpt lat="38.955470000000005" lon="-120.96983000000002">
    <ele>501.29</ele>
   </trkpt>
   <trkpt lat="38.955510000000004" lon="-120.96988">
    <ele>501.04</ele>
   </trkpt>
   <trkpt lat="38.95564" lon="-120.96997">
    <ele>500.85</ele>
   </trkpt>
   <trkpt lat="38.956120000000006" lon="-120.97021000000001">
    <ele>501.51</ele>
   </trkpt>
   <trkpt lat="38.956160000000004" lon="-120.97035000000001">
    <ele>502.14000000000004</ele>
   </trkpt>
   <trkpt lat="38.956100000000006" lon="-120.97055">
    <ele>501.6</ele>
   </trkpt>
   <trkpt lat="38.95577" lon="-120.97088000000001">
    <ele>500.33000000000004</ele>
   </trkpt>
   <trkpt lat="38.95559" lon="-120.97119">
    <ele>497.36</ele>
   </trkpt>
   <trkpt lat="38.95535" lon="-120.97176">
    <ele>500.51</ele>
   </trkpt>
   <trkpt lat="38.95521" lon="-120.97199">
    <ele>505.45000000000005</ele>
   </trkpt>
   <trkpt lat="38.955110000000005" lon="-120.97213">
    <ele>506.90000000000003</ele>
   </trkpt>
   <trkpt lat="38.954980000000006" lon="-120.97226">
    <ele>508.53999999999996</ele>
   </trkpt>
   <trkpt lat="38.954820000000005" lon="-120.97231000000001">
    <ele>509.78</ele>
   </trkpt>
   <trkpt lat="38.954660000000004" lon="-120.9723">
    <ele>512.6200000000001</ele>
   </trkpt>
   <trkpt lat="38.95427" lon="-120.97222000000001">
    <ele>519.75</ele>
   </trkpt>
   <trkpt lat="38.95416" lon="-120.97218000000001">
    <ele>520.81</ele>
   </trkpt>
   <trkpt lat="38.954100000000004" lon="-120.97212">
    <ele>521.7400000000001</ele>
   </trkpt>
   <trkpt lat="38.953990000000005" lon="-120.97185">
    <ele>522.9</ele>
   </trkpt>
   <trkpt lat="38.953860000000006" lon="-120.97173000000001">
    <ele>522.7700000000001</ele>
   </trkpt>
   <trkpt lat="38.95374" lon="-120.97167">
    <ele>522.71</ele>
   </trkpt>
   <trkpt lat="38.953660000000006" lon="-120.97163">
    <ele>522.47</ele>
   </trkpt>
   <trkpt lat="38.95356" lon="-120.97163">
    <ele>522.34</ele>
   </trkpt>
   <trkpt lat="38.95346" lon="-120.97167">
    <ele>522.25</ele>
   </trkpt>
   <trkpt lat="38.953410000000005" lon="-120.97172">
    <ele>521.94</ele>
   </trkpt>
   <trkpt lat="38.953250000000004" lon="-120.97204">
    <ele>520.32</ele>
   </trkpt>
   <trkpt lat="38.953100000000006" lon="-120.97221">
    <ele>519.85</ele>
   </trkpt>
   <trkpt lat="38.952890000000004" lon="-120.97253">
    <ele>519.34</ele>
   </trkpt>
   <trkpt lat="38.95257" lon="-120.97284">
    <ele>521.78</ele>
   </trkpt>
   <trkpt lat="38.951950000000004" lon="-120.97329">
    <ele>527.84</ele>
   </trkpt>
   <trkpt lat="38.95181" lon="-120.97338">
    <ele>528.3500000000001</ele>
   </trkpt>
   <trkpt lat="38.951570000000004" lon="-120.97348000000001">
    <ele>530.1600000000001</ele>
   </trkpt>
   <trkpt lat="38.95154" lon="-120.97351">
    <ele>530.33</ele>
   </trkpt>
   <trkpt lat="38.95154" lon="-120.97361000000001">
    <ele>530.4100000000001</ele>
   </trkpt>
   <trkpt lat="38.951600000000006" lon="-120.97373">
    <ele>530.33</ele>
   </trkpt>
   <trkpt lat="38.95179" lon="-120.974">
    <ele>531.1600000000001</ele>
   </trkpt>
   <trkpt lat="38.951910000000005" lon="-120.97433000000001">
    <ele>533.44</ele>
   </trkpt>
   <trkpt lat="38.951910000000005" lon="-120.97441">
    <ele>535.2300000000001</ele>
   </trkpt>
   <trkpt lat="38.95187000000001" lon="-120.97459">
    <ele>536.1</ele>
   </trkpt>
   <trkpt lat="38.95178000000001" lon="-120.9749">
    <ele>539.19</ele>
   </trkpt>
   <trkpt lat="38.95178000000001" lon="-120.97499">
    <ele>539.19</ele>
   </trkpt>
   <trkpt lat="38.95188" lon="-120.97517">
    <ele>541.86</ele>
   </trkpt>
   <trkpt lat="38.95212" lon="-120.97535">
    <ele>543.71</ele>
   </trkpt>
   <trkpt lat="38.95239" lon="-120.97561">
    <ele>548.9200000000001</ele>
   </trkpt>
   <trkpt lat="38.95244" lon="-120.97575">
    <ele>549.33</ele>
   </trkpt>
   <trkpt lat="38.952450000000006" lon="-120.97584">
    <ele>549.9300000000001</ele>
   </trkpt>
   <trkpt lat="38.95241" lon="-120.97597">
    <ele>550.1400000000001</ele>
   </trkpt>
   <trkpt lat="38.95232" lon="-120.97606">
    <ele>550.08</ele>
   </trkpt>
   <trkpt lat="38.952130000000004" lon="-120.97615">
    <ele>550.19</ele>
   </trkpt>
   <trkpt lat="38.9519" lon="-120.97637">
    <ele>551.7200000000001</ele>
   </trkpt>
   <trkpt lat="38.95178000000001" lon="-120.97643000000001">
    <ele>553.44</ele>
   </trkpt>
   <trkpt lat="38.951460000000004" lon="-120.97650000000002">
    <ele>555.1600000000001</ele>
   </trkpt>
   <trkpt lat="38.9508" lon="-120.977">
    <ele>550.7</ele>
   </trkpt>
   <trkpt lat="38.95062" lon="-120.97705">
    <ele>548.85</ele>
   </trkpt>
   <trkpt lat="38.95036" lon="-120.97709">
    <ele>545.6500000000001</ele>
   </trkpt>
   <trkpt lat="38.94999" lon="-120.97723">
    <ele>544.35</ele>
   </trkpt>
   <trkpt lat="38.94995" lon="-120.97725000000001">
    <ele>544.2</ele>
   </trkpt>
   <trkpt lat="38.949850000000005" lon="-120.97728000000001">
    <ele>543.97</ele>
   </trkpt>
   <trkpt lat="38.94973" lon="-120.97724000000001">
    <ele>542.9000000000001</ele>
   </trkpt>
   <trkpt lat="38.94964" lon="-120.97715000000001">
    <ele>542.9000000000001</ele>
   </trkpt>
   <trkpt lat="38.949510000000004" lon="-120.97706000000001">
    <ele>542.08</ele>
   </trkpt>
   <trkpt lat="38.94935" lon="-120.97701">
    <ele>541.0200000000001</ele>
   </trkpt>
   <trkpt lat="38.94928" lon="-120.97705">
    <ele>541.0200000000001</ele>
   </trkpt>
   <trkpt lat="38.949070000000006" lon="-120.97723">
    <ele>538.78</ele>
   </trkpt>
   <trkpt lat="38.94876" lon="-120.97745">
    <ele>535.19</ele>
   </trkpt>
   <trkpt lat="38.94841" lon="-120.97794">
    <ele>530.52</ele>
   </trkpt>
   <trkpt lat="38.94839" lon="-120.97803">
    <ele>530.33</ele>
   </trkpt>
   <trkpt lat="38.94845" lon="-120.97831000000001">
    <ele>529.4300000000001</ele>
   </trkpt>
   <trkpt lat="38.94854" lon="-120.97848">
    <ele>528.5600000000001</ele>
   </trkpt>
   <trkpt lat="38.94856" lon="-120.97857">
    <ele>527.6</ele>
   </trkpt>
   <trkpt lat="38.94856" lon="-120.9787">
    <ele>527.0400000000001</ele>
   </trkpt>
   <trkpt lat="38.9485" lon="-120.97897">
    <ele>523.21</ele>
   </trkpt>
   <trkpt lat="38.94840000000001" lon="-120.97929">
    <ele>519.46</ele>
   </trkpt>
   <trkpt lat="38.94823" lon="-120.97951">
    <ele>516.7900000000001</ele>
   </trkpt>
   <trkpt lat="38.94807" lon="-120.97957000000001">
    <ele>515.8600000000001</ele>
   </trkpt>
   <trkpt lat="38.9487" lon="-120.98033000000001">
    <ele>510.0</ele>
   </trkpt>
   <trkpt lat="38.948780000000006" lon="-120.9805">
    <ele>509.49</ele>
   </trkpt>
   <trkpt lat="38.94883" lon="-120.98071000000002">
    <ele>508.62000000000006</ele>
   </trkpt>
   <trkpt lat="38.94885" lon="-120.98089000000002">
    <ele>507.69000000000005</ele>
   </trkpt>
   <trkpt lat="38.948780000000006" lon="-120.98135">
    <ele>506.4700000000001</ele>
   </trkpt>
   <trkpt lat="38.94879" lon="-120.98143">
    <ele>506.19</ele>
   </trkpt>
   <trkpt lat="38.948840000000004" lon="-120.98153">
    <ele>505.87</ele>
   </trkpt>
   <trkpt lat="38.94896000000001" lon="-120.98166">
    <ele>504.11000000000007</ele>
   </trkpt>
   <trkpt lat="38.94943000000001" lon="-120.98192000000002">
    <ele>501.31</ele>
   </trkpt>
   <trkpt lat="38.949510000000004" lon="-120.98197">
    <ele>500.92999999999995</ele>
   </trkpt>
   <trkpt lat="38.94957" lon="-120.98207000000001">
    <ele>500.81000000000006</ele>
   </trkpt>
   <trkpt lat="38.94968" lon="-120.98243000000001">
    <ele>501.45000000000005</ele>
   </trkpt>
   <trkpt lat="38.9497" lon="-120.9826">
    <ele>502.07</ele>
   </trkpt>
   <trkpt lat="38.94968" lon="-120.98279000000001">
    <ele>502.14000000000004</ele>
   </trkpt>
   <trkpt lat="38.94959" lon="-120.983">
    <ele>500.6700000000001</ele>
   </trkpt>
   <trkpt lat="38.9495" lon="-120.98314">
    <ele>500.43</ele>
   </trkpt>
   <trkpt lat="38.949200000000005" lon="-120.98344000000002">
    <ele>499.2300000000001</ele>
   </trkpt>
   <trkpt lat="38.94885" lon="-120.98372">
    <ele>499.09000000000003</ele>
   </trkpt>
   <trkpt lat="38.948640000000005" lon="-120.98399">
    <ele>497.97</ele>
   </trkpt>
   <trkpt lat="38.948460000000004" lon="-120.98457">
    <ele>496.12000000000006</ele>
   </trkpt>
   <trkpt lat="38.948420000000006" lon="-120.98507000000001">
    <ele>495.46000000000004</ele>
   </trkpt>
   <trkpt lat="38.94838" lon="-120.98528">
    <ele>494.76000000000005</ele>
   </trkpt>
   <trkpt lat="38.94832" lon="-120.98543000000001">
    <ele>494.52</ele>
   </trkpt>
   <trkpt lat="38.94825" lon="-120.98552000000001">
    <ele>494.37</ele>
   </trkpt>
   <trkpt lat="38.94805" lon="-120.98570000000001">
    <ele>492.73</ele>
   </trkpt>
   <trkpt lat="38.947660000000006" lon="-120.98592000000001">
    <ele>491.7900000000001</ele>
   </trkpt>
   <trkpt lat="38.947140000000005" lon="-120.98646000000001">
    <ele>491.37</ele>
   </trkpt>
   <trkpt lat="38.94693" lon="-120.98658">
    <ele>492.04</ele>
   </trkpt>
   <trkpt lat="38.94628" lon="-120.98682000000001">
    <ele>491.18000000000006</ele>
   </trkpt>
   <trkpt lat="38.94572" lon="-120.98716">
    <ele>488.19</ele>
   </trkpt>
   <trkpt lat="38.945570000000004" lon="-120.98735">
    <ele>485.61</ele>
   </trkpt>
   <trkpt lat="38.945530000000005" lon="-120.98775">
    <ele>484.86</ele>
   </trkpt>
   <trkpt lat="38.94548" lon="-120.98801000000002">
    <ele>483.79</ele>
   </trkpt>
   <trkpt lat="38.94540000000001" lon="-120.98833">
    <ele>482.65000000000003</ele>
   </trkpt>
   <trkpt lat="38.94538" lon="-120.98851">
    <ele>479.58000000000004</ele>
   </trkpt>
   <trkpt lat="38.94539" lon="-120.9886">
    <ele>479.58000000000004</ele>
   </trkpt>
   <trkpt lat="38.94543" lon="-120.98869">
    <ele>478.40000000000003</ele>
   </trkpt>
   <trkpt lat="38.94548" lon="-120.98873">
    <ele>478.07000000000005</ele>
   </trkpt>
   <trkpt lat="38.945550000000004" lon="-120.98874">
    <ele>477.56</ele>
   </trkpt>
   <trkpt lat="38.945820000000005" lon="-120.98869">
    <ele>477.48</ele>
   </trkpt>
   <trkpt lat="38.94605000000001" lon="-120.98869">
    <ele>478.74000000000007</ele>
   </trkpt>
   <trkpt lat="38.94612" lon="-120.98873">
    <ele>479.04</ele>
   </trkpt>
   <trkpt lat="38.94615" lon="-120.98878">
    <ele>479.72</ele>
   </trkpt>
   <trkpt lat="38.94617" lon="-120.98887">
    <ele>480.09000000000003</ele>
   </trkpt>
   <trkpt lat="38.9461" lon="-120.98913">
    <ele>482.1</ele>
   </trkpt>
   <trkpt lat="38.946070000000006" lon="-120.98931">
    <ele>484.52000000000004</ele>
   </trkpt>
   <trkpt lat="38.94608" lon="-120.98945">
    <ele>485.33000000000004</ele>
   </trkpt>
   <trkpt lat="38.94617" lon="-120.98964000000001">
    <ele>484.86</ele>
   </trkpt>
   <trkpt lat="38.946380000000005" lon="-120.98999">
    <ele>482.43</ele>
   </trkpt>
   <trkpt lat="38.94643000000001" lon="-120.99012">
    <ele>482.43</ele>
   </trkpt>
   <trkpt lat="38.946580002077575" lon="-120.99081499860745">
    <ele>483.73</ele>
   </trkpt>
   <trkpt lat="38.94673" lon="-120.99151">
    <ele>485.93</ele>
   </trkpt>
   <trkpt lat="38.94671" lon="-120.99178">
    <ele>484.29</ele>
   </trkpt>
   <trkpt lat="38.946650000000005" lon="-120.99197000000001">
    <ele>482.6</ele>
   </trkpt>
   <trkpt lat="38.946450000000006" lon="-120.9924">
    <ele>475.97</ele>
   </trkpt>
   <trkpt lat="38.946380000000005" lon="-120.99249">
    <ele>475.97</ele>
   </trkpt>
   <trkpt lat="38.94624" lon="-120.99258">
    <ele>471.49</ele>
   </trkpt>
   <trkpt lat="38.94592" lon="-120.99262000000002">
    <ele>467.94</ele>
   </trkpt>
   <trkpt lat="38.945530000000005" lon="-120.99272">
    <ele>463.25000000000006</ele>
   </trkpt>
   <trkpt lat="38.94538" lon="-120.99268000000001">
    <ele>462.18</ele>
   </trkpt>
   <trkpt lat="38.945040000000006" lon="-120.9925">
    <ele>457.66</ele>
   </trkpt>
   <trkpt lat="38.94489" lon="-120.99249">
    <ele>456.96000000000004</ele>
   </trkpt>
   <trkpt lat="38.944810000000004" lon="-120.99246000000001">
    <ele>456.74</ele>
   </trkpt>
   <trkpt lat="38.94469" lon="-120.99237000000001">
    <ele>456.16</ele>
   </trkpt>
   <trkpt lat="38.94458" lon="-120.99232">
    <ele>454.86</ele>
   </trkpt>
   <trkpt lat="38.94429" lon="-120.99231">
    <ele>452.91</ele>
   </trkpt>
   <trkpt lat="38.94406" lon="-120.99218">
    <ele>449.01</ele>
   </trkpt>
   <trkpt lat="38.943960000000004" lon="-120.99209">
    <ele>449.01</ele>
   </trkpt>
   <trkpt lat="38.94377" lon="-120.99174000000001">
    <ele>444.68</ele>
   </trkpt>
   <trkpt lat="38.943720000000006" lon="-120.9916">
    <ele>443.87000000000006</ele>
   </trkpt>
   <trkpt lat="38.943670000000004" lon="-120.99132000000002">
    <ele>442.31</ele>
   </trkpt>
   <trkpt lat="38.943630000000006" lon="-120.99119">
    <ele>441.66</ele>
   </trkpt>
   <trkpt lat="38.943470000000005" lon="-120.99102">
    <ele>439.87</ele>
   </trkpt>
   <trkpt lat="38.943430000000006" lon="-120.99094000000001">
    <ele>439.38000000000005</ele>
   </trkpt>
   <trkpt lat="38.94341" lon="-120.99088">
    <ele>439.38000000000005</ele>
   </trkpt>
   <trkpt lat="38.943470000000005" lon="-120.99057">
    <ele>437.66</ele>
   </trkpt>
   <trkpt lat="38.943450000000006" lon="-120.99052">
    <ele>437.12</ele>
   </trkpt>
   <trkpt lat="38.94317" lon="-120.9903">
    <ele>431.63</ele>
   </trkpt>
   <trkpt lat="38.94315" lon="-120.9903">
    <ele>431.63</ele>
   </trkpt>
   <trkpt lat="38.94314" lon="-120.99045000000001">
    <ele>430.33000000000004</ele>
   </trkpt>
   <trkpt lat="38.94308" lon="-120.99050000000001">
    <ele>430.32000000000005</ele>
   </trkpt>
   <trkpt lat="38.94306" lon="-120.99049000000001">
    <ele>431.05</ele>
   </trkpt>
   <trkpt lat="38.943000000000005" lon="-120.99043">
    <ele>431.05</ele>
   </trkpt>
   <trkpt lat="38.94296000000001" lon="-120.99043">
    <ele>431.86</ele>
   </trkpt>
   <trkpt lat="38.94268" lon="-120.99093">
    <ele>434.51000000000005</ele>
   </trkpt>
   <trkpt lat="38.94247" lon="-120.99137">
    <ele>437.97</ele>
   </trkpt>
   <trkpt lat="38.94225" lon="-120.99218">
    <ele>444.37000000000006</ele>
   </trkpt>
   <trkpt lat="38.94207" lon="-120.99249">
    <ele>447.04</ele>
   </trkpt>
   <trkpt lat="38.94176" lon="-120.99294">
    <ele>450.51</ele>
   </trkpt>
   <trkpt lat="38.94163" lon="-120.99348">
    <ele>454.84000000000003</ele>
   </trkpt>
   <trkpt lat="38.94154" lon="-120.99366">
    <ele>455.57</ele>
   </trkpt>
   <trkpt lat="38.94145" lon="-120.99375">
    <ele>457.15000000000003</ele>
   </trkpt>
   <trkpt lat="38.94135" lon="-120.99383000000002">
    <ele>457.52000000000004</ele>
   </trkpt>
   <trkpt lat="38.94097" lon="-120.99394000000001">
    <ele>460.84000000000003</ele>
   </trkpt>
   <trkpt lat="38.940630000000006" lon="-120.99388">
    <ele>463.79</ele>
   </trkpt>
   <trkpt lat="38.940540000000006" lon="-120.99388">
    <ele>463.86</ele>
   </trkpt>
   <trkpt lat="38.94017" lon="-120.99397">
    <ele>464.86</ele>
   </trkpt>
   <trkpt lat="38.939840000000004" lon="-120.99414000000002">
    <ele>464.19000000000005</ele>
   </trkpt>
   <trkpt lat="38.939710000000005" lon="-120.99416000000001">
    <ele>464.12</ele>
   </trkpt>
   <trkpt lat="38.93957" lon="-120.99415">
    <ele>464.01000000000005</ele>
   </trkpt>
   <trkpt lat="38.939370000000004" lon="-120.9941">
    <ele>463.64000000000004</ele>
   </trkpt>
   <trkpt lat="38.9393" lon="-120.99411">
    <ele>463.66</ele>
   </trkpt>
   <trkpt lat="38.939130000000006" lon="-120.99437">
    <ele>463.91</ele>
   </trkpt>
   <trkpt lat="38.93905" lon="-120.99442">
    <ele>464.22</ele>
   </trkpt>
   <trkpt lat="38.93872" lon="-120.99443000000001">
    <ele>466.91</ele>
   </trkpt>
   <trkpt lat="38.938570000000006" lon="-120.99442">
    <ele>468.44</ele>
   </trkpt>
   <trkpt lat="38.938550000000006" lon="-120.99451">
    <ele>468.87000000000006</ele>
   </trkpt>
   <trkpt lat="38.938610000000004" lon="-120.9946">
    <ele>469.52000000000004</ele>
   </trkpt>
   <trkpt lat="38.93871" lon="-120.99509">
    <ele>472.05</ele>
   </trkpt>
   <trkpt lat="38.938770000000005" lon="-120.99528000000001">
    <ele>472.41</ele>
   </trkpt>
   <trkpt lat="38.93882" lon="-120.99536">
    <ele>472.31000000000006</ele>
   </trkpt>
   <trkpt lat="38.93896" lon="-120.99553000000002">
    <ele>471.34000000000003</ele>
   </trkpt>
   <trkpt lat="38.939260000000004" lon="-120.99558">
    <ele>469.39000000000004</ele>
   </trkpt>
   <trkpt lat="38.93952" lon="-120.99577000000001">
    <ele>468.4200000000001</ele>
   </trkpt>
   <trkpt lat="38.93972" lon="-120.99589">
    <ele>466.63000000000005</ele>
   </trkpt>
   <trkpt lat="38.939780000000006" lon="-120.99598">
    <ele>465.9800000000001</ele>
   </trkpt>
   <trkpt lat="38.939800000000005" lon="-120.99612">
    <ele>465.28000000000003</ele>
   </trkpt>
   <trkpt lat="38.939780000000006" lon="-120.99621">
    <ele>464.95000000000005</ele>
   </trkpt>
   <trkpt lat="38.939710000000005" lon="-120.99626">
    <ele>464.66</ele>
   </trkpt>
   <trkpt lat="38.939640000000004" lon="-120.9963">
    <ele>464.66</ele>
   </trkpt>
   <trkpt lat="38.939510000000006" lon="-120.9963">
    <ele>464.29</ele>
   </trkpt>
   <trkpt lat="38.93925" lon="-120.99621">
    <ele>464.44</ele>
   </trkpt>
   <trkpt lat="38.938860000000005" lon="-120.99621">
    <ele>467.1</ele>
   </trkpt>
   <trkpt lat="38.938810000000004" lon="-120.99622000000001">
    <ele>467.40000000000003</ele>
   </trkpt>
   <trkpt lat="38.938750000000006" lon="-120.9963">
    <ele>467.65000000000003</ele>
   </trkpt>
   <trkpt lat="38.93871" lon="-120.99644">
    <ele>468.32</ele>
   </trkpt>
   <trkpt lat="38.93865" lon="-120.99653">
    <ele>468.90000000000003</ele>
   </trkpt>
   <trkpt lat="38.93851" lon="-120.99666">
    <ele>469.91</ele>
   </trkpt>
   <trkpt lat="38.938390000000005" lon="-120.9967">
    <ele>471.13000000000005</ele>
   </trkpt>
   <trkpt lat="38.93793" lon="-120.99675">
    <ele>476.08000000000004</ele>
   </trkpt>
   <trkpt lat="38.93782" lon="-120.99684">
    <ele>476.53000000000003</ele>
   </trkpt>
   <trkpt lat="38.93775" lon="-120.99692">
    <ele>476.5</ele>
   </trkpt>
   <trkpt lat="38.93762" lon="-120.99751">
    <ele>474.19000000000005</ele>
   </trkpt>
   <trkpt lat="38.93741500159632" lon="-120.99811500164611">
    <ele>469.95000000000005</ele>
   </trkpt>
   <trkpt lat="38.93721" lon="-120.99872">
    <ele>466.74</ele>
   </trkpt>
   <trkpt lat="38.93719" lon="-120.99885">
    <ele>465.91</ele>
   </trkpt>
   <trkpt lat="38.93722" lon="-120.99898">
    <ele>465.66</ele>
   </trkpt>
   <trkpt lat="38.93732" lon="-120.99912">
    <ele>465.55</ele>
   </trkpt>
   <trkpt lat="38.93755" lon="-120.99934">
    <ele>465.84000000000003</ele>
   </trkpt>
   <trkpt lat="38.93762" lon="-120.99944">
    <ele>466.16</ele>
   </trkpt>
   <trkpt lat="38.93782" lon="-120.99997">
    <ele>465.18</ele>
   </trkpt>
   <trkpt lat="38.93788" lon="-121.00019">
    <ele>464.74</ele>
   </trkpt>
   <trkpt lat="38.937990000000006" lon="-121.00069">
    <ele>464.36</ele>
   </trkpt>
   <trkpt lat="38.937960000000004" lon="-121.00105">
    <ele>464.94</ele>
   </trkpt>
   <trkpt lat="38.93789" lon="-121.00122">
    <ele>465.35</ele>
   </trkpt>
   <trkpt lat="38.93777" lon="-121.00136">
    <ele>465.71</ele>
   </trkpt>
   <trkpt lat="38.93769" lon="-121.0014">
    <ele>465.71</ele>
   </trkpt>
   <trkpt lat="38.937360000000005" lon="-121.00145">
    <ele>466.57000000000005</ele>
   </trkpt>
   <trkpt lat="38.937250000000006" lon="-121.00145">
    <ele>466.58000000000004</ele>
   </trkpt>
   <trkpt lat="38.936960000000006" lon="-121.00127">
    <ele>466.15000000000003</ele>
   </trkpt>
   <trkpt lat="38.93683" lon="-121.00131">
    <ele>465.27</ele>
   </trkpt>
   <trkpt lat="38.93672" lon="-121.00136">
    <ele>464.07000000000005</ele>
   </trkpt>
   <trkpt lat="38.93657" lon="-121.00172">
    <ele>462.96000000000004</ele>
   </trkpt>
   <trkpt lat="38.93652" lon="-121.00176">
    <ele>462.70000000000005</ele>
   </trkpt>
   <trkpt lat="38.93643" lon="-121.00176">
    <ele>462.52000000000004</ele>
   </trkpt>
   <trkpt lat="38.93627" lon="-121.00168000000001">
    <ele>462.42</ele>
   </trkpt>
   <trkpt lat="38.93621" lon="-121.00171000000002">
    <ele>462.42</ele>
   </trkpt>
   <trkpt lat="38.936150000000005" lon="-121.00176">
    <ele>462.34000000000003</ele>
   </trkpt>
   <trkpt lat="38.93612" lon="-121.00185">
    <ele>462.33</ele>
   </trkpt>
   <trkpt lat="38.936060000000005" lon="-121.00234">
    <ele>462.38</ele>
   </trkpt>
   <trkpt lat="38.936" lon="-121.00262000000001">
    <ele>461.49</ele>
   </trkpt>
   <trkpt lat="38.935880000000004" lon="-121.00292">
    <ele>458.45</ele>
   </trkpt>
   <trkpt lat="38.935810000000004" lon="-121.00301">
    <ele>457.53000000000003</ele>
   </trkpt>
   <trkpt lat="38.93533" lon="-121.00337">
    <ele>452.62</ele>
   </trkpt>
   <trkpt lat="38.93529" lon="-121.00344000000001">
    <ele>452.36</ele>
   </trkpt>
   <trkpt lat="38.93527" lon="-121.00352000000001">
    <ele>452.36</ele>
   </trkpt>
   <trkpt lat="38.93529" lon="-121.00368000000002">
    <ele>452.19000000000005</ele>
   </trkpt>
   <trkpt lat="38.93538" lon="-121.00382">
    <ele>452.23</ele>
   </trkpt>
   <trkpt lat="38.935570000000006" lon="-121.00393000000001">
    <ele>452.59000000000003</ele>
   </trkpt>
   <trkpt lat="38.935700000000004" lon="-121.00404">
    <ele>453.22</ele>
   </trkpt>
   <trkpt lat="38.93582" lon="-121.00427">
    <ele>453.68</ele>
   </trkpt>
   <trkpt lat="38.935930000000006" lon="-121.00471">
    <ele>454.1600000000001</ele>
   </trkpt>
   <trkpt lat="38.935930000000006" lon="-121.00516">
    <ele>457.77</ele>
   </trkpt>
   <trkpt lat="38.93598" lon="-121.00539">
    <ele>458.65000000000003</ele>
   </trkpt>
   <trkpt lat="38.93612" lon="-121.00543">
    <ele>460.15000000000003</ele>
   </trkpt>
   <trkpt lat="38.936240000000005" lon="-121.00552">
    <ele>461.71000000000004</ele>
   </trkpt>
   <trkpt lat="38.93629000000001" lon="-121.00576000000001">
    <ele>462.82000000000005</ele>
   </trkpt>
   <trkpt lat="38.936330000000005" lon="-121.00579">
    <ele>462.92</ele>
   </trkpt>
   <trkpt lat="38.93645" lon="-121.00576000000001">
    <ele>462.99</ele>
   </trkpt>
   <trkpt lat="38.93654" lon="-121.00579">
    <ele>463.03000000000003</ele>
   </trkpt>
   <trkpt lat="38.93667000000001" lon="-121.00587000000002">
    <ele>462.99</ele>
   </trkpt>
   <trkpt lat="38.936820000000004" lon="-121.00598000000001">
    <ele>462.65000000000003</ele>
   </trkpt>
   <trkpt lat="38.937070000000006" lon="-121.00637">
    <ele>461.95000000000005</ele>
   </trkpt>
   <trkpt lat="38.937110000000004" lon="-121.00647000000001">
    <ele>461.59000000000003</ele>
   </trkpt>
   <trkpt lat="38.93713" lon="-121.00668">
    <ele>461.38</ele>
   </trkpt>
   <trkpt lat="38.937110000000004" lon="-121.00704">
    <ele>459.69000000000005</ele>
   </trkpt>
   <trkpt lat="38.93704" lon="-121.00762">
    <ele>461.19000000000005</ele>
   </trkpt>
   <trkpt lat="38.937050000000006" lon="-121.00803">
    <ele>462.44</ele>
   </trkpt>
   <trkpt lat="38.937090000000005" lon="-121.00822000000001">
    <ele>462.76000000000005</ele>
   </trkpt>
   <trkpt lat="38.9373" lon="-121.00865">
    <ele>463.34000000000003</ele>
   </trkpt>
   <trkpt lat="38.93733" lon="-121.00874">
    <ele>463.34000000000003</ele>
   </trkpt>
   <trkpt lat="38.937340000000006" lon="-121.00892">
    <ele>463.56</ele>
   </trkpt>
   <trkpt lat="38.937290000000004" lon="-121.0091">
    <ele>463.69000000000005</ele>
   </trkpt>
   <trkpt lat="38.93723000000001" lon="-121.00919">
    <ele>463.69000000000005</ele>
   </trkpt>
   <trkpt lat="38.9371" lon="-121.00932000000002">
    <ele>463.87000000000006</ele>
   </trkpt>
   <trkpt lat="38.93703" lon="-121.00942">
    <ele>463.77</ele>
   </trkpt>
   <trkpt lat="38.93697" lon="-121.00955">
    <ele>463.75000000000006</ele>
   </trkpt>
   <trkpt lat="38.936960000000006" lon="-121.00973">
    <ele>463.72</ele>
   </trkpt>
   <trkpt lat="38.937000000000005" lon="-121.01019000000001">
    <ele>463.44</ele>
   </trkpt>
   <trkpt lat="38.93699" lon="-121.01045">
    <ele>463.5400000000001</ele>
   </trkpt>
   <trkpt lat="38.937020000000004" lon="-121.01076">
    <ele>464.19000000000005</ele>
   </trkpt>
   <trkpt lat="38.93701" lon="-121.01089">
    <ele>464.3</ele>
   </trkpt>
   <trkpt lat="38.93697" lon="-121.01104000000001">
    <ele>464.39000000000004</ele>
   </trkpt>
   <trkpt lat="38.93674" lon="-121.01139">
    <ele>464.78000000000003</ele>
   </trkpt>
   <trkpt lat="38.9367" lon="-121.01151000000002">
    <ele>464.78000000000003</ele>
   </trkpt>
   <trkpt lat="38.9367" lon="-121.01150000000001">
    <ele>464.78000000000003</ele>
   </trkpt>
   <trkpt lat="38.93668" lon="-121.01157">
    <ele>464.77</ele>
   </trkpt>
   <trkpt lat="38.93661" lon="-121.01201">
    <ele>464.47</ele>
   </trkpt>
   <trkpt lat="38.936460000000004" lon="-121.01246">
    <ele>463.27</ele>
   </trkpt>
   <trkpt lat="38.93632" lon="-121.01277">
    <ele>462.3</ele>
   </trkpt>
   <trkpt lat="38.936240000000005" lon="-121.01283000000001">
    <ele>462.3</ele>
   </trkpt>
   <trkpt lat="38.935750000000006" lon="-121.01295">
    <ele>460.75000000000006</ele>
   </trkpt>
   <trkpt lat="38.93564000000001" lon="-121.01295">
    <ele>460.34000000000003</ele>
   </trkpt>
   <trkpt lat="38.93551" lon="-121.01290000000002">
    <ele>459.92</ele>
   </trkpt>
   <trkpt lat="38.93524" lon="-121.01264">
    <ele>458.73</ele>
   </trkpt>
   <trkpt lat="38.93504" lon="-121.0125">
    <ele>459.03000000000003</ele>
   </trkpt>
   <trkpt lat="38.934850000000004" lon="-121.01234000000001">
    <ele>459.13000000000005</ele>
   </trkpt>
   <trkpt lat="38.93479000000001" lon="-121.01233">
    <ele>459.05</ele>
   </trkpt>
   <trkpt lat="38.93446" lon="-121.01237">
    <ele>457.65000000000003</ele>
   </trkpt>
   <trkpt lat="38.9343" lon="-121.01232000000002">
    <ele>457.18</ele>
   </trkpt>
   <trkpt lat="38.934250000000006" lon="-121.01224">
    <ele>456.90000000000003</ele>
   </trkpt>
   <trkpt lat="38.93421" lon="-121.01215">
    <ele>456.90000000000003</ele>
   </trkpt>
   <trkpt lat="38.934200000000004" lon="-121.01207000000001">
    <ele>456.8</ele>
   </trkpt>
   <trkpt lat="38.93431" lon="-121.01143">
    <ele>458.35</ele>
   </trkpt>
   <trkpt lat="38.934400000000004" lon="-121.01120000000002">
    <ele>458.65000000000003</ele>
   </trkpt>
   <trkpt lat="38.93442" lon="-121.01108">
    <ele>459.22</ele>
   </trkpt>
   <trkpt lat="38.934360000000005" lon="-121.01084000000002">
    <ele>460.37000000000006</ele>
   </trkpt>
   <trkpt lat="38.93437" lon="-121.01058">
    <ele>462.08000000000004</ele>
   </trkpt>
   <trkpt lat="38.934340000000006" lon="-121.01051000000001">
    <ele>462.35</ele>
   </trkpt>
   <trkpt lat="38.93424" lon="-121.01049">
    <ele>462.45000000000005</ele>
   </trkpt>
   <trkpt lat="38.934070000000006" lon="-121.01053">
    <ele>462.68</ele>
   </trkpt>
   <trkpt lat="38.93372" lon="-121.01103">
    <ele>460.68</ele>
   </trkpt>
   <trkpt lat="38.933490000000006" lon="-121.01117">
    <ele>460.5</ele>
   </trkpt>
   <trkpt lat="38.93329000000001" lon="-121.01143">
    <ele>460.38</ele>
   </trkpt>
   <trkpt lat="38.93316" lon="-121.01156">
    <ele>459.51000000000005</ele>
   </trkpt>
   <trkpt lat="38.93296" lon="-121.01183">
    <ele>457.33</ele>
   </trkpt>
   <trkpt lat="38.932930000000006" lon="-121.01195000000001">
    <ele>457.20000000000005</ele>
   </trkpt>
   <trkpt lat="38.932640000000006" lon="-121.01180000000001">
    <ele>453.45</ele>
   </trkpt>
   <trkpt lat="38.932480000000005" lon="-121.01183">
    <ele>451.15000000000003</ele>
   </trkpt>
   <trkpt lat="38.93234" lon="-121.01188">
    <ele>448.93000000000006</ele>
   </trkpt>
   <trkpt lat="38.93204" lon="-121.01188">
    <ele>448.76000000000005</ele>
   </trkpt>
   <trkpt lat="38.93182" lon="-121.01179">
    <ele>448.98</ele>
   </trkpt>
   <trkpt lat="38.93131" lon="-121.01148">
    <ele>451.25000000000006</ele>
   </trkpt>
   <trkpt lat="38.931200000000004" lon="-121.01152">
    <ele>451.49000000000007</ele>
   </trkpt>
   <trkpt lat="38.931160000000006" lon="-121.01165">
    <ele>451.45</ele>
   </trkpt>
   <trkpt lat="38.931160000000006" lon="-121.01183">
    <ele>450.41</ele>
   </trkpt>
   <trkpt lat="38.93113" lon="-121.01206">
    <ele>445.55000000000007</ele>
   </trkpt>
   <trkpt lat="38.931070000000005" lon="-121.01219">
    <ele>445.55000000000007</ele>
   </trkpt>
   <trkpt lat="38.93099" lon="-121.01228">
    <ele>443.18</ele>
   </trkpt>
   <trkpt lat="38.930870000000006" lon="-121.01234000000001">
    <ele>441.37</ele>
   </trkpt>
   <trkpt lat="38.93079" lon="-121.01237">
    <ele>440.48</ele>
   </trkpt>
   <trkpt lat="38.93066" lon="-121.01229000000001">
    <ele>439.12</ele>
   </trkpt>
   <trkpt lat="38.93047" lon="-121.01212000000001">
    <ele>437.55000000000007</ele>
   </trkpt>
   <trkpt lat="38.930350000000004" lon="-121.0121">
    <ele>436.43</ele>
   </trkpt>
   <trkpt lat="38.930200000000006" lon="-121.01215">
    <ele>432.81</ele>
   </trkpt>
   <trkpt lat="38.92985" lon="-121.01259">
    <ele>425.54</ele>
   </trkpt>
   <trkpt lat="38.929390000000005" lon="-121.01290000000002">
    <ele>417.42</ele>
   </trkpt>
   <trkpt lat="38.9292" lon="-121.01291">
    <ele>415.46000000000004</ele>
   </trkpt>
   <trkpt lat="38.928940000000004" lon="-121.01287">
    <ele>413.44</ele>
   </trkpt>
   <trkpt lat="38.9286" lon="-121.01273">
    <ele>406.52000000000004</ele>
   </trkpt>
   <trkpt lat="38.928180000000005" lon="-121.01277">
    <ele>402.49</ele>
   </trkpt>
   <trkpt lat="38.92806" lon="-121.01271000000001">
    <ele>402.49</ele>
   </trkpt>
   <trkpt lat="38.928050000000006" lon="-121.01246">
    <ele>401.58000000000004</ele>
   </trkpt>
   <trkpt lat="38.927980000000005" lon="-121.01219">
    <ele>400.74</ele>
   </trkpt>
   <trkpt lat="38.92776000167655" lon="-121.01156499809086">
    <ele>399.81000000000006</ele>
   </trkpt>
   <trkpt lat="38.92754" lon="-121.01094">
    <ele>399.32</ele>
   </trkpt>
   <trkpt lat="38.927300001598056" lon="-121.01032999796371">
    <ele>400.35</ele>
   </trkpt>
   <trkpt lat="38.927060000000004" lon="-121.00972000000002">
    <ele>403.36000000000007</ele>
   </trkpt>
   <trkpt lat="38.92700000000001" lon="-121.00934000000001">
    <ele>405.57000000000005</ele>
   </trkpt>
   <trkpt lat="38.926950000000005" lon="-121.00834">
    <ele>410.06</ele>
   </trkpt>
   <trkpt lat="38.92696" lon="-121.00816">
    <ele>410.06</ele>
   </trkpt>
   <trkpt lat="38.92699" lon="-121.00799">
    <ele>411.01000000000005</ele>
   </trkpt>
   <trkpt lat="38.92709" lon="-121.00772">
    <ele>411.6</ele>
   </trkpt>
   <trkpt lat="38.92728" lon="-121.00745">
    <ele>413.05</ele>
   </trkpt>
   <trkpt lat="38.92741" lon="-121.00736">
    <ele>413.27000000000004</ele>
   </trkpt>
   <trkpt lat="38.92741" lon="-121.00722">
    <ele>412.61</ele>
   </trkpt>
   <trkpt lat="38.92743" lon="-121.00710000000001">
    <ele>411.79</ele>
   </trkpt>
   <trkpt lat="38.927550000000004" lon="-121.00704">
    <ele>409.75000000000006</ele>
   </trkpt>
   <trkpt lat="38.927820000000004" lon="-121.007">
    <ele>404.97</ele>
   </trkpt>
   <trkpt lat="38.927980000000005" lon="-121.00691">
    <ele>402.6</ele>
   </trkpt>
   <trkpt lat="38.92808" lon="-121.00681000000002">
    <ele>401.57000000000005</ele>
   </trkpt>
   <trkpt lat="38.928180000000005" lon="-121.00673">
    <ele>400.28000000000003</ele>
   </trkpt>
   <trkpt lat="38.92839" lon="-121.00664">
    <ele>398.08000000000004</ele>
   </trkpt>
   <trkpt lat="38.92862" lon="-121.00657000000001">
    <ele>394.53000000000003</ele>
   </trkpt>
   <trkpt lat="38.92898" lon="-121.0066">
    <ele>389.48</ele>
   </trkpt>
   <trkpt lat="38.929170000000006" lon="-121.0066">
    <ele>387.98</ele>
   </trkpt>
   <trkpt lat="38.92929" lon="-121.00642">
    <ele>386.24</ele>
   </trkpt>
   <trkpt lat="38.92936" lon="-121.00624">
    <ele>384.81000000000006</ele>
   </trkpt>
   <trkpt lat="38.92933" lon="-121.00601">
    <ele>382.5</ele>
   </trkpt>
   <trkpt lat="38.929260000000006" lon="-121.00583">
    <ele>382.05000000000007</ele>
   </trkpt>
   <trkpt lat="38.92924" lon="-121.00565">
    <ele>380.36</ele>
   </trkpt>
   <trkpt lat="38.929320000000004" lon="-121.00534">
    <ele>377.42</ele>
   </trkpt>
   <trkpt lat="38.92931" lon="-121.00521">
    <ele>376.83000000000004</ele>
   </trkpt>
   <trkpt lat="38.929190000000006" lon="-121.00499">
    <ele>376.51</ele>
   </trkpt>
   <trkpt lat="38.92911" lon="-121.00477000000001">
    <ele>376.67</ele>
   </trkpt>
   <trkpt lat="38.929050000000004" lon="-121.00443000000001">
    <ele>378.22</ele>
   </trkpt>
   <trkpt lat="38.929170000000006" lon="-121.00405">
    <ele>376.38000000000005</ele>
   </trkpt>
   <trkpt lat="38.92927" lon="-121.00386">
    <ele>375.07</ele>
   </trkpt>
   <trkpt lat="38.929640000000006" lon="-121.00356000000001">
    <ele>372.77000000000004</ele>
   </trkpt>
   <trkpt lat="38.92978" lon="-121.00351">
    <ele>372.32000000000005</ele>
   </trkpt>
   <trkpt lat="38.93007" lon="-121.00333">
    <ele>370.49</ele>
   </trkpt>
   <trkpt lat="38.930170000000004" lon="-121.00316000000001">
    <ele>369.01</ele>
   </trkpt>
   <trkpt lat="38.930260000000004" lon="-121.00313000000001">
    <ele>369.06000000000006</ele>
   </trkpt>
   <trkpt lat="38.93038000000001" lon="-121.00305000000002">
    <ele>369.33000000000004</ele>
   </trkpt>
   <trkpt lat="38.93052" lon="-121.00289000000001">
    <ele>369.94000000000005</ele>
   </trkpt>
   <trkpt lat="38.93122" lon="-121.00234">
    <ele>376.26000000000005</ele>
   </trkpt>
   <trkpt lat="38.931610000000006" lon="-121.00217">
    <ele>379.09000000000003</ele>
   </trkpt>
   <trkpt lat="38.93184" lon="-121.00216">
    <ele>381.62</ele>
   </trkpt>
   <trkpt lat="38.93244" lon="-121.00199">
    <ele>386.03000000000003</ele>
   </trkpt>
   <trkpt lat="38.93267" lon="-121.00207">
    <ele>389.69000000000005</ele>
   </trkpt>
   <trkpt lat="38.932790000000004" lon="-121.00216">
    <ele>392.11</ele>
   </trkpt>
   <trkpt lat="38.932860000000005" lon="-121.00213000000001">
    <ele>392.11</ele>
   </trkpt>
   <trkpt lat="38.93298" lon="-121.00207">
    <ele>393.90000000000003</ele>
   </trkpt>
   <trkpt lat="38.93352" lon="-121.00185">
    <ele>400.75000000000006</ele>
   </trkpt>
   <trkpt lat="38.933670000000006" lon="-121.00185">
    <ele>403.8</ele>
   </trkpt>
   <trkpt lat="38.93399" lon="-121.00198">
    <ele>407.12</ele>
   </trkpt>
   <trkpt lat="38.93406" lon="-121.00194">
    <ele>410.13000000000005</ele>
   </trkpt>
   <trkpt lat="38.93412" lon="-121.00189">
    <ele>410.13000000000005</ele>
   </trkpt>
   <trkpt lat="38.93422" lon="-121.00171000000002">
    <ele>412.65000000000003</ele>
   </trkpt>
   <trkpt lat="38.93441" lon="-121.00149">
    <ele>415.96000000000004</ele>
   </trkpt>
   <trkpt lat="38.93451" lon="-121.00136">
    <ele>418.27000000000004</ele>
   </trkpt>
   <trkpt lat="38.934610000000006" lon="-121.001">
    <ele>421.43</ele>
   </trkpt>
   <trkpt lat="38.93469" lon="-121.00082">
    <ele>422.63000000000005</ele>
   </trkpt>
   <trkpt lat="38.93478" lon="-121.00069">
    <ele>426.03000000000003</ele>
   </trkpt>
   <trkpt lat="38.93506" lon="-121.00050000000002">
    <ele>428.43</ele>
   </trkpt>
   <trkpt lat="38.93527" lon="-121.00029">
    <ele>431.17</ele>
   </trkpt>
   <trkpt lat="38.935460000000006" lon="-121.00019">
    <ele>434.1</ele>
   </trkpt>
   <trkpt lat="38.9356" lon="-121.00015">
    <ele>437.49</ele>
   </trkpt>
   <trkpt lat="38.93572" lon="-121.00007000000001">
    <ele>437.49</ele>
   </trkpt>
   <trkpt lat="38.93582" lon="-120.99997">
    <ele>440.93</ele>
   </trkpt>
   <trkpt lat="38.93603" lon="-120.99962000000001">
    <ele>443.86</ele>
   </trkpt>
   <trkpt lat="38.936080000000004" lon="-120.99949000000001">
    <ele>447.78000000000003</ele>
   </trkpt>
   <trkpt lat="38.936110000000006" lon="-120.99934">
    <ele>447.78000000000003</ele>
   </trkpt>
   <trkpt lat="38.93609" lon="-120.99907">
    <ele>450.29</ele>
   </trkpt>
   <trkpt lat="38.93598" lon="-120.99867">
    <ele>455.39</ele>
   </trkpt>
   <trkpt lat="38.93603" lon="-120.99764">
    <ele>463.16</ele>
   </trkpt>
   <trkpt lat="38.936080000000004" lon="-120.99728">
    <ele>467.14000000000004</ele>
   </trkpt>
   <trkpt lat="38.936130000000006" lon="-120.99704000000001">
    <ele>469.30000000000007</ele>
   </trkpt>
   <trkpt lat="38.93621" lon="-120.99697">
    <ele>470.23</ele>
   </trkpt>
   <trkpt lat="38.936280000000004" lon="-120.99678000000002">
    <ele>470.36000000000007</ele>
   </trkpt>
   <trkpt lat="38.93619" lon="-120.99576">
    <ele>458.41</ele>
   </trkpt>
   <trkpt lat="38.93629000000001" lon="-120.99535000000002">
    <ele>460.86</ele>
   </trkpt>
   <trkpt lat="38.93647500121229" lon="-120.99482000134263">
    <ele>461.35</ele>
   </trkpt>
   <trkpt lat="38.93666" lon="-120.99429">
    <ele>463.97</ele>
   </trkpt>
   <trkpt lat="38.93666" lon="-120.99411">
    <ele>469.16</ele>
   </trkpt>
   <trkpt lat="38.93681" lon="-120.99374000000002">
    <ele>472.20000000000005</ele>
   </trkpt>
   <trkpt lat="38.93685" lon="-120.99354000000001">
    <ele>474.63000000000005</ele>
   </trkpt>
   <trkpt lat="38.936820000000004" lon="-120.99343">
    <ele>476.55</ele>
   </trkpt>
   <trkpt lat="38.93674" lon="-120.99334">
    <ele>478.04</ele>
   </trkpt>
   <trkpt lat="38.9365" lon="-120.99312">
    <ele>484.16</ele>
   </trkpt>
   <trkpt lat="38.93627" lon="-120.99254">
    <ele>486.53000000000003</ele>
   </trkpt>
   <trkpt lat="38.93607" lon="-120.99218">
    <ele>489.43</ele>
   </trkpt>
   <trkpt lat="38.936060000000005" lon="-120.99204">
    <ele>489.8500000000001</ele>
   </trkpt>
   <trkpt lat="38.93609" lon="-120.99159000000002">
    <ele>492.67</ele>
   </trkpt>
   <trkpt lat="38.93616" lon="-120.99142">
    <ele>492.8</ele>
   </trkpt>
   <trkpt lat="38.936240000000005" lon="-120.99133">
    <ele>492.3</ele>
   </trkpt>
   <trkpt lat="38.93648" lon="-120.99116000000001">
    <ele>489.86</ele>
   </trkpt>
   <trkpt lat="38.93672" lon="-120.99106">
    <ele>487.18000000000006</ele>
   </trkpt>
   <trkpt lat="38.93686" lon="-120.99106">
    <ele>484.99</ele>
   </trkpt>
   <trkpt lat="38.937070000000006" lon="-120.99111">
    <ele>484.93</ele>
   </trkpt>
   <trkpt lat="38.937360000000005" lon="-120.99124">
    <ele>489.8500000000001</ele>
   </trkpt>
   <trkpt lat="38.93732" lon="-120.99137">
    <ele>491.81</ele>
   </trkpt>
   <trkpt lat="38.9373" lon="-120.99155">
    <ele>493.87</ele>
   </trkpt>
   <trkpt lat="38.93735" lon="-120.99197000000001">
    <ele>504.32</ele>
   </trkpt>
   <trkpt lat="38.937430000000006" lon="-120.99227">
    <ele>508.31</ele>
   </trkpt>
   <trkpt lat="38.93751" lon="-120.99236">
    <ele>509.44</ele>
   </trkpt>
   <trkpt lat="38.93762" lon="-120.99227">
    <ele>511.58000000000004</ele>
   </trkpt>
   <trkpt lat="38.93771" lon="-120.99204">
    <ele>513.97</ele>
   </trkpt>
   <trkpt lat="38.93786" lon="-120.99182">
    <ele>516.4300000000001</ele>
   </trkpt>
   <trkpt lat="38.93795" lon="-120.99174000000001">
    <ele>517.1600000000001</ele>
   </trkpt>
   <trkpt lat="38.938300000000005" lon="-120.9916">
    <ele>518.26</ele>
   </trkpt>
   <trkpt lat="38.93836" lon="-120.99155">
    <ele>517.82</ele>
   </trkpt>
   <trkpt lat="38.93838" lon="-120.99151">
    <ele>517.64</ele>
   </trkpt>
   <trkpt lat="38.93831" lon="-120.9907">
    <ele>518.87</ele>
   </trkpt>
   <trkpt lat="38.938280000000006" lon="-120.99058000000001">
    <ele>517.99</ele>
   </trkpt>
   <trkpt lat="38.93811" lon="-120.99025">
    <ele>513.71</ele>
   </trkpt>
   <trkpt lat="38.938100000000006" lon="-120.99003">
    <ele>511.75</ele>
   </trkpt>
   <trkpt lat="38.93807" lon="-120.98994">
    <ele>509.93</ele>
   </trkpt>
   <trkpt lat="38.937900000000006" lon="-120.98967">
    <ele>509.31</ele>
   </trkpt>
   <trkpt lat="38.93786" lon="-120.98958">
    <ele>509.93</ele>
   </trkpt>
   <trkpt lat="38.93784" lon="-120.9894">
    <ele>512.69</ele>
   </trkpt>
   <trkpt lat="38.93789" lon="-120.98869">
    <ele>507.83</ele>
   </trkpt>
   <trkpt lat="38.938210000000005" lon="-120.98788">
    <ele>495.99</ele>
   </trkpt>
   <trkpt lat="38.93822" lon="-120.98766">
    <ele>493.61</ele>
   </trkpt>
   <trkpt lat="38.93829" lon="-120.98734">
    <ele>490.98</ele>
   </trkpt>
   <trkpt lat="38.93829" lon="-120.98699">
    <ele>483.92</ele>
   </trkpt>
   <trkpt lat="38.938320000000004" lon="-120.9869">
    <ele>482.63000000000005</ele>
   </trkpt>
   <trkpt lat="38.93838" lon="-120.98681">
    <ele>481.85</ele>
   </trkpt>
   <trkpt lat="38.93863" lon="-120.98667">
    <ele>479.99</ele>
   </trkpt>
   <trkpt lat="38.93864000000001" lon="-120.98659">
    <ele>479.14000000000004</ele>
   </trkpt>
   <trkpt lat="38.93863" lon="-120.98654">
    <ele>478.67</ele>
   </trkpt>
   <trkpt lat="38.938570000000006" lon="-120.9864">
    <ele>478.17</ele>
   </trkpt>
   <trkpt lat="38.93851" lon="-120.98636">
    <ele>476.53000000000003</ele>
   </trkpt>
   <trkpt lat="38.9384" lon="-120.9864">
    <ele>475.62</ele>
   </trkpt>
   <trkpt lat="38.938300000000005" lon="-120.98663">
    <ele>474.67</ele>
   </trkpt>
   <trkpt lat="38.93826" lon="-120.98663">
    <ele>474.86000000000007</ele>
   </trkpt>
   <trkpt lat="38.93824" lon="-120.98654">
    <ele>475.19000000000005</ele>
   </trkpt>
   <trkpt lat="38.938280000000006" lon="-120.98627">
    <ele>477.44</ele>
   </trkpt>
   <trkpt lat="38.938210000000005" lon="-120.98609">
    <ele>478.33000000000004</ele>
   </trkpt>
   <trkpt lat="38.938210000000005" lon="-120.98601000000001">
    <ele>478.55</ele>
   </trkpt>
   <trkpt lat="38.93833" lon="-120.98588000000001">
    <ele>479.76</ele>
   </trkpt>
   <trkpt lat="38.938520000000004" lon="-120.98576000000001">
    <ele>481.91</ele>
   </trkpt>
   <trkpt lat="38.93853" lon="-120.98576000000001">
    <ele>481.91</ele>
   </trkpt>
   <trkpt lat="38.938610000000004" lon="-120.98570000000001">
    <ele>482.93</ele>
   </trkpt>
   <trkpt lat="38.938770000000005" lon="-120.98555">
    <ele>483.29</ele>
   </trkpt>
   <trkpt lat="38.93892" lon="-120.98529">
    <ele>482.39000000000004</ele>
   </trkpt>
   <trkpt lat="38.93898" lon="-120.98511">
    <ele>482.02000000000004</ele>
   </trkpt>
   <trkpt lat="38.938990000000004" lon="-120.98502">
    <ele>481.53000000000003</ele>
   </trkpt>
   <trkpt lat="38.938970000000005" lon="-120.98497">
    <ele>481.42</ele>
   </trkpt>
   <trkpt lat="38.93871" lon="-120.98461">
    <ele>482.48</ele>
   </trkpt>
   <trkpt lat="38.93864000000001" lon="-120.98447000000002">
    <ele>482.58000000000004</ele>
   </trkpt>
   <trkpt lat="38.93864000000001" lon="-120.98434">
    <ele>482.21000000000004</ele>
   </trkpt>
   <trkpt lat="38.93869" lon="-120.98416">
    <ele>480.11</ele>
   </trkpt>
   <trkpt lat="38.938860000000005" lon="-120.98403">
    <ele>477.53000000000003</ele>
   </trkpt>
   <trkpt lat="38.939080000000004" lon="-120.98395000000001">
    <ele>475.57000000000005</ele>
   </trkpt>
   <trkpt lat="38.93927" lon="-120.98395000000001">
    <ele>474.59</ele>
   </trkpt>
   <trkpt lat="38.9395" lon="-120.98399">
    <ele>470.77000000000004</ele>
   </trkpt>
   <trkpt lat="38.93959" lon="-120.98403">
    <ele>470.13000000000005</ele>
   </trkpt>
   <trkpt lat="38.939750000000004" lon="-120.98416">
    <ele>467.77</ele>
   </trkpt>
   <trkpt lat="38.93979" lon="-120.98425">
    <ele>466.1</ele>
   </trkpt>
   <trkpt lat="38.93986" lon="-120.98431000000001">
    <ele>465.12</ele>
   </trkpt>
   <trkpt lat="38.939870000000006" lon="-120.98421">
    <ele>463.08000000000004</ele>
   </trkpt>
   <trkpt lat="38.939840000000004" lon="-120.98408">
    <ele>459.90000000000003</ele>
   </trkpt>
   <trkpt lat="38.939820000000005" lon="-120.98376">
    <ele>455.42</ele>
   </trkpt>
   <trkpt lat="38.939820000000005" lon="-120.98362000000002">
    <ele>453.47</ele>
   </trkpt>
   <trkpt lat="38.93985" lon="-120.98349">
    <ele>452.87000000000006</ele>
   </trkpt>
   <trkpt lat="38.93985" lon="-120.98335000000002">
    <ele>452.67</ele>
   </trkpt>
   <trkpt lat="38.93983" lon="-120.98327">
    <ele>452.68</ele>
   </trkpt>
   <trkpt lat="38.93979" lon="-120.98318">
    <ele>452.83</ele>
   </trkpt>
   <trkpt lat="38.93954" lon="-120.98283">
    <ele>454.87000000000006</ele>
   </trkpt>
   <trkpt lat="38.93943" lon="-120.98259000000002">
    <ele>458.23</ele>
   </trkpt>
   <trkpt lat="38.93934" lon="-120.98243000000001">
    <ele>459.48</ele>
   </trkpt>
   <trkpt lat="38.93916" lon="-120.98228">
    <ele>460.56</ele>
   </trkpt>
   <trkpt lat="38.9391" lon="-120.98216000000001">
    <ele>462.09000000000003</ele>
   </trkpt>
   <trkpt lat="38.93909" lon="-120.98193">
    <ele>464.58000000000004</ele>
   </trkpt>
   <trkpt lat="38.93911000000001" lon="-120.9818">
    <ele>467.56</ele>
   </trkpt>
   <trkpt lat="38.93916" lon="-120.98166">
    <ele>469.62</ele>
   </trkpt>
   <trkpt lat="38.93918" lon="-120.98143">
    <ele>471.38</ele>
   </trkpt>
   <trkpt lat="38.93923" lon="-120.98125">
    <ele>472.4200000000001</ele>
   </trkpt>
   <trkpt lat="38.93956" lon="-120.98068">
    <ele>479.33000000000004</ele>
   </trkpt>
   <trkpt lat="38.93981" lon="-120.98037000000001">
    <ele>486.2</ele>
   </trkpt>
   <trkpt lat="38.93992" lon="-120.98031">
    <ele>487.63000000000005</ele>
   </trkpt>
   <trkpt lat="38.93999" lon="-120.98021000000001">
    <ele>489.24000000000007</ele>
   </trkpt>
   <trkpt lat="38.93999" lon="-120.98014">
    <ele>489.71000000000004</ele>
   </trkpt>
   <trkpt lat="38.93981" lon="-120.97982">
    <ele>491.46000000000004</ele>
   </trkpt>
   <trkpt lat="38.939730000000004" lon="-120.97951">
    <ele>492.45000000000005</ele>
   </trkpt>
   <trkpt lat="38.93934" lon="-120.97897">
    <ele>485.97</ele>
   </trkpt>
   <trkpt lat="38.93929" lon="-120.97888">
    <ele>485.52000000000004</ele>
   </trkpt>
   <trkpt lat="38.93929" lon="-120.97887000000001">
    <ele>485.51000000000005</ele>
   </trkpt>
   <trkpt lat="38.93921" lon="-120.9787">
    <ele>485.25</ele>
   </trkpt>
   <trkpt lat="38.939080000000004" lon="-120.97852">
    <ele>484.85</ele>
   </trkpt>
   <trkpt lat="38.93903" lon="-120.97843">
    <ele>485.33000000000004</ele>
   </trkpt>
   <trkpt lat="38.93903" lon="-120.97794">
    <ele>488.8</ele>
   </trkpt>
   <trkpt lat="38.939170000000004" lon="-120.97749">
    <ele>493.90000000000003</ele>
   </trkpt>
   <trkpt lat="38.939240000000005" lon="-120.97737000000001">
    <ele>494.63</ele>
   </trkpt>
   <trkpt lat="38.939280000000004" lon="-120.97736">
    <ele>496.97</ele>
   </trkpt>
   <trkpt lat="38.939310000000006" lon="-120.9774">
    <ele>496.97</ele>
   </trkpt>
   <trkpt lat="38.939310000000006" lon="-120.97764000000001">
    <ele>499.87</ele>
   </trkpt>
   <trkpt lat="38.939350000000005" lon="-120.97785">
    <ele>501.18000000000006</ele>
   </trkpt>
   <trkpt lat="38.93939" lon="-120.9779">
    <ele>501.72</ele>
   </trkpt>
   <trkpt lat="38.939440000000005" lon="-120.97791000000001">
    <ele>503.48</ele>
   </trkpt>
   <trkpt lat="38.93947" lon="-120.97786">
    <ele>503.48</ele>
   </trkpt>
   <trkpt lat="38.939490000000006" lon="-120.97767">
    <ele>505.19</ele>
   </trkpt>
   <trkpt lat="38.939800000000005" lon="-120.97745">
    <ele>508.57000000000005</ele>
   </trkpt>
   <trkpt lat="38.939890000000005" lon="-120.97736">
    <ele>508.8</ele>
   </trkpt>
   <trkpt lat="38.939910000000005" lon="-120.97727">
    <ele>509.37</ele>
   </trkpt>
   <trkpt lat="38.93988" lon="-120.97699000000001">
    <ele>510.62000000000006</ele>
   </trkpt>
   <trkpt lat="38.94001" lon="-120.97705">
    <ele>512.49</ele>
   </trkpt>
   <trkpt lat="38.94026" lon="-120.97709">
    <ele>513.47</ele>
   </trkpt>
   <trkpt lat="38.940580000000004" lon="-120.97723">
    <ele>513.27</ele>
   </trkpt>
   <trkpt lat="38.9407" lon="-120.97723">
    <ele>513.49</ele>
   </trkpt>
   <trkpt lat="38.940960000000004" lon="-120.97709">
    <ele>513.09</ele>
   </trkpt>
   <trkpt lat="38.941050000000004" lon="-120.97706000000001">
    <ele>513.1</ele>
   </trkpt>
   <trkpt lat="38.94116" lon="-120.97714">
    <ele>513.1600000000001</ele>
   </trkpt>
   <trkpt lat="38.94122" lon="-120.97705">
    <ele>513.5600000000001</ele>
   </trkpt>
   <trkpt lat="38.94135" lon="-120.97696">
    <ele>514.11</ele>
   </trkpt>
   <trkpt lat="38.94145" lon="-120.97683">
    <ele>515.07</ele>
   </trkpt>
   <trkpt lat="38.94156" lon="-120.97664">
    <ele>517.0400000000001</ele>
   </trkpt>
   <trkpt lat="38.941680000000005" lon="-120.97651">
    <ele>517.33</ele>
   </trkpt>
   <trkpt lat="38.941950000000006" lon="-120.97643000000001">
    <ele>518.9</ele>
   </trkpt>
   <trkpt lat="38.94218" lon="-120.97642">
    <ele>519.83</ele>
   </trkpt>
   <trkpt lat="38.942530000000005" lon="-120.97629">
    <ele>522.5000000000001</ele>
   </trkpt>
   <trkpt lat="38.94301" lon="-120.97603000000001">
    <ele>525.87</ele>
   </trkpt>
   <trkpt lat="38.94328" lon="-120.97610000000002">
    <ele>524.22</ele>
   </trkpt>
   <trkpt lat="38.943360000000006" lon="-120.97606">
    <ele>524.22</ele>
   </trkpt>
   <trkpt lat="38.94355" lon="-120.97593">
    <ele>522.99</ele>
   </trkpt>
   <trkpt lat="38.943870000000004" lon="-120.97561">
    <ele>521.47</ele>
   </trkpt>
   <trkpt lat="38.94393" lon="-120.97557">
    <ele>520.96</ele>
   </trkpt>
   <trkpt lat="38.94417" lon="-120.97567000000001">
    <ele>520.45</ele>
   </trkpt>
   <trkpt lat="38.9442" lon="-120.97553">
    <ele>519.35</ele>
   </trkpt>
   <trkpt lat="38.94436" lon="-120.97508">
    <ele>515.09</ele>
   </trkpt>
   <trkpt lat="38.94469" lon="-120.97454">
    <ele>508.50000000000006</ele>
   </trkpt>
   <trkpt lat="38.94498" lon="-120.97396">
    <ele>501.43</ele>
   </trkpt>
   <trkpt lat="38.945280000000004" lon="-120.97379000000001">
    <ele>499.25</ele>
   </trkpt>
   <trkpt lat="38.945310000000006" lon="-120.97377000000002">
    <ele>499.25</ele>
   </trkpt>
   <trkpt lat="38.94532" lon="-120.97369">
    <ele>499.25</ele>
   </trkpt>
   <trkpt lat="38.94512" lon="-120.97342">
    <ele>500.68</ele>
   </trkpt>
   <trkpt lat="38.94509" lon="-120.97329">
    <ele>501.58000000000004</ele>
   </trkpt>
   <trkpt lat="38.945060000000005" lon="-120.97294000000001">
    <ele>504.69000000000005</ele>
   </trkpt>
   <trkpt lat="38.94509" lon="-120.97275">
    <ele>506.58000000000004</ele>
   </trkpt>
   <trkpt lat="38.94514" lon="-120.97261">
    <ele>507.2300000000001</ele>
   </trkpt>
   <trkpt lat="38.945260000000005" lon="-120.97236000000001">
    <ele>508.65999999999997</ele>
   </trkpt>
   <trkpt lat="38.945350000000005" lon="-120.97226">
    <ele>509.37</ele>
   </trkpt>
   <trkpt lat="38.94549000000001" lon="-120.97217">
    <ele>510.4000000000001</ele>
   </trkpt>
   <trkpt lat="38.945730000000005" lon="-120.97216000000002">
    <ele>512.63</ele>
   </trkpt>
   <trkpt lat="38.94594" lon="-120.97221">
    <ele>513.76</ele>
   </trkpt>
   <trkpt lat="38.946290000000005" lon="-120.97243">
    <ele>514.58</ele>
   </trkpt>
   <trkpt lat="38.946360000000006" lon="-120.97244">
    <ele>515.66</ele>
   </trkpt>
   <trkpt lat="38.94642" lon="-120.97243">
    <ele>515.95</ele>
   </trkpt>
   <trkpt lat="38.94648" lon="-120.97239">
    <ele>516.1600000000001</ele>
   </trkpt>
   <trkpt lat="38.94652000000001" lon="-120.97216000000002">
    <ele>516.15</ele>
   </trkpt>
   <trkpt lat="38.94657" lon="-120.97199">
    <ele>515.61</ele>
   </trkpt>
   <trkpt lat="38.946780000000004" lon="-120.97176">
    <ele>514.26</ele>
   </trkpt>
   <trkpt lat="38.94691" lon="-120.97149">
    <ele>515.2500000000001</ele>
   </trkpt>
   <trkpt lat="38.94708" lon="-120.97121000000001">
    <ele>519.26</ele>
   </trkpt>
   <trkpt lat="38.94713" lon="-120.97118">
    <ele>519.7400000000001</ele>
   </trkpt>
   <trkpt lat="38.94736" lon="-120.97109">
    <ele>520.76</ele>
   </trkpt>
   <trkpt lat="38.94787" lon="-120.971">
    <ele>527.1300000000001</ele>
   </trkpt>
   <trkpt lat="38.947970000000005" lon="-120.97096">
    <ele>528.72</ele>
   </trkpt>
   <trkpt lat="38.948100000000004" lon="-120.97078">
    <ele>532.87</ele>
   </trkpt>
   <trkpt lat="38.948280000000004" lon="-120.97042">
    <ele>537.19</ele>
   </trkpt>
   <trkpt lat="38.94847" lon="-120.97015">
    <ele>538.46</ele>
   </trkpt>
   <trkpt lat="38.948550000000004" lon="-120.96984">
    <ele>538.0200000000001</ele>
   </trkpt>
   <trkpt lat="38.94859" lon="-120.96976000000001">
    <ele>538.03</ele>
   </trkpt>
   <trkpt lat="38.94865" lon="-120.96971">
    <ele>538.1400000000001</ele>
   </trkpt>
   <trkpt lat="38.94872" lon="-120.96971">
    <ele>538.2300000000001</ele>
   </trkpt>
   <trkpt lat="38.94881" lon="-120.9698">
    <ele>538.52</ele>
   </trkpt>
   <trkpt lat="38.94894" lon="-120.97015">
    <ele>540.8900000000001</ele>
   </trkpt>
   <trkpt lat="38.94897" lon="-120.97038">
    <ele>542.5300000000001</ele>
   </trkpt>
   <trkpt lat="38.949020000000004" lon="-120.97055">
    <ele>543.44</ele>
   </trkpt>
   <trkpt lat="38.949250000000006" lon="-120.97082">
    <ele>544.42</ele>
   </trkpt>
   <trkpt lat="38.949380000000005" lon="-120.97114">
    <ele>545.07</ele>
   </trkpt>
   <trkpt lat="38.94942" lon="-120.97123">
    <ele>544.98</ele>
   </trkpt>
   <trkpt lat="38.949470000000005" lon="-120.97127">
    <ele>544.83</ele>
   </trkpt>
   <trkpt lat="38.949560000000005" lon="-120.97123">
    <ele>544.2600000000001</ele>
   </trkpt>
   <trkpt lat="38.9498" lon="-120.97079000000001">
    <ele>540.01</ele>
   </trkpt>
   <trkpt lat="38.94990000000001" lon="-120.97068000000002">
    <ele>539.08</ele>
   </trkpt>
   <trkpt lat="38.94997" lon="-120.97064">
    <ele>538.85</ele>
   </trkpt>
   <trkpt lat="38.95011" lon="-120.97059000000002">
    <ele>538.35</ele>
   </trkpt>
   <trkpt lat="38.95075999991044" lon="-120.97055000037275">
    <ele>536.91</ele>
   </trkpt>
   <trkpt lat="38.95141" lon="-120.97051">
    <ele>535.19</ele>
   </trkpt>
   <trkpt lat="38.951550000000005" lon="-120.97043000000001">
    <ele>534.5300000000001</ele>
   </trkpt>
   <trkpt lat="38.951620000000005" lon="-120.97037000000002">
    <ele>534.2600000000001</ele>
   </trkpt>
   <trkpt lat="38.9519" lon="-120.96981000000001">
    <ele>530.66</ele>
   </trkpt>
   <trkpt lat="38.952130000000004" lon="-120.96899">
    <ele>526.73</ele>
   </trkpt>
   <trkpt lat="38.952290000000005" lon="-120.96872">
    <ele>526.2600000000001</ele>
   </trkpt>
   <trkpt lat="38.952400000000004" lon="-120.96863">
    <ele>524.9200000000001</ele>
   </trkpt>
   <trkpt lat="38.952490000000004" lon="-120.96860000000001">
    <ele>523.54</ele>
   </trkpt>
   <trkpt lat="38.95257" lon="-120.96863">
    <ele>522.7400000000001</ele>
   </trkpt>
   <trkpt lat="38.95279" lon="-120.96900000000001">
    <ele>516.05</ele>
   </trkpt>
   <trkpt lat="38.952890000000004" lon="-120.96913">
    <ele>515.5200000000001</ele>
   </trkpt>
   <trkpt lat="38.95297" lon="-120.96917">
    <ele>515.5200000000001</ele>
   </trkpt>
   <trkpt lat="38.953030000000005" lon="-120.96917">
    <ele>515.5200000000001</ele>
   </trkpt>
   <trkpt lat="38.953230000000005" lon="-120.96899">
    <ele>515.1</ele>
   </trkpt>
   <trkpt lat="38.95338" lon="-120.9689">
    <ele>514.8900000000001</ele>
   </trkpt>
   <trkpt lat="38.953450000000004" lon="-120.96881">
    <ele>514.45</ele>
   </trkpt>
   <trkpt lat="38.95365" lon="-120.9685">
    <ele>513.75</ele>
   </trkpt>
   <trkpt lat="38.95389" lon="-120.96824000000001">
    <ele>512.6700000000001</ele>
   </trkpt>
   <trkpt lat="38.954130000000006" lon="-120.96791">
    <ele>511.58000000000004</ele>
   </trkpt>
   <trkpt lat="38.954190000000004" lon="-120.96777000000002">
    <ele>510.5200000000001</ele>
   </trkpt>
   <trkpt lat="38.954190000000004" lon="-120.96765">
    <ele>510.27</ele>
   </trkpt>
   <trkpt lat="38.954170000000005" lon="-120.96756">
    <ele>509.90000000000003</ele>
   </trkpt>
   <trkpt lat="38.954040000000006" lon="-120.96733">
    <ele>509.34000000000003</ele>
   </trkpt>
   <trkpt lat="38.953990000000005" lon="-120.96715">
    <ele>508.68</ele>
   </trkpt>
   <trkpt lat="38.95351" lon="-120.96639">
    <ele>510.77000000000004</ele>
   </trkpt>
   <trkpt lat="38.953410000000005" lon="-120.96631000000001">
    <ele>511.09999999999997</ele>
   </trkpt>
   <trkpt lat="38.95328000000001" lon="-120.96627000000001">
    <ele>512.71</ele>
   </trkpt>
   <trkpt lat="38.95315" lon="-120.96627000000001">
    <ele>514.1300000000001</ele>
   </trkpt>
   <trkpt lat="38.953010000000006" lon="-120.96625000000002">
    <ele>515.4000000000001</ele>
   </trkpt>
   <trkpt lat="38.952850000000005" lon="-120.96616000000002">
    <ele>518.21</ele>
   </trkpt>
   <trkpt lat="38.952670000000005" lon="-120.96603">
    <ele>519.5200000000001</ele>
   </trkpt>
   <trkpt lat="38.952420000000004" lon="-120.96572">
    <ele>519.35</ele>
   </trkpt>
   <trkpt lat="38.95234000000001" lon="-120.96555000000001">
    <ele>519.14</ele>
   </trkpt>
   <trkpt lat="38.95233" lon="-120.96546000000001">
    <ele>519.27</ele>
   </trkpt>
   <trkpt lat="38.95234000000001" lon="-120.96536">
    <ele>519.57</ele>
   </trkpt>
   <trkpt lat="38.95246" lon="-120.96496">
    <ele>520.9</ele>
   </trkpt>
   <trkpt lat="38.95246" lon="-120.96478">
    <ele>521.1600000000001</ele>
   </trkpt>
   <trkpt lat="38.95244" lon="-120.96473">
    <ele>521.12</ele>
   </trkpt>
   <trkpt lat="38.952360000000006" lon="-120.96464">
    <ele>520.46</ele>
   </trkpt>
   <trkpt lat="38.9521" lon="-120.9646">
    <ele>518.94</ele>
   </trkpt>
   <trkpt lat="38.95199" lon="-120.96446000000002">
    <ele>518.73</ele>
   </trkpt>
   <trkpt lat="38.95187000000001" lon="-120.96424">
    <ele>519.35</ele>
   </trkpt>
   <trkpt lat="38.95176" lon="-120.96362">
    <ele>525.3800000000001</ele>
   </trkpt>
   <trkpt lat="38.95176" lon="-120.96348">
    <ele>528.9200000000001</ele>
   </trkpt>
   <trkpt lat="38.95181" lon="-120.96321">
    <ele>531.2</ele>
   </trkpt>
   <trkpt lat="38.951750000000004" lon="-120.96309000000001">
    <ele>531.6800000000001</ele>
   </trkpt>
   <trkpt lat="38.95139" lon="-120.96277">
    <ele>536.83</ele>
   </trkpt>
   <trkpt lat="38.951260000000005" lon="-120.96273000000001">
    <ele>538.58</ele>
   </trkpt>
   <trkpt lat="38.95096" lon="-120.96273000000001">
    <ele>540.72</ele>
   </trkpt>
   <trkpt lat="38.950680000000006" lon="-120.96263">
    <ele>543.47</ele>
   </trkpt>
   <trkpt lat="38.95022" lon="-120.9625">
    <ele>544.5300000000001</ele>
   </trkpt>
   <trkpt lat="38.94999" lon="-120.96245">
    <ele>546.96</ele>
   </trkpt>
   <trkpt lat="38.94990000000001" lon="-120.96246000000001">
    <ele>547.69</ele>
   </trkpt>
   <trkpt lat="38.94979" lon="-120.96254">
    <ele>548.46</ele>
   </trkpt>
   <trkpt lat="38.949470000000005" lon="-120.96258000000002">
    <ele>548.69</ele>
   </trkpt>
   <trkpt lat="38.949200000000005" lon="-120.96268">
    <ele>548.15</ele>
   </trkpt>
   <trkpt lat="38.94908" lon="-120.96272">
    <ele>549.0400000000001</ele>
   </trkpt>
   <trkpt lat="38.94901" lon="-120.96268">
    <ele>549.96</ele>
   </trkpt>
   <trkpt lat="38.94894" lon="-120.96264000000001">
    <ele>549.96</ele>
   </trkpt>
   <trkpt lat="38.94876" lon="-120.96240000000002">
    <ele>553.23</ele>
   </trkpt>
   <trkpt lat="38.94854" lon="-120.96223">
    <ele>556.46</ele>
   </trkpt>
   <trkpt lat="38.94829" lon="-120.9621">
    <ele>559.5400000000001</ele>
   </trkpt>
   <trkpt lat="38.94805" lon="-120.96209">
    <ele>560.46</ele>
   </trkpt>
   <trkpt lat="38.947900000000004" lon="-120.96205">
    <ele>562.84</ele>
   </trkpt>
   <trkpt lat="38.9478" lon="-120.96195000000002">
    <ele>562.84</ele>
   </trkpt>
   <trkpt lat="38.947590000000005" lon="-120.96142">
    <ele>571.07</ele>
   </trkpt>
   <trkpt lat="38.94755" lon="-120.96134">
    <ele>573.0200000000001</ele>
   </trkpt>
   <trkpt lat="38.94744" lon="-120.96129">
    <ele>575.0500000000001</ele>
   </trkpt>
   <trkpt lat="38.947280000000006" lon="-120.96124">
    <ele>576.72</ele>
   </trkpt>
   <trkpt lat="38.94709" lon="-120.96124">
    <ele>578.35</ele>
   </trkpt>
   <trkpt lat="38.94693" lon="-120.96115">
    <ele>580.74</ele>
   </trkpt>
   <trkpt lat="38.946870000000004" lon="-120.96111">
    <ele>581.21</ele>
   </trkpt>
   <trkpt lat="38.946830000000006" lon="-120.96098">
    <ele>581.96</ele>
   </trkpt>
   <trkpt lat="38.946830000000006" lon="-120.96089">
    <ele>580.8000000000001</ele>
   </trkpt>
   <trkpt lat="38.946870000000004" lon="-120.96081000000001">
    <ele>580.8000000000001</ele>
   </trkpt>
   <trkpt lat="38.947240000670746" lon="-120.96044500180415">
    <ele>578.23</ele>
   </trkpt>
   <trkpt lat="38.947610000000005" lon="-120.96008">
    <ele>574.1400000000001</ele>
   </trkpt>
   <trkpt lat="38.947770000000006" lon="-120.95994">
    <ele>572.4</ele>
   </trkpt>
   <trkpt lat="38.94802" lon="-120.95982000000001">
    <ele>569.11</ele>
   </trkpt>
   <trkpt lat="38.948420000000006" lon="-120.95972">
    <ele>565.13</ele>
   </trkpt>
   <trkpt lat="38.94849000000001" lon="-120.95964000000001">
    <ele>562.6800000000001</ele>
   </trkpt>
   <trkpt lat="38.94861" lon="-120.95942000000001">
    <ele>560.7800000000001</ele>
   </trkpt>
   <trkpt lat="38.94888" lon="-120.95905">
    <ele>555.2900000000001</ele>
   </trkpt>
   <trkpt lat="38.949070000000006" lon="-120.95875000000001">
    <ele>550.7500000000001</ele>
   </trkpt>
   <trkpt lat="38.94924" lon="-120.95856">
    <ele>548.58</ele>
   </trkpt>
   <trkpt lat="38.949310000000004" lon="-120.95851">
    <ele>548.33</ele>
   </trkpt>
   <trkpt lat="38.94946" lon="-120.95847">
    <ele>548.83</ele>
   </trkpt>
   <trkpt lat="38.949580000000005" lon="-120.95856">
    <ele>550.22</ele>
   </trkpt>
   <trkpt lat="38.9497" lon="-120.95874">
    <ele>551.0500000000001</ele>
   </trkpt>
   <trkpt lat="38.94977" lon="-120.95878">
    <ele>551.4100000000001</ele>
   </trkpt>
   <trkpt lat="38.94981000000001" lon="-120.95874">
    <ele>551.54</ele>
   </trkpt>
   <trkpt lat="38.94990000000001" lon="-120.95842">
    <ele>551.8700000000001</ele>
   </trkpt>
   <trkpt lat="38.94991" lon="-120.95829">
    <ele>552.0200000000001</ele>
   </trkpt>
   <trkpt lat="38.94989" lon="-120.95761000000002">
    <ele>556.25</ele>
   </trkpt>
   <trkpt lat="38.949920000000006" lon="-120.95739">
    <ele>557.34</ele>
   </trkpt>
   <trkpt lat="38.95004" lon="-120.95698000000002">
    <ele>557.5400000000001</ele>
   </trkpt>
   <trkpt lat="38.95008" lon="-120.9569">
    <ele>557.49</ele>
   </trkpt>
   <trkpt lat="38.95047" lon="-120.95646">
    <ele>556.2</ele>
   </trkpt>
   <trkpt lat="38.950660000000006" lon="-120.95619">
    <ele>553.71</ele>
   </trkpt>
   <trkpt lat="38.950680000000006" lon="-120.95609">
    <ele>552.69</ele>
   </trkpt>
   <trkpt lat="38.950680000000006" lon="-120.95604000000002">
    <ele>552.69</ele>
   </trkpt>
   <trkpt lat="38.950630000000004" lon="-120.95587">
    <ele>551.69</ele>
   </trkpt>
   <trkpt lat="38.950480000000006" lon="-120.95555000000002">
    <ele>549.23</ele>
   </trkpt>
   <trkpt lat="38.95047" lon="-120.95539000000001">
    <ele>547.24</ele>
   </trkpt>
   <trkpt lat="38.95049" lon="-120.9552">
    <ele>545.95</ele>
   </trkpt>
   <trkpt lat="38.95055" lon="-120.95510000000002">
    <ele>545.24</ele>
   </trkpt>
   <trkpt lat="38.950660000000006" lon="-120.95497">
    <ele>543.54</ele>
   </trkpt>
   <trkpt lat="38.9508" lon="-120.95489">
    <ele>542.9900000000001</ele>
   </trkpt>
   <trkpt lat="38.95112" lon="-120.95488">
    <ele>542.2600000000001</ele>
   </trkpt>
   <trkpt lat="38.95116" lon="-120.95484">
    <ele>542.3100000000001</ele>
   </trkpt>
   <trkpt lat="38.95118" lon="-120.95472000000001">
    <ele>542.5699999999999</ele>
   </trkpt>
   <trkpt lat="38.951190000000004" lon="-120.95363">
    <ele>544.6800000000001</ele>
   </trkpt>
   <trkpt lat="38.951240000000006" lon="-120.95354">
    <ele>545.6</ele>
   </trkpt>
   <trkpt lat="38.95152" lon="-120.95332">
    <ele>546.5300000000001</ele>
   </trkpt>
   <trkpt lat="38.95159" lon="-120.95314">
    <ele>546.71</ele>
   </trkpt>
   <trkpt lat="38.951550000000005" lon="-120.953">
    <ele>546.62</ele>
   </trkpt>
   <trkpt lat="38.95143" lon="-120.95279000000001">
    <ele>546.8700000000001</ele>
   </trkpt>
   <trkpt lat="38.95139" lon="-120.95265">
    <ele>547.0200000000001</ele>
   </trkpt>
   <trkpt lat="38.95145" lon="-120.95230000000001">
    <ele>548.09</ele>
   </trkpt>
   <trkpt lat="38.951510000000006" lon="-120.95226000000001">
    <ele>548.09</ele>
   </trkpt>
   <trkpt lat="38.95183" lon="-120.95238">
    <ele>546.33</ele>
   </trkpt>
   <trkpt lat="38.951980000000006" lon="-120.95247">
    <ele>546.2</ele>
   </trkpt>
   <trkpt lat="38.952200000000005" lon="-120.95267000000001">
    <ele>544.4300000000001</ele>
   </trkpt>
   <trkpt lat="38.952650000000006" lon="-120.95239000000001">
    <ele>538.76</ele>
   </trkpt>
   <trkpt lat="38.95277" lon="-120.95234">
    <ele>538.76</ele>
   </trkpt>
   <trkpt lat="38.95328000000001" lon="-120.95225">
    <ele>533.21</ele>
   </trkpt>
   <trkpt lat="38.953390000000006" lon="-120.95229">
    <ele>532.86</ele>
   </trkpt>
   <trkpt lat="38.95371" lon="-120.95248000000001">
    <ele>531.9599999999999</ele>
   </trkpt>
   <trkpt lat="38.9538" lon="-120.95251">
    <ele>531.8900000000001</ele>
   </trkpt>
   <trkpt lat="38.95398" lon="-120.95242">
    <ele>532.1800000000001</ele>
   </trkpt>
   <trkpt lat="38.95403" lon="-120.95233">
    <ele>532.6700000000001</ele>
   </trkpt>
   <trkpt lat="38.95403" lon="-120.95219000000002">
    <ele>532.88</ele>
   </trkpt>
   <trkpt lat="38.953810000000004" lon="-120.95144">
    <ele>529.9200000000001</ele>
   </trkpt>
   <trkpt lat="38.953790000000005" lon="-120.95131">
    <ele>529.37</ele>
   </trkpt>
   <trkpt lat="38.9538" lon="-120.95121">
    <ele>528.8900000000001</ele>
   </trkpt>
   <trkpt lat="38.95385" lon="-120.95104">
    <ele>528.8900000000001</ele>
   </trkpt>
   <trkpt lat="38.953900000000004" lon="-120.95095">
    <ele>527.52</ele>
   </trkpt>
   <trkpt lat="38.95402" lon="-120.95082000000001">
    <ele>527.34</ele>
   </trkpt>
   <trkpt lat="38.95412" lon="-120.95064">
    <ele>527.1</ele>
   </trkpt>
   <trkpt lat="38.954130000000006" lon="-120.95040000000002">
    <ele>528.2800000000001</ele>
   </trkpt>
   <trkpt lat="38.954170000000005" lon="-120.95032">
    <ele>529.2800000000001</ele>
   </trkpt>
   <trkpt lat="38.95431000000001" lon="-120.95018">
    <ele>530.4000000000001</ele>
   </trkpt>
   <trkpt lat="38.95472" lon="-120.94987">
    <ele>537.0400000000001</ele>
   </trkpt>
   <trkpt lat="38.95474" lon="-120.94973000000002">
    <ele>537.6899999999999</ele>
   </trkpt>
   <trkpt lat="38.954710000000006" lon="-120.94965">
    <ele>537.94</ele>
   </trkpt>
   <trkpt lat="38.954660000000004" lon="-120.9496">
    <ele>538.24</ele>
   </trkpt>
   <trkpt lat="38.954510000000006" lon="-120.94956">
    <ele>539.76</ele>
   </trkpt>
   <trkpt lat="38.9544" lon="-120.94946000000002">
    <ele>540.59</ele>
   </trkpt>
   <trkpt lat="38.95438" lon="-120.94937000000002">
    <ele>541.5000000000001</ele>
   </trkpt>
   <trkpt lat="38.9544" lon="-120.9492">
    <ele>543.46</ele>
   </trkpt>
   <trkpt lat="38.954730000000005" lon="-120.94872000000001">
    <ele>549.5000000000001</ele>
   </trkpt>
   <trkpt lat="38.955070000000006" lon="-120.94834000000002">
    <ele>554.4300000000001</ele>
   </trkpt>
   <trkpt lat="38.95516000000001" lon="-120.94826">
    <ele>555.3100000000001</ele>
   </trkpt>
   <trkpt lat="38.95534000000001" lon="-120.94821">
    <ele>554.69</ele>
   </trkpt>
   <trkpt lat="38.955470000000005" lon="-120.94825000000002">
    <ele>554.24</ele>
   </trkpt>
   <trkpt lat="38.95553" lon="-120.9483">
    <ele>554.28</ele>
   </trkpt>
   <trkpt lat="38.955580000000005" lon="-120.94850000000001">
    <ele>554.82</ele>
   </trkpt>
   <trkpt lat="38.95566" lon="-120.94924">
    <ele>554.88</ele>
   </trkpt>
   <trkpt lat="38.95575" lon="-120.94969">
    <ele>554.73</ele>
   </trkpt>
   <trkpt lat="38.95575" lon="-120.95028">
    <ele>551.39</ele>
   </trkpt>
   <trkpt lat="38.95572000000001" lon="-120.95055">
    <ele>550.67</ele>
   </trkpt>
   <trkpt lat="38.95573" lon="-120.95069000000001">
    <ele>549.52</ele>
   </trkpt>
   <trkpt lat="38.95577" lon="-120.95086">
    <ele>548.48</ele>
   </trkpt>
   <trkpt lat="38.95584" lon="-120.95099">
    <ele>547.5600000000001</ele>
   </trkpt>
   <trkpt lat="38.95593" lon="-120.95113">
    <ele>546.51</ele>
   </trkpt>
   <trkpt lat="38.956100000000006" lon="-120.95135">
    <ele>546.07</ele>
   </trkpt>
   <trkpt lat="38.95631" lon="-120.95148">
    <ele>544.08</ele>
   </trkpt>
   <trkpt lat="38.956970000000005" lon="-120.95171">
    <ele>540.5600000000001</ele>
   </trkpt>
   <trkpt lat="38.957190000000004" lon="-120.95167000000001">
    <ele>539.86</ele>
   </trkpt>
   <trkpt lat="38.95738" lon="-120.95162">
    <ele>538.5500000000001</ele>
   </trkpt>
   <trkpt lat="38.95745" lon="-120.95161000000002">
    <ele>538.1</ele>
   </trkpt>
   <trkpt lat="38.95752" lon="-120.95162">
    <ele>537.0500000000001</ele>
   </trkpt>
   <trkpt lat="38.95763" lon="-120.95171">
    <ele>534.2300000000001</ele>
   </trkpt>
   <trkpt lat="38.9581" lon="-120.95237000000002">
    <ele>527.3500000000001</ele>
   </trkpt>
   <trkpt lat="38.958330000000004" lon="-120.95257000000001">
    <ele>526.1600000000001</ele>
   </trkpt>
   <trkpt lat="38.958740000000006" lon="-120.95287">
    <ele>524.73</ele>
   </trkpt>
   <trkpt lat="38.959169999964146" lon="-120.9530499988348">
    <ele>522.47</ele>
   </trkpt>
   <trkpt lat="38.9596" lon="-120.95323">
    <ele>521.07</ele>
   </trkpt>
   <trkpt lat="38.95971" lon="-120.95327">
    <ele>520.8900000000001</ele>
   </trkpt>
   <trkpt lat="38.959830000000004" lon="-120.95324000000001">
    <ele>520.07</ele>
   </trkpt>
   <trkpt lat="38.96036" lon="-120.953">
    <ele>517.45</ele>
   </trkpt>
   <trkpt lat="38.960480000000004" lon="-120.95297000000001">
    <ele>516.1800000000001</ele>
   </trkpt>
   <trkpt lat="38.960730000000005" lon="-120.95301">
    <ele>513.1999999999999</ele>
   </trkpt>
   <trkpt lat="38.9611" lon="-120.95291">
    <ele>510.82000000000005</ele>
   </trkpt>
   <trkpt lat="38.961490000000005" lon="-120.95294000000001">
    <ele>509.37</ele>
   </trkpt>
   <trkpt lat="38.96195" lon="-120.95278">
    <ele>510.62000000000006</ele>
   </trkpt>
   <trkpt lat="38.962070000000004" lon="-120.95269">
    <ele>511.75</ele>
   </trkpt>
   <trkpt lat="38.962300000000006" lon="-120.95237000000002">
    <ele>512.84</ele>
   </trkpt>
   <trkpt lat="38.962520000000005" lon="-120.95216">
    <ele>512.75</ele>
   </trkpt>
   <trkpt lat="38.962630000000004" lon="-120.95212000000001">
    <ele>512.7700000000001</ele>
   </trkpt>
   <trkpt lat="38.96293" lon="-120.95206">
    <ele>513.33</ele>
   </trkpt>
   <trkpt lat="38.96303" lon="-120.95198">
    <ele>513.6800000000001</ele>
   </trkpt>
   <trkpt lat="38.96311" lon="-120.95190000000001">
    <ele>514.1999999999999</ele>
   </trkpt>
   <trkpt lat="38.96323" lon="-120.95175">
    <ele>515.1300000000001</ele>
   </trkpt>
   <trkpt lat="38.963390000000004" lon="-120.95135">
    <ele>517.0400000000001</ele>
   </trkpt>
   <trkpt lat="38.963480000000004" lon="-120.95125000000002">
    <ele>518.61</ele>
   </trkpt>
   <trkpt lat="38.96361" lon="-120.95116000000002">
    <ele>519.42</ele>
   </trkpt>
   <trkpt lat="38.96369" lon="-120.95113">
    <ele>519.81</ele>
   </trkpt>
   <trkpt lat="38.963750000000005" lon="-120.95117">
    <ele>520.09</ele>
   </trkpt>
   <trkpt lat="38.96385" lon="-120.95134000000002">
    <ele>520.42</ele>
   </trkpt>
   <trkpt lat="38.963950000000004" lon="-120.9518">
    <ele>520.09</ele>
   </trkpt>
   <trkpt lat="38.964020000000005" lon="-120.95184">
    <ele>518.73</ele>
   </trkpt>
   <trkpt lat="38.96432" lon="-120.95176000000001">
    <ele>517.1</ele>
   </trkpt>
   <trkpt lat="38.96461" lon="-120.95166">
    <ele>516.3100000000001</ele>
   </trkpt>
   <trkpt lat="38.964690000000004" lon="-120.95161000000002">
    <ele>516.33</ele>
   </trkpt>
   <trkpt lat="38.96504" lon="-120.95117">
    <ele>516.38</ele>
   </trkpt>
   <trkpt lat="38.96522" lon="-120.95118000000001">
    <ele>515.78</ele>
   </trkpt>
   <trkpt lat="38.96533" lon="-120.95121">
    <ele>515.44</ele>
   </trkpt>
   <trkpt lat="38.96587" lon="-120.95157">
    <ele>513.3199999999999</ele>
   </trkpt>
   <trkpt lat="38.96605" lon="-120.95166">
    <ele>513.95</ele>
   </trkpt>
   <trkpt lat="38.966150000000006" lon="-120.95175">
    <ele>515.09</ele>
   </trkpt>
   <trkpt lat="38.966240000000006" lon="-120.95193">
    <ele>515.58</ele>
   </trkpt>
   <trkpt lat="38.966370000000005" lon="-120.95202">
    <ele>515.9200000000001</ele>
   </trkpt>
   <trkpt lat="38.966660000000005" lon="-120.95196000000001">
    <ele>516.76</ele>
   </trkpt>
   <trkpt lat="38.966660000000005" lon="-120.95195000000001">
    <ele>516.76</ele>
   </trkpt>
  </trkseg>
 </trk>
</gpx>
