<?xml version="1.0" encoding="UTF-8"?>
<gpx creator="StravaGPX" version="1.1" xmlns="http://www.topografix.com/GPX/1/1" xmlns:xsi="http://www.w3.org/2001/XMLSchema-instance" xsi:schemaLocation="http://www.topografix.com/GPX/1/1 http://www.topografix.com/GPX/1/1/gpx.xsd">
 <metadata>
  <name>SUC 037 MED</name>
  <author>
   <name>Brandon Costa</name>
   <link href="https://www.strava.com/athletes/778990"/>
  </author>
  <copyright author="OpenStreetMap contributors">
   <year>2020</year>
   <license>https://www.openstreetmap.org/copyright</license>
  </copyright>
  <link href="https://www.strava.com/routes/3457556049421636324"/>
 </metadata>
 <trk>
  <name>SUC 037 MED</name>
  <link href="https://www.strava.com/routes/3457556049421636324"/>
  <type>trail_running</type>
  <trkseg>
   <trkpt lat="38.96698000000001" lon="-120.9518">
    <ele>519.9100000000001</ele>
   </trkpt>
   <trkpt lat="38.96743" lon="-120.95175">
    <ele>525.6</ele>
   </trkpt>
   <trkpt lat="38.96788" lon="-120.95154000000001">
    <ele>530.2</ele>
   </trkpt>
   <trkpt lat="38.96806" lon="-120.95153">
    <ele>533.6200000000001</ele>
   </trkpt>
   <trkpt lat="38.96824" lon="-120.95144">
    <ele>536.81</ele>
   </trkpt>
   <trkpt lat="38.968500000000006" lon="-120.95144">
    <ele>540.12</ele>
   </trkpt>
   <trkpt lat="38.96876" lon="-120.95131">
    <ele>544.98</ele>
   </trkpt>
   <trkpt lat="38.969080000000005" lon="-120.95122">
    <ele>546.9900000000001</ele>
   </trkpt>
   <trkpt lat="38.96943" lon="-120.95125000000002">
    <ele>545.4</ele>
   </trkpt>
   <trkpt lat="38.969480000000004" lon="-120.95126">
    <ele>545.0200000000001</ele>
   </trkpt>
   <trkpt lat="38.969710000000006" lon="-120.95148">
    <ele>541.5699999999999</ele>
   </trkpt>
   <trkpt lat="38.96989000000001" lon="-120.95166">
    <ele>540.01</ele>
   </trkpt>
   <trkpt lat="38.97025" lon="-120.95197">
    <ele>542.5600000000001</ele>
   </trkpt>
   <trkpt lat="38.97039" lon="-120.95212000000001">
    <ele>543.7800000000001</ele>
   </trkpt>
   <trkpt lat="38.97048" lon="-120.95233">
    <ele>544.49</ele>
   </trkpt>
   <trkpt lat="38.97063" lon="-120.95242">
    <ele>545.76</ele>
   </trkpt>
   <trkpt lat="38.970850000000006" lon="-120.95252">
    <ele>546.39</ele>
   </trkpt>
   <trkpt lat="38.970980000000004" lon="-120.95279000000001">
    <ele>546.4</ele>
   </trkpt>
   <trkpt lat="38.9711" lon="-120.95296">
    <ele>545.59</ele>
   </trkpt>
   <trkpt lat="38.971210000000006" lon="-120.95309">
    <ele>546.0400000000001</ele>
   </trkpt>
   <trkpt lat="38.97135" lon="-120.95314">
    <ele>547.59</ele>
   </trkpt>
   <trkpt lat="38.97162" lon="-120.95336">
    <ele>549.7500000000001</ele>
   </trkpt>
   <trkpt lat="38.971830000000004" lon="-120.95345">
    <ele>550.64</ele>
   </trkpt>
   <trkpt lat="38.971990000000005" lon="-120.95358000000002">
    <ele>551.7500000000001</ele>
   </trkpt>
   <trkpt lat="38.972240000000006" lon="-120.95368">
    <ele>551.74</ele>
   </trkpt>
   <trkpt lat="38.97229" lon="-120.95376000000002">
    <ele>551.49</ele>
   </trkpt>
   <trkpt lat="38.97229" lon="-120.95386">
    <ele>550.49</ele>
   </trkpt>
   <trkpt lat="38.972240000000006" lon="-120.95399">
    <ele>549.7200000000001</ele>
   </trkpt>
   <trkpt lat="38.972100000000005" lon="-120.95408">
    <ele>548.5300000000001</ele>
   </trkpt>
   <trkpt lat="38.97193" lon="-120.95412">
    <ele>547.24</ele>
   </trkpt>
   <trkpt lat="38.97149" lon="-120.95396000000001">
    <ele>547.1</ele>
   </trkpt>
   <trkpt lat="38.97142" lon="-120.95396000000001">
    <ele>547.1</ele>
   </trkpt>
   <trkpt lat="38.97142" lon="-120.95399">
    <ele>548.2</ele>
   </trkpt>
   <trkpt lat="38.97169" lon="-120.95439">
    <ele>551.51</ele>
   </trkpt>
   <trkpt lat="38.97182" lon="-120.9548">
    <ele>556.12</ele>
   </trkpt>
   <trkpt lat="38.97187" lon="-120.95511">
    <ele>560.8000000000001</ele>
   </trkpt>
   <trkpt lat="38.97198" lon="-120.95524">
    <ele>561.97</ele>
   </trkpt>
   <trkpt lat="38.97216" lon="-120.95529">
    <ele>562.96</ele>
   </trkpt>
   <trkpt lat="38.972350000000006" lon="-120.95529">
    <ele>564.21</ele>
   </trkpt>
   <trkpt lat="38.9727" lon="-120.95538">
    <ele>566.5400000000001</ele>
   </trkpt>
   <trkpt lat="38.972860000000004" lon="-120.95529">
    <ele>567.4800000000001</ele>
   </trkpt>
   <trkpt lat="38.97314" lon="-120.95507">
    <ele>568.34</ele>
   </trkpt>
   <trkpt lat="38.97326" lon="-120.95519000000002">
    <ele>568.57</ele>
   </trkpt>
   <trkpt lat="38.97352" lon="-120.95493">
    <ele>569.28</ele>
   </trkpt>
   <trkpt lat="38.97375" lon="-120.95453">
    <ele>570.06</ele>
   </trkpt>
   <trkpt lat="38.973870000000005" lon="-120.95411000000001">
    <ele>570.7</ele>
   </trkpt>
   <trkpt lat="38.97406" lon="-120.95413">
    <ele>571.43</ele>
   </trkpt>
   <trkpt lat="38.97453" lon="-120.95448">
    <ele>569.35</ele>
   </trkpt>
   <trkpt lat="38.974630000000005" lon="-120.95449">
    <ele>568.9399999999999</ele>
   </trkpt>
   <trkpt lat="38.97466" lon="-120.95457">
    <ele>568.79</ele>
   </trkpt>
   <trkpt lat="38.974680000000006" lon="-120.95484">
    <ele>568.67</ele>
   </trkpt>
   <trkpt lat="38.97471" lon="-120.95490000000001">
    <ele>568.77</ele>
   </trkpt>
   <trkpt lat="38.974810000000005" lon="-120.95498">
    <ele>569.4800000000001</ele>
   </trkpt>
   <trkpt lat="38.9752" lon="-120.95506">
    <ele>573.26</ele>
   </trkpt>
   <trkpt lat="38.975260000000006" lon="-120.95511">
    <ele>574.0</ele>
   </trkpt>
   <trkpt lat="38.97536" lon="-120.95511">
    <ele>574.6600000000001</ele>
   </trkpt>
   <trkpt lat="38.97554" lon="-120.95511">
    <ele>575.96</ele>
   </trkpt>
   <trkpt lat="38.97565" lon="-120.95502">
    <ele>576.5100000000001</ele>
   </trkpt>
   <trkpt lat="38.975680000000004" lon="-120.95503000000001">
    <ele>576.5100000000001</ele>
   </trkpt>
   <trkpt lat="38.97572" lon="-120.95506">
    <ele>576.91</ele>
   </trkpt>
   <trkpt lat="38.975970000000004" lon="-120.95538">
    <ele>578.13</ele>
   </trkpt>
   <trkpt lat="38.976240000000004" lon="-120.9556">
    <ele>578.48</ele>
   </trkpt>
   <trkpt lat="38.97655" lon="-120.95591">
    <ele>577.2400000000001</ele>
   </trkpt>
   <trkpt lat="38.97655" lon="-120.956">
    <ele>577.09</ele>
   </trkpt>
   <trkpt lat="38.976470000000006" lon="-120.95615000000001">
    <ele>576.8199999999999</ele>
   </trkpt>
   <trkpt lat="38.976400000000005" lon="-120.95623">
    <ele>576.7800000000001</ele>
   </trkpt>
   <trkpt lat="38.97618000000001" lon="-120.95633000000001">
    <ele>577.72</ele>
   </trkpt>
   <trkpt lat="38.97614" lon="-120.95637">
    <ele>577.72</ele>
   </trkpt>
   <trkpt lat="38.97605" lon="-120.95667000000002">
    <ele>579.1400000000001</ele>
   </trkpt>
   <trkpt lat="38.97598" lon="-120.95677">
    <ele>579.43</ele>
   </trkpt>
   <trkpt lat="38.9759" lon="-120.95681">
    <ele>580.3900000000001</ele>
   </trkpt>
   <trkpt lat="38.97580000000001" lon="-120.95685">
    <ele>580.87</ele>
   </trkpt>
   <trkpt lat="38.97567" lon="-120.95685">
    <ele>580.85</ele>
   </trkpt>
   <trkpt lat="38.97545" lon="-120.95681">
    <ele>579.4100000000001</ele>
   </trkpt>
   <trkpt lat="38.975" lon="-120.95637">
    <ele>580.47</ele>
   </trkpt>
   <trkpt lat="38.97485" lon="-120.95631000000002">
    <ele>580.8199999999999</ele>
   </trkpt>
   <trkpt lat="38.97473" lon="-120.95628">
    <ele>581.19</ele>
   </trkpt>
   <trkpt lat="38.97464" lon="-120.95632">
    <ele>581.32</ele>
   </trkpt>
   <trkpt lat="38.974540000000005" lon="-120.95641">
    <ele>581.32</ele>
   </trkpt>
   <trkpt lat="38.97455" lon="-120.95639000000001">
    <ele>581.32</ele>
   </trkpt>
   <trkpt lat="38.97437" lon="-120.95655000000001">
    <ele>582.69</ele>
   </trkpt>
   <trkpt lat="38.97415" lon="-120.9569">
    <ele>583.25</ele>
   </trkpt>
   <trkpt lat="38.974070000000005" lon="-120.95699">
    <ele>582.79</ele>
   </trkpt>
   <trkpt lat="38.97374000000001" lon="-120.95717">
    <ele>579.69</ele>
   </trkpt>
   <trkpt lat="38.973620000000004" lon="-120.95721">
    <ele>579.0600000000001</ele>
   </trkpt>
   <trkpt lat="38.97326" lon="-120.9573">
    <ele>577.72</ele>
   </trkpt>
   <trkpt lat="38.973150000000004" lon="-120.9573">
    <ele>577.55</ele>
   </trkpt>
   <trkpt lat="38.97305" lon="-120.95726">
    <ele>577.2400000000001</ele>
   </trkpt>
   <trkpt lat="38.97296" lon="-120.95727000000001">
    <ele>576.47</ele>
   </trkpt>
   <trkpt lat="38.97294" lon="-120.95726">
    <ele>576.47</ele>
   </trkpt>
   <trkpt lat="38.972930000000005" lon="-120.95703">
    <ele>573.34</ele>
   </trkpt>
   <trkpt lat="38.97288" lon="-120.95686">
    <ele>571.9300000000001</ele>
   </trkpt>
   <trkpt lat="38.972660000000005" lon="-120.95668">
    <ele>567.3900000000001</ele>
   </trkpt>
   <trkpt lat="38.97236" lon="-120.95636">
    <ele>561.88</ele>
   </trkpt>
   <trkpt lat="38.97225" lon="-120.95632">
    <ele>559.83</ele>
   </trkpt>
   <trkpt lat="38.972010000000004" lon="-120.95605">
    <ele>557.5300000000001</ele>
   </trkpt>
   <trkpt lat="38.971880000000006" lon="-120.95592">
    <ele>557.44</ele>
   </trkpt>
   <trkpt lat="38.97166" lon="-120.95583">
    <ele>556.62</ele>
   </trkpt>
   <trkpt lat="38.97135" lon="-120.95561000000001">
    <ele>554.23</ele>
   </trkpt>
   <trkpt lat="38.97126" lon="-120.9556">
    <ele>553.71</ele>
   </trkpt>
   <trkpt lat="38.97097" lon="-120.95574">
    <ele>550.6300000000001</ele>
   </trkpt>
   <trkpt lat="38.97084" lon="-120.95578">
    <ele>549.76</ele>
   </trkpt>
   <trkpt lat="38.970510000000004" lon="-120.95570000000001">
    <ele>545.9300000000001</ele>
   </trkpt>
   <trkpt lat="38.970380000000006" lon="-120.95573000000002">
    <ele>544.12</ele>
   </trkpt>
   <trkpt lat="38.970330000000004" lon="-120.95574">
    <ele>544.12</ele>
   </trkpt>
   <trkpt lat="38.97028" lon="-120.95583">
    <ele>542.97</ele>
   </trkpt>
   <trkpt lat="38.97021" lon="-120.95605">
    <ele>542.1700000000001</ele>
   </trkpt>
   <trkpt lat="38.97021" lon="-120.95623">
    <ele>541.08</ele>
   </trkpt>
   <trkpt lat="38.97039" lon="-120.95691000000001">
    <ele>540.03</ele>
   </trkpt>
   <trkpt lat="38.97037" lon="-120.95708">
    <ele>539.66</ele>
   </trkpt>
   <trkpt lat="38.970270000000006" lon="-120.9574">
    <ele>537.5699999999999</ele>
   </trkpt>
   <trkpt lat="38.97019" lon="-120.95753">
    <ele>535.78</ele>
   </trkpt>
   <trkpt lat="38.96987" lon="-120.95784">
    <ele>533.44</ele>
   </trkpt>
   <trkpt lat="38.96925" lon="-120.95788">
    <ele>533.5600000000001</ele>
   </trkpt>
   <trkpt lat="38.968990000000005" lon="-120.95790000000001">
    <ele>536.37</ele>
   </trkpt>
   <trkpt lat="38.968900000000005" lon="-120.95789">
    <ele>536.78</ele>
   </trkpt>
   <trkpt lat="38.968770000000006" lon="-120.95784">
    <ele>537.72</ele>
   </trkpt>
   <trkpt lat="38.968700000000005" lon="-120.95776000000001">
    <ele>538.08</ele>
   </trkpt>
   <trkpt lat="38.968650000000004" lon="-120.95766">
    <ele>538.2600000000001</ele>
   </trkpt>
   <trkpt lat="38.96864" lon="-120.95757">
    <ele>538.3800000000001</ele>
   </trkpt>
   <trkpt lat="38.968680000000006" lon="-120.95744">
    <ele>538.3800000000001</ele>
   </trkpt>
   <trkpt lat="38.96878" lon="-120.95725000000002">
    <ele>538.5300000000001</ele>
   </trkpt>
   <trkpt lat="38.96885" lon="-120.9569">
    <ele>537.98</ele>
   </trkpt>
   <trkpt lat="38.96882" lon="-120.95663">
    <ele>537.47</ele>
   </trkpt>
   <trkpt lat="38.96875" lon="-120.95649000000002">
    <ele>537.08</ele>
   </trkpt>
   <trkpt lat="38.96869" lon="-120.95645">
    <ele>536.9900000000001</ele>
   </trkpt>
   <trkpt lat="38.968630000000005" lon="-120.95646">
    <ele>536.94</ele>
   </trkpt>
   <trkpt lat="38.968430000000005" lon="-120.95667000000002">
    <ele>537.44</ele>
   </trkpt>
   <trkpt lat="38.968270000000004" lon="-120.95677">
    <ele>539.12</ele>
   </trkpt>
   <trkpt lat="38.96813" lon="-120.95685">
    <ele>539.72</ele>
   </trkpt>
   <trkpt lat="38.96793" lon="-120.95686">
    <ele>540.91</ele>
   </trkpt>
   <trkpt lat="38.967800000000004" lon="-120.95681">
    <ele>541.6800000000001</ele>
   </trkpt>
   <trkpt lat="38.967740000000006" lon="-120.95673000000001">
    <ele>543.15</ele>
   </trkpt>
   <trkpt lat="38.967690000000005" lon="-120.95641">
    <ele>544.5600000000001</ele>
   </trkpt>
   <trkpt lat="38.967470000000006" lon="-120.95597000000001">
    <ele>542.8700000000001</ele>
   </trkpt>
   <trkpt lat="38.96726" lon="-120.95579000000001">
    <ele>540.94</ele>
   </trkpt>
   <trkpt lat="38.967200000000005" lon="-120.95582000000002">
    <ele>540.3100000000001</ele>
   </trkpt>
   <trkpt lat="38.967150000000004" lon="-120.95584000000001">
    <ele>540.0400000000001</ele>
   </trkpt>
   <trkpt lat="38.96701" lon="-120.95623">
    <ele>539.52</ele>
   </trkpt>
   <trkpt lat="38.966930000000005" lon="-120.95633000000001">
    <ele>540.07</ele>
   </trkpt>
   <trkpt lat="38.96665" lon="-120.95663">
    <ele>540.33</ele>
   </trkpt>
   <trkpt lat="38.966530000000006" lon="-120.95672">
    <ele>540.6500000000001</ele>
   </trkpt>
   <trkpt lat="38.966260000000005" lon="-120.95685">
    <ele>542.13</ele>
   </trkpt>
   <trkpt lat="38.966010000000004" lon="-120.95704">
    <ele>542.2</ele>
   </trkpt>
   <trkpt lat="38.965610000000005" lon="-120.95727000000001">
    <ele>545.72</ele>
   </trkpt>
   <trkpt lat="38.96556" lon="-120.95739">
    <ele>546.32</ele>
   </trkpt>
   <trkpt lat="38.96556" lon="-120.95767000000001">
    <ele>546.71</ele>
   </trkpt>
   <trkpt lat="38.965540000000004" lon="-120.95784">
    <ele>546.83</ele>
   </trkpt>
   <trkpt lat="38.96547" lon="-120.95797">
    <ele>547.24</ele>
   </trkpt>
   <trkpt lat="38.965140000000005" lon="-120.95803000000001">
    <ele>549.42</ele>
   </trkpt>
   <trkpt lat="38.96473" lon="-120.95807">
    <ele>552.4499999999999</ele>
   </trkpt>
   <trkpt lat="38.96446" lon="-120.95806">
    <ele>555.13</ele>
   </trkpt>
   <trkpt lat="38.96435" lon="-120.95807">
    <ele>558.03</ele>
   </trkpt>
   <trkpt lat="38.96406" lon="-120.95824">
    <ele>559.85</ele>
   </trkpt>
   <trkpt lat="38.963620000000006" lon="-120.95830000000001">
    <ele>564.5400000000001</ele>
   </trkpt>
   <trkpt lat="38.963260000000005" lon="-120.95847">
    <ele>568.0400000000001</ele>
   </trkpt>
   <trkpt lat="38.9632" lon="-120.95852000000001">
    <ele>568.3900000000001</ele>
   </trkpt>
   <trkpt lat="38.963060000000006" lon="-120.95870000000001">
    <ele>569.2400000000001</ele>
   </trkpt>
   <trkpt lat="38.962830000000004" lon="-120.95909">
    <ele>569.9399999999999</ele>
   </trkpt>
   <trkpt lat="38.96263500135765" lon="-120.95967500191773">
    <ele>568.3100000000001</ele>
   </trkpt>
   <trkpt lat="38.96244" lon="-120.96026">
    <ele>571.76</ele>
   </trkpt>
   <trkpt lat="38.962300000000006" lon="-120.96088">
    <ele>573.22</ele>
   </trkpt>
   <trkpt lat="38.96222" lon="-120.96102">
    <ele>574.34</ele>
   </trkpt>
   <trkpt lat="38.962" lon="-120.96116">
    <ele>575.79</ele>
   </trkpt>
   <trkpt lat="38.96191" lon="-120.9612">
    <ele>576.55</ele>
   </trkpt>
   <trkpt lat="38.961740000000006" lon="-120.96110000000002">
    <ele>577.6300000000001</ele>
   </trkpt>
   <trkpt lat="38.96134" lon="-120.96058000000001">
    <ele>583.0000000000001</ele>
   </trkpt>
   <trkpt lat="38.961000000000006" lon="-120.96008">
    <ele>585.4100000000001</ele>
   </trkpt>
   <trkpt lat="38.960950000000004" lon="-120.9599">
    <ele>585.6</ele>
   </trkpt>
   <trkpt lat="38.96088" lon="-120.95928">
    <ele>585.0200000000001</ele>
   </trkpt>
   <trkpt lat="38.960840000000005" lon="-120.95915000000001">
    <ele>585.1500000000001</ele>
   </trkpt>
   <trkpt lat="38.96079" lon="-120.95909">
    <ele>585.1800000000001</ele>
   </trkpt>
   <trkpt lat="38.96072" lon="-120.95904000000002">
    <ele>585.13</ele>
   </trkpt>
   <trkpt lat="38.9605" lon="-120.95895000000002">
    <ele>583.6</ele>
   </trkpt>
   <trkpt lat="38.960390000000004" lon="-120.95884000000001">
    <ele>581.72</ele>
   </trkpt>
   <trkpt lat="38.96013000000001" lon="-120.95852000000001">
    <ele>579.55</ele>
   </trkpt>
   <trkpt lat="38.96" lon="-120.95847">
    <ele>578.74</ele>
   </trkpt>
   <trkpt lat="38.95966000000001" lon="-120.95843">
    <ele>577.9300000000001</ele>
   </trkpt>
   <trkpt lat="38.95946" lon="-120.95837000000002">
    <ele>578.13</ele>
   </trkpt>
   <trkpt lat="38.95888" lon="-120.95775">
    <ele>573.8199999999999</ele>
   </trkpt>
   <trkpt lat="38.958540000000006" lon="-120.95721">
    <ele>570.37</ele>
   </trkpt>
   <trkpt lat="38.958270000000006" lon="-120.95694">
    <ele>568.5300000000001</ele>
   </trkpt>
   <trkpt lat="38.95814" lon="-120.95685">
    <ele>567.6800000000001</ele>
   </trkpt>
   <trkpt lat="38.958040000000004" lon="-120.95685">
    <ele>566.59</ele>
   </trkpt>
   <trkpt lat="38.95779" lon="-120.9569">
    <ele>565.13</ele>
   </trkpt>
   <trkpt lat="38.95772" lon="-120.9569">
    <ele>564.4200000000001</ele>
   </trkpt>
   <trkpt lat="38.95767" lon="-120.95686">
    <ele>563.95</ele>
   </trkpt>
   <trkpt lat="38.957510000000006" lon="-120.95664000000001">
    <ele>559.89</ele>
   </trkpt>
   <trkpt lat="38.957280000000004" lon="-120.9565">
    <ele>557.96</ele>
   </trkpt>
   <trkpt lat="38.957190000000004" lon="-120.95645">
    <ele>555.07</ele>
   </trkpt>
   <trkpt lat="38.95691" lon="-120.95641">
    <ele>550.54</ele>
   </trkpt>
   <trkpt lat="38.95682" lon="-120.95645">
    <ele>550.54</ele>
   </trkpt>
   <trkpt lat="38.95676" lon="-120.9565">
    <ele>550.54</ele>
   </trkpt>
   <trkpt lat="38.95674" lon="-120.95685">
    <ele>547.3800000000001</ele>
   </trkpt>
   <trkpt lat="38.956680000000006" lon="-120.95708">
    <ele>546.6</ele>
   </trkpt>
   <trkpt lat="38.95662" lon="-120.95757">
    <ele>544.2</ele>
   </trkpt>
   <trkpt lat="38.95655" lon="-120.95779">
    <ele>542.0500000000001</ele>
   </trkpt>
   <trkpt lat="38.95644" lon="-120.95797">
    <ele>539.66</ele>
   </trkpt>
   <trkpt lat="38.95613" lon="-120.95837000000002">
    <ele>534.9</ele>
   </trkpt>
   <trkpt lat="38.95586" lon="-120.95864000000002">
    <ele>535.97</ele>
   </trkpt>
   <trkpt lat="38.95582" lon="-120.95875000000001">
    <ele>536.18</ele>
   </trkpt>
   <trkpt lat="38.9559" lon="-120.95882">
    <ele>536.35</ele>
   </trkpt>
   <trkpt lat="38.956210000000006" lon="-120.95888000000001">
    <ele>538.3</ele>
   </trkpt>
   <trkpt lat="38.95628000000001" lon="-120.95895000000002">
    <ele>539.82</ele>
   </trkpt>
   <trkpt lat="38.956360000000004" lon="-120.95905">
    <ele>540.2600000000001</ele>
   </trkpt>
   <trkpt lat="38.956390000000006" lon="-120.95923">
    <ele>541.34</ele>
   </trkpt>
   <trkpt lat="38.95633" lon="-120.95963">
    <ele>544.7</ele>
   </trkpt>
   <trkpt lat="38.95637" lon="-120.95981">
    <ele>545.85</ele>
   </trkpt>
   <trkpt lat="38.95646" lon="-120.9599">
    <ele>546.3800000000001</ele>
   </trkpt>
   <trkpt lat="38.95676" lon="-120.96009000000001">
    <ele>548.19</ele>
   </trkpt>
   <trkpt lat="38.95689" lon="-120.96031">
    <ele>551.03</ele>
   </trkpt>
   <trkpt lat="38.956990000000005" lon="-120.96043000000002">
    <ele>552.3</ele>
   </trkpt>
   <trkpt lat="38.957040000000006" lon="-120.96052000000002">
    <ele>552.79</ele>
   </trkpt>
   <trkpt lat="38.957060000000006" lon="-120.96062">
    <ele>553.4100000000001</ele>
   </trkpt>
   <trkpt lat="38.95703" lon="-120.96133">
    <ele>555.83</ele>
   </trkpt>
   <trkpt lat="38.956990000000005" lon="-120.96142">
    <ele>556.35</ele>
   </trkpt>
   <trkpt lat="38.956700000000005" lon="-120.96169">
    <ele>556.5600000000001</ele>
   </trkpt>
   <trkpt lat="38.956630000000004" lon="-120.96182">
    <ele>556.46</ele>
   </trkpt>
   <trkpt lat="38.956520000000005" lon="-120.96214">
    <ele>556.34</ele>
   </trkpt>
   <trkpt lat="38.95649" lon="-120.96232">
    <ele>556.96</ele>
   </trkpt>
   <trkpt lat="38.95649" lon="-120.96255000000001">
    <ele>557.69</ele>
   </trkpt>
   <trkpt lat="38.956450000000004" lon="-120.96276">
    <ele>558.6600000000001</ele>
   </trkpt>
   <trkpt lat="38.95635" lon="-120.96299">
    <ele>560.1700000000001</ele>
   </trkpt>
   <trkpt lat="38.956120000000006" lon="-120.96322">
    <ele>560.12</ele>
   </trkpt>
   <trkpt lat="38.955830000000006" lon="-120.9637">
    <ele>559.4100000000001</ele>
   </trkpt>
   <trkpt lat="38.95572000000001" lon="-120.96402">
    <ele>557.98</ele>
   </trkpt>
   <trkpt lat="38.955670000000005" lon="-120.96429">
    <ele>555.11</ele>
   </trkpt>
   <trkpt lat="38.955670000000005" lon="-120.96447">
    <ele>553.9900000000001</ele>
   </trkpt>
   <trkpt lat="38.955760000000005" lon="-120.96473">
    <ele>552.2600000000001</ele>
   </trkpt>
   <trkpt lat="38.95581000000001" lon="-120.96479000000001">
    <ele>552.2600000000001</ele>
   </trkpt>
   <trkpt lat="38.95624" lon="-120.96515000000001">
    <ele>546.36</ele>
   </trkpt>
   <trkpt lat="38.95638" lon="-120.96532">
    <ele>543.8700000000001</ele>
   </trkpt>
   <trkpt lat="38.956430000000005" lon="-120.96549000000002">
    <ele>542.39</ele>
   </trkpt>
   <trkpt lat="38.956450000000004" lon="-120.96573000000001">
    <ele>539.8000000000001</ele>
   </trkpt>
   <trkpt lat="38.956520000000005" lon="-120.96585">
    <ele>539.8000000000001</ele>
   </trkpt>
   <trkpt lat="38.95665" lon="-120.96595">
    <ele>538.63</ele>
   </trkpt>
   <trkpt lat="38.95675000000001" lon="-120.96608">
    <ele>536.9300000000001</ele>
   </trkpt>
   <trkpt lat="38.95678" lon="-120.96617">
    <ele>535.9900000000001</ele>
   </trkpt>
   <trkpt lat="38.95678" lon="-120.96626">
    <ele>535.49</ele>
   </trkpt>
   <trkpt lat="38.95675000000001" lon="-120.96635">
    <ele>535.49</ele>
   </trkpt>
   <trkpt lat="38.95671" lon="-120.96640000000001">
    <ele>532.91</ele>
   </trkpt>
   <trkpt lat="38.956500000000005" lon="-120.96657">
    <ele>530.9</ele>
   </trkpt>
   <trkpt lat="38.956320000000005" lon="-120.96666">
    <ele>528.76</ele>
   </trkpt>
   <trkpt lat="38.95619000000001" lon="-120.9667">
    <ele>527.88</ele>
   </trkpt>
   <trkpt lat="38.95586" lon="-120.96666">
    <ele>524.6800000000001</ele>
   </trkpt>
   <trkpt lat="38.95577" lon="-120.9667">
    <ele>522.58</ele>
   </trkpt>
   <trkpt lat="38.95562" lon="-120.96679">
    <ele>521.6700000000001</ele>
   </trkpt>
   <trkpt lat="38.955510000000004" lon="-120.96693">
    <ele>520.69</ele>
   </trkpt>
   <trkpt lat="38.955360000000006" lon="-120.96730000000001">
    <ele>517.71</ele>
   </trkpt>
   <trkpt lat="38.955090000000006" lon="-120.96766000000001">
    <ele>512.47</ele>
   </trkpt>
   <trkpt lat="38.95501" lon="-120.96783">
    <ele>511.94000000000005</ele>
   </trkpt>
   <trkpt lat="38.955000000000005" lon="-120.968">
    <ele>512.14</ele>
   </trkpt>
   <trkpt lat="38.955020000000005" lon="-120.96832">
    <ele>511.78000000000003</ele>
   </trkpt>
   <trkpt lat="38.95505" lon="-120.9685">
    <ele>510.17</ele>
   </trkpt>
   <trkpt lat="38.95515" lon="-120.96880000000002">
    <ele>507.82000000000005</ele>
   </trkpt>
   <trkpt lat="38.95528" lon="-120.96903">
    <ele>504.97</ele>
   </trkpt>
   <trkpt lat="38.95534000000001" lon="-120.96918000000001">
    <ele>504.09000000000003</ele>
   </trkpt>
   <trkpt lat="38.955380000000005" lon="-120.96931000000001">
    <ele>503.0</ele>
   </trkpt>
   <trkpt lat="38.955420000000004" lon="-120.96966">
    <ele>502.04</ele>
   </trkpt>
   <trkpt lat="38.955470000000005" lon="-120.96983000000002">
    <ele>501.29</ele>
   </trkpt>
   <trkpt lat="38.955510000000004" lon="-120.96988">
    <ele>501.04</ele>
   </trkpt>
   <trkpt lat="38.95564" lon="-120.96997">
    <ele>500.85</ele>
   </trkpt>
   <trkpt lat="38.956120000000006" lon="-120.97021000000001">
    <ele>501.51</ele>
   </trkpt>
   <trkpt lat="38.956160000000004" lon="-120.97035000000001">
    <ele>502.14000000000004</ele>
   </trkpt>
   <trkpt lat="38.956100000000006" lon="-120.97055">
    <ele>501.6</ele>
   </trkpt>
   <trkpt lat="38.95577" lon="-120.97088000000001">
    <ele>500.33000000000004</ele>
   </trkpt>
   <trkpt lat="38.95559" lon="-120.97119">
    <ele>497.36</ele>
   </trkpt>
   <trkpt lat="38.95535" lon="-120.97176">
    <ele>500.51</ele>
   </trkpt>
   <trkpt lat="38.95521" lon="-120.97199">
    <ele>505.45000000000005</ele>
   </trkpt>
   <trkpt lat="38.955110000000005" lon="-120.97213">
    <ele>506.90000000000003</ele>
   </trkpt>
   <trkpt lat="38.954980000000006" lon="-120.97226">
    <ele>508.53999999999996</ele>
   </trkpt>
   <trkpt lat="38.954820000000005" lon="-120.97231000000001">
    <ele>509.78</ele>
   </trkpt>
   <trkpt lat="38.954660000000004" lon="-120.9723">
    <ele>512.6200000000001</ele>
   </trkpt>
   <trkpt lat="38.95427" lon="-120.97222000000001">
    <ele>519.75</ele>
   </trkpt>
   <trkpt lat="38.95416" lon="-120.97218000000001">
    <ele>520.81</ele>
   </trkpt>
   <trkpt lat="38.954100000000004" lon="-120.97212">
    <ele>521.7400000000001</ele>
   </trkpt>
   <trkpt lat="38.953990000000005" lon="-120.97185">
    <ele>522.9</ele>
   </trkpt>
   <trkpt lat="38.953860000000006" lon="-120.97173000000001">
    <ele>522.7700000000001</ele>
   </trkpt>
   <trkpt lat="38.95374" lon="-120.97167">
    <ele>522.71</ele>
   </trkpt>
   <trkpt lat="38.953660000000006" lon="-120.97163">
    <ele>522.47</ele>
   </trkpt>
   <trkpt lat="38.95356" lon="-120.97163">
    <ele>522.34</ele>
   </trkpt>
   <trkpt lat="38.95346" lon="-120.97167">
    <ele>522.25</ele>
   </trkpt>
   <trkpt lat="38.953410000000005" lon="-120.97172">
    <ele>521.94</ele>
   </trkpt>
   <trkpt lat="38.953250000000004" lon="-120.97204">
    <ele>520.32</ele>
   </trkpt>
   <trkpt lat="38.953100000000006" lon="-120.97221">
    <ele>519.85</ele>
   </trkpt>
   <trkpt lat="38.952890000000004" lon="-120.97253">
    <ele>519.34</ele>
   </trkpt>
   <trkpt lat="38.95257" lon="-120.97284">
    <ele>521.78</ele>
   </trkpt>
   <trkpt lat="38.951950000000004" lon="-120.97329">
    <ele>527.84</ele>
   </trkpt>
   <trkpt lat="38.95181" lon="-120.97338">
    <ele>528.3500000000001</ele>
   </trkpt>
   <trkpt lat="38.951570000000004" lon="-120.97348000000001">
    <ele>530.1600000000001</ele>
   </trkpt>
   <trkpt lat="38.95154" lon="-120.97351">
    <ele>530.33</ele>
   </trkpt>
   <trkpt lat="38.95154" lon="-120.97361000000001">
    <ele>530.4100000000001</ele>
   </trkpt>
   <trkpt lat="38.951600000000006" lon="-120.97373">
    <ele>530.33</ele>
   </trkpt>
   <trkpt lat="38.95179" lon="-120.974">
    <ele>531.1600000000001</ele>
   </trkpt>
   <trkpt lat="38.951910000000005" lon="-120.97433000000001">
    <ele>533.44</ele>
   </trkpt>
   <trkpt lat="38.951910000000005" lon="-120.97441">
    <ele>535.2300000000001</ele>
   </trkpt>
   <trkpt lat="38.95187000000001" lon="-120.97459">
    <ele>536.1</ele>
   </trkpt>
   <trkpt lat="38.95178000000001" lon="-120.9749">
    <ele>539.19</ele>
   </trkpt>
   <trkpt lat="38.95178000000001" lon="-120.97499">
    <ele>539.19</ele>
   </trkpt>
   <trkpt lat="38.95188" lon="-120.97517">
    <ele>541.86</ele>
   </trkpt>
   <trkpt lat="38.95212" lon="-120.97535">
    <ele>543.71</ele>
   </trkpt>
   <trkpt lat="38.95239" lon="-120.97561">
    <ele>548.9200000000001</ele>
   </trkpt>
   <trkpt lat="38.95244" lon="-120.97575">
    <ele>549.33</ele>
   </trkpt>
   <trkpt lat="38.952450000000006" lon="-120.97584">
    <ele>549.9300000000001</ele>
   </trkpt>
   <trkpt lat="38.95241" lon="-120.97597">
    <ele>550.1400000000001</ele>
   </trkpt>
   <trkpt lat="38.95232" lon="-120.97606">
    <ele>550.08</ele>
   </trkpt>
   <trkpt lat="38.952130000000004" lon="-120.97615">
    <ele>550.19</ele>
   </trkpt>
   <trkpt lat="38.9519" lon="-120.97637">
    <ele>551.7200000000001</ele>
   </trkpt>
   <trkpt lat="38.95178000000001" lon="-120.97643000000001">
    <ele>553.44</ele>
   </trkpt>
   <trkpt lat="38.951460000000004" lon="-120.97650000000002">
    <ele>555.1600000000001</ele>
   </trkpt>
   <trkpt lat="38.9508" lon="-120.977">
    <ele>550.7</ele>
   </trkpt>
   <trkpt lat="38.95062" lon="-120.97705">
    <ele>548.85</ele>
   </trkpt>
   <trkpt lat="38.95036" lon="-120.97709">
    <ele>545.6500000000001</ele>
   </trkpt>
   <trkpt lat="38.94999" lon="-120.97723">
    <ele>544.35</ele>
   </trkpt>
   <trkpt lat="38.94993" lon="-120.97725000000001">
    <ele>544.1600000000001</ele>
   </trkpt>
   <trkpt lat="38.949850000000005" lon="-120.97728000000001">
    <ele>543.97</ele>
   </trkpt>
   <trkpt lat="38.94973" lon="-120.97724000000001">
    <ele>543.59</ele>
   </trkpt>
   <trkpt lat="38.94964" lon="-120.97715000000001">
    <ele>542.9000000000001</ele>
   </trkpt>
   <trkpt lat="38.949510000000004" lon="-120.97706000000001">
    <ele>542.08</ele>
   </trkpt>
   <trkpt lat="38.94935" lon="-120.97701">
    <ele>541.0200000000001</ele>
   </trkpt>
   <trkpt lat="38.94928" lon="-120.97705">
    <ele>541.0200000000001</ele>
   </trkpt>
   <trkpt lat="38.949070000000006" lon="-120.97723">
    <ele>538.78</ele>
   </trkpt>
   <trkpt lat="38.94876" lon="-120.97745">
    <ele>535.19</ele>
   </trkpt>
   <trkpt lat="38.94841" lon="-120.97794">
    <ele>530.52</ele>
   </trkpt>
   <trkpt lat="38.94839" lon="-120.97803">
    <ele>530.33</ele>
   </trkpt>
   <trkpt lat="38.94845" lon="-120.97831000000001">
    <ele>529.4300000000001</ele>
   </trkpt>
   <trkpt lat="38.94854" lon="-120.97848">
    <ele>528.5600000000001</ele>
   </trkpt>
   <trkpt lat="38.94856" lon="-120.97857">
    <ele>527.6</ele>
   </trkpt>
   <trkpt lat="38.94856" lon="-120.9787">
    <ele>527.0400000000001</ele>
   </trkpt>
   <trkpt lat="38.9485" lon="-120.97897">
    <ele>523.21</ele>
   </trkpt>
   <trkpt lat="38.94832" lon="-120.97924">
    <ele>520.75</ele>
   </trkpt>
   <trkpt lat="38.94818" lon="-120.97933">
    <ele>519.95</ele>
   </trkpt>
   <trkpt lat="38.948040000000006" lon="-120.97928">
    <ele>519.88</ele>
   </trkpt>
   <trkpt lat="38.94787" lon="-120.97928">
    <ele>520.5200000000001</ele>
   </trkpt>
   <trkpt lat="38.94762" lon="-120.97921000000001">
    <ele>521.12</ele>
   </trkpt>
   <trkpt lat="38.947500000000005" lon="-120.97915">
    <ele>521.2800000000001</ele>
   </trkpt>
   <trkpt lat="38.947300000000006" lon="-120.97911">
    <ele>521.12</ele>
   </trkpt>
   <trkpt lat="38.94726" lon="-120.97906">
    <ele>521.12</ele>
   </trkpt>
   <trkpt lat="38.947250000000004" lon="-120.97897">
    <ele>521.0600000000001</ele>
   </trkpt>
   <trkpt lat="38.94731" lon="-120.97888">
    <ele>520.97</ele>
   </trkpt>
   <trkpt lat="38.94745" lon="-120.97876000000001">
    <ele>520.36</ele>
   </trkpt>
   <trkpt lat="38.94762" lon="-120.97875">
    <ele>520.07</ele>
   </trkpt>
   <trkpt lat="38.94782" lon="-120.97875">
    <ele>520.0100000000001</ele>
   </trkpt>
   <trkpt lat="38.947970000000005" lon="-120.97866">
    <ele>519.82</ele>
   </trkpt>
   <trkpt lat="38.948010000000004" lon="-120.97861">
    <ele>519.76</ele>
   </trkpt>
   <trkpt lat="38.94803" lon="-120.97853">
    <ele>519.61</ele>
   </trkpt>
   <trkpt lat="38.94802" lon="-120.97848">
    <ele>519.45</ele>
   </trkpt>
   <trkpt lat="38.947950000000006" lon="-120.97834">
    <ele>518.73</ele>
   </trkpt>
   <trkpt lat="38.94784000000001" lon="-120.97794">
    <ele>518.25</ele>
   </trkpt>
   <trkpt lat="38.947860000000006" lon="-120.97763">
    <ele>518.48</ele>
   </trkpt>
   <trkpt lat="38.94784000000001" lon="-120.97758">
    <ele>518.3100000000001</ele>
   </trkpt>
   <trkpt lat="38.94711" lon="-120.97745">
    <ele>513.47</ele>
   </trkpt>
   <trkpt lat="38.946580000000004" lon="-120.97714">
    <ele>511.69000000000005</ele>
   </trkpt>
   <trkpt lat="38.946450000000006" lon="-120.97693000000001">
    <ele>511.49</ele>
   </trkpt>
   <trkpt lat="38.946470000000005" lon="-120.9766">
    <ele>512.42</ele>
   </trkpt>
   <trkpt lat="38.94644" lon="-120.97646">
    <ele>513.3199999999999</ele>
   </trkpt>
   <trkpt lat="38.94639" lon="-120.97646">
    <ele>513.49</ele>
   </trkpt>
   <trkpt lat="38.94626" lon="-120.97661000000001">
    <ele>513.4300000000001</ele>
   </trkpt>
   <trkpt lat="38.94572" lon="-120.97709">
    <ele>510.0800000000001</ele>
   </trkpt>
   <trkpt lat="38.9453" lon="-120.97759">
    <ele>509.44</ele>
   </trkpt>
   <trkpt lat="38.94529" lon="-120.97760000000001">
    <ele>509.45000000000005</ele>
   </trkpt>
   <trkpt lat="38.945150000000005" lon="-120.97777">
    <ele>509.6400000000001</ele>
   </trkpt>
   <trkpt lat="38.94503" lon="-120.97789000000002">
    <ele>510.26000000000005</ele>
   </trkpt>
   <trkpt lat="38.94492" lon="-120.97794">
    <ele>510.26000000000005</ele>
   </trkpt>
   <trkpt lat="38.94478" lon="-120.97798000000002">
    <ele>510.50000000000006</ele>
   </trkpt>
   <trkpt lat="38.94449" lon="-120.97791000000001">
    <ele>511.89000000000004</ele>
   </trkpt>
   <trkpt lat="38.94431" lon="-120.97782000000001">
    <ele>512.6500000000001</ele>
   </trkpt>
   <trkpt lat="38.944230000000005" lon="-120.97771000000002">
    <ele>513.02</ele>
   </trkpt>
   <trkpt lat="38.9442" lon="-120.97754">
    <ele>513.45</ele>
   </trkpt>
   <trkpt lat="38.94422" lon="-120.97713000000002">
    <ele>515.36</ele>
   </trkpt>
   <trkpt lat="38.94427" lon="-120.97682">
    <ele>516.75</ele>
   </trkpt>
   <trkpt lat="38.94426" lon="-120.9766">
    <ele>518.0100000000001</ele>
   </trkpt>
   <trkpt lat="38.94417" lon="-120.97579">
    <ele>520.69</ele>
   </trkpt>
   <trkpt lat="38.9442" lon="-120.97553">
    <ele>519.35</ele>
   </trkpt>
   <trkpt lat="38.94436" lon="-120.97508">
    <ele>515.09</ele>
   </trkpt>
   <trkpt lat="38.94469" lon="-120.97454">
    <ele>508.50000000000006</ele>
   </trkpt>
   <trkpt lat="38.94498" lon="-120.97396">
    <ele>501.43</ele>
   </trkpt>
   <trkpt lat="38.945280000000004" lon="-120.97379000000001">
    <ele>499.39000000000004</ele>
   </trkpt>
   <trkpt lat="38.945310000000006" lon="-120.97377000000002">
    <ele>499.25</ele>
   </trkpt>
   <trkpt lat="38.94532" lon="-120.97369">
    <ele>499.20000000000005</ele>
   </trkpt>
   <trkpt lat="38.94512" lon="-120.97342">
    <ele>500.68</ele>
   </trkpt>
   <trkpt lat="38.94509" lon="-120.97329">
    <ele>501.58000000000004</ele>
   </trkpt>
   <trkpt lat="38.945060000000005" lon="-120.97294000000001">
    <ele>504.69000000000005</ele>
   </trkpt>
   <trkpt lat="38.94509" lon="-120.97275">
    <ele>506.58000000000004</ele>
   </trkpt>
   <trkpt lat="38.94514" lon="-120.97261">
    <ele>507.2300000000001</ele>
   </trkpt>
   <trkpt lat="38.945260000000005" lon="-120.97236000000001">
    <ele>508.65999999999997</ele>
   </trkpt>
   <trkpt lat="38.945350000000005" lon="-120.97226">
    <ele>509.37</ele>
   </trkpt>
   <trkpt lat="38.94549000000001" lon="-120.97217">
    <ele>510.4000000000001</ele>
   </trkpt>
   <trkpt lat="38.945730000000005" lon="-120.97216000000002">
    <ele>512.63</ele>
   </trkpt>
   <trkpt lat="38.94594" lon="-120.97221">
    <ele>513.76</ele>
   </trkpt>
   <trkpt lat="38.946290000000005" lon="-120.97243">
    <ele>514.58</ele>
   </trkpt>
   <trkpt lat="38.946360000000006" lon="-120.97244">
    <ele>515.66</ele>
   </trkpt>
   <trkpt lat="38.94642" lon="-120.97243">
    <ele>515.66</ele>
   </trkpt>
   <trkpt lat="38.94648" lon="-120.97239">
    <ele>516.1600000000001</ele>
   </trkpt>
   <trkpt lat="38.94652000000001" lon="-120.97216000000002">
    <ele>516.15</ele>
   </trkpt>
   <trkpt lat="38.94657" lon="-120.97199">
    <ele>515.61</ele>
   </trkpt>
   <trkpt lat="38.946780000000004" lon="-120.97176">
    <ele>514.33</ele>
   </trkpt>
   <trkpt lat="38.94691" lon="-120.97149">
    <ele>515.2500000000001</ele>
   </trkpt>
   <trkpt lat="38.94708" lon="-120.97121000000001">
    <ele>519.26</ele>
   </trkpt>
   <trkpt lat="38.94713" lon="-120.97118">
    <ele>519.51</ele>
   </trkpt>
   <trkpt lat="38.94736" lon="-120.97109">
    <ele>520.76</ele>
   </trkpt>
   <trkpt lat="38.94787" lon="-120.971">
    <ele>526.3800000000001</ele>
   </trkpt>
   <trkpt lat="38.947970000000005" lon="-120.97096">
    <ele>528.72</ele>
   </trkpt>
   <trkpt lat="38.948100000000004" lon="-120.97078">
    <ele>532.87</ele>
   </trkpt>
   <trkpt lat="38.948280000000004" lon="-120.97042">
    <ele>536.76</ele>
   </trkpt>
   <trkpt lat="38.94847" lon="-120.97015">
    <ele>538.46</ele>
   </trkpt>
   <trkpt lat="38.948550000000004" lon="-120.96984">
    <ele>538.0400000000001</ele>
   </trkpt>
   <trkpt lat="38.94859" lon="-120.96976000000001">
    <ele>538.03</ele>
   </trkpt>
   <trkpt lat="38.94865" lon="-120.96971">
    <ele>538.1400000000001</ele>
   </trkpt>
   <trkpt lat="38.94872" lon="-120.96971">
    <ele>538.2300000000001</ele>
   </trkpt>
   <trkpt lat="38.94881" lon="-120.9698">
    <ele>538.52</ele>
   </trkpt>
   <trkpt lat="38.94894" lon="-120.97015">
    <ele>540.49</ele>
   </trkpt>
   <trkpt lat="38.94897" lon="-120.97038">
    <ele>542.1400000000001</ele>
   </trkpt>
   <trkpt lat="38.949020000000004" lon="-120.97055">
    <ele>543.44</ele>
   </trkpt>
   <trkpt lat="38.949250000000006" lon="-120.97082">
    <ele>544.42</ele>
   </trkpt>
   <trkpt lat="38.949380000000005" lon="-120.97114">
    <ele>545.07</ele>
   </trkpt>
   <trkpt lat="38.94942" lon="-120.97123">
    <ele>544.98</ele>
   </trkpt>
   <trkpt lat="38.949470000000005" lon="-120.97127">
    <ele>544.83</ele>
   </trkpt>
   <trkpt lat="38.949560000000005" lon="-120.97123">
    <ele>544.2600000000001</ele>
   </trkpt>
   <trkpt lat="38.9498" lon="-120.97079000000001">
    <ele>540.01</ele>
   </trkpt>
   <trkpt lat="38.94990000000001" lon="-120.97068000000002">
    <ele>539.36</ele>
   </trkpt>
   <trkpt lat="38.94997" lon="-120.97064">
    <ele>538.85</ele>
   </trkpt>
   <trkpt lat="38.95011" lon="-120.97059000000002">
    <ele>538.35</ele>
   </trkpt>
   <trkpt lat="38.95075999991044" lon="-120.97055000037275">
    <ele>536.91</ele>
   </trkpt>
   <trkpt lat="38.95141" lon="-120.97051">
    <ele>535.19</ele>
   </trkpt>
   <trkpt lat="38.951550000000005" lon="-120.97043000000001">
    <ele>534.5300000000001</ele>
   </trkpt>
   <trkpt lat="38.951620000000005" lon="-120.97037000000002">
    <ele>534.2600000000001</ele>
   </trkpt>
   <trkpt lat="38.9519" lon="-120.96981000000001">
    <ele>530.66</ele>
   </trkpt>
   <trkpt lat="38.952130000000004" lon="-120.96899">
    <ele>526.73</ele>
   </trkpt>
   <trkpt lat="38.952290000000005" lon="-120.96872">
    <ele>526.51</ele>
   </trkpt>
   <trkpt lat="38.952400000000004" lon="-120.96863">
    <ele>525.47</ele>
   </trkpt>
   <trkpt lat="38.952490000000004" lon="-120.96860000000001">
    <ele>524.27</ele>
   </trkpt>
   <trkpt lat="38.95257" lon="-120.96863">
    <ele>522.7400000000001</ele>
   </trkpt>
   <trkpt lat="38.95279" lon="-120.96900000000001">
    <ele>516.44</ele>
   </trkpt>
   <trkpt lat="38.952890000000004" lon="-120.96913">
    <ele>515.6200000000001</ele>
   </trkpt>
   <trkpt lat="38.95297" lon="-120.96917">
    <ele>515.5200000000001</ele>
   </trkpt>
   <trkpt lat="38.953030000000005" lon="-120.96917">
    <ele>515.5200000000001</ele>
   </trkpt>
   <trkpt lat="38.953230000000005" lon="-120.96899">
    <ele>515.1</ele>
   </trkpt>
   <trkpt lat="38.95338" lon="-120.9689">
    <ele>514.8900000000001</ele>
   </trkpt>
   <trkpt lat="38.953450000000004" lon="-120.96881">
    <ele>514.45</ele>
   </trkpt>
   <trkpt lat="38.95365" lon="-120.9685">
    <ele>513.75</ele>
   </trkpt>
   <trkpt lat="38.95389" lon="-120.96824000000001">
    <ele>512.6700000000001</ele>
   </trkpt>
   <trkpt lat="38.954130000000006" lon="-120.96791">
    <ele>511.58000000000004</ele>
   </trkpt>
   <trkpt lat="38.954190000000004" lon="-120.96777000000002">
    <ele>510.5200000000001</ele>
   </trkpt>
   <trkpt lat="38.954190000000004" lon="-120.96765">
    <ele>510.27</ele>
   </trkpt>
   <trkpt lat="38.954170000000005" lon="-120.96756">
    <ele>510.07</ele>
   </trkpt>
   <trkpt lat="38.954040000000006" lon="-120.96733">
    <ele>509.49</ele>
   </trkpt>
   <trkpt lat="38.953990000000005" lon="-120.96715">
    <ele>508.68</ele>
   </trkpt>
   <trkpt lat="38.95351" lon="-120.96639">
    <ele>510.77000000000004</ele>
   </trkpt>
   <trkpt lat="38.953410000000005" lon="-120.96631000000001">
    <ele>511.09999999999997</ele>
   </trkpt>
   <trkpt lat="38.95328000000001" lon="-120.96627000000001">
    <ele>512.71</ele>
   </trkpt>
   <trkpt lat="38.95315" lon="-120.96627000000001">
    <ele>514.1300000000001</ele>
   </trkpt>
   <trkpt lat="38.953010000000006" lon="-120.96625000000002">
    <ele>514.93</ele>
   </trkpt>
   <trkpt lat="38.952850000000005" lon="-120.96616000000002">
    <ele>516.4700000000001</ele>
   </trkpt>
   <trkpt lat="38.952670000000005" lon="-120.96603">
    <ele>519.5200000000001</ele>
   </trkpt>
   <trkpt lat="38.952420000000004" lon="-120.96572">
    <ele>519.35</ele>
   </trkpt>
   <trkpt lat="38.95234000000001" lon="-120.96555000000001">
    <ele>519.14</ele>
   </trkpt>
   <trkpt lat="38.95233" lon="-120.96546000000001">
    <ele>519.27</ele>
   </trkpt>
   <trkpt lat="38.95234000000001" lon="-120.96536">
    <ele>519.4000000000001</ele>
   </trkpt>
   <trkpt lat="38.95246" lon="-120.96496">
    <ele>520.9</ele>
   </trkpt>
   <trkpt lat="38.95246" lon="-120.96478">
    <ele>521.1600000000001</ele>
   </trkpt>
   <trkpt lat="38.95244" lon="-120.96473">
    <ele>521.12</ele>
   </trkpt>
   <trkpt lat="38.952360000000006" lon="-120.96464">
    <ele>520.75</ele>
   </trkpt>
   <trkpt lat="38.9521" lon="-120.9646">
    <ele>519.09</ele>
   </trkpt>
   <trkpt lat="38.95199" lon="-120.96446000000002">
    <ele>518.73</ele>
   </trkpt>
   <trkpt lat="38.95187000000001" lon="-120.96424">
    <ele>519.1</ele>
   </trkpt>
   <trkpt lat="38.95176" lon="-120.96362">
    <ele>525.3800000000001</ele>
   </trkpt>
   <trkpt lat="38.95176" lon="-120.96348">
    <ele>528.9200000000001</ele>
   </trkpt>
   <trkpt lat="38.95181" lon="-120.96321">
    <ele>531.2</ele>
   </trkpt>
   <trkpt lat="38.951750000000004" lon="-120.96309000000001">
    <ele>531.6800000000001</ele>
   </trkpt>
   <trkpt lat="38.95139" lon="-120.96277">
    <ele>536.83</ele>
   </trkpt>
   <trkpt lat="38.951260000000005" lon="-120.96273000000001">
    <ele>538.58</ele>
   </trkpt>
   <trkpt lat="38.95096" lon="-120.96273000000001">
    <ele>540.72</ele>
   </trkpt>
   <trkpt lat="38.950680000000006" lon="-120.96263">
    <ele>543.47</ele>
   </trkpt>
   <trkpt lat="38.95022" lon="-120.9625">
    <ele>544.5300000000001</ele>
   </trkpt>
   <trkpt lat="38.94999" lon="-120.96245">
    <ele>546.96</ele>
   </trkpt>
   <trkpt lat="38.94990000000001" lon="-120.96246000000001">
    <ele>547.69</ele>
   </trkpt>
   <trkpt lat="38.94979" lon="-120.96254">
    <ele>548.46</ele>
   </trkpt>
   <trkpt lat="38.949470000000005" lon="-120.96258000000002">
    <ele>548.69</ele>
   </trkpt>
   <trkpt lat="38.949200000000005" lon="-120.96268">
    <ele>548.15</ele>
   </trkpt>
   <trkpt lat="38.94908" lon="-120.96272">
    <ele>549.0400000000001</ele>
   </trkpt>
   <trkpt lat="38.94901" lon="-120.96268">
    <ele>549.96</ele>
   </trkpt>
   <trkpt lat="38.94894" lon="-120.96264000000001">
    <ele>549.96</ele>
   </trkpt>
   <trkpt lat="38.94876" lon="-120.96240000000002">
    <ele>553.23</ele>
   </trkpt>
   <trkpt lat="38.94854" lon="-120.96223">
    <ele>555.8700000000001</ele>
   </trkpt>
   <trkpt lat="38.94829" lon="-120.9621">
    <ele>557.15</ele>
   </trkpt>
   <trkpt lat="38.94805" lon="-120.96209">
    <ele>560.46</ele>
   </trkpt>
   <trkpt lat="38.947900000000004" lon="-120.96205">
    <ele>562.84</ele>
   </trkpt>
   <trkpt lat="38.9478" lon="-120.96195000000002">
    <ele>562.84</ele>
   </trkpt>
   <trkpt lat="38.947590000000005" lon="-120.96142">
    <ele>571.07</ele>
   </trkpt>
   <trkpt lat="38.94755" lon="-120.96134">
    <ele>573.0200000000001</ele>
   </trkpt>
   <trkpt lat="38.94744" lon="-120.96129">
    <ele>575.0500000000001</ele>
   </trkpt>
   <trkpt lat="38.947280000000006" lon="-120.96124">
    <ele>576.72</ele>
   </trkpt>
   <trkpt lat="38.94709" lon="-120.96124">
    <ele>578.35</ele>
   </trkpt>
   <trkpt lat="38.94693" lon="-120.96115">
    <ele>579.6999999999999</ele>
   </trkpt>
   <trkpt lat="38.946870000000004" lon="-120.96111">
    <ele>580.74</ele>
   </trkpt>
   <trkpt lat="38.946830000000006" lon="-120.96098">
    <ele>581.96</ele>
   </trkpt>
   <trkpt lat="38.946830000000006" lon="-120.96089">
    <ele>581.96</ele>
   </trkpt>
   <trkpt lat="38.946870000000004" lon="-120.96081000000001">
    <ele>580.8000000000001</ele>
   </trkpt>
   <trkpt lat="38.947240000670746" lon="-120.96044500180415">
    <ele>578.5</ele>
   </trkpt>
   <trkpt lat="38.947610000000005" lon="-120.96008">
    <ele>574.1400000000001</ele>
   </trkpt>
   <trkpt lat="38.947770000000006" lon="-120.95994">
    <ele>572.4</ele>
   </trkpt>
   <trkpt lat="38.94802" lon="-120.95982000000001">
    <ele>569.11</ele>
   </trkpt>
   <trkpt lat="38.948420000000006" lon="-120.95972">
    <ele>565.13</ele>
   </trkpt>
   <trkpt lat="38.94849000000001" lon="-120.95964000000001">
    <ele>563.25</ele>
   </trkpt>
   <trkpt lat="38.94861" lon="-120.95942000000001">
    <ele>560.7800000000001</ele>
   </trkpt>
   <trkpt lat="38.94888" lon="-120.95905">
    <ele>555.2900000000001</ele>
   </trkpt>
   <trkpt lat="38.949070000000006" lon="-120.95875000000001">
    <ele>551.33</ele>
   </trkpt>
   <trkpt lat="38.94924" lon="-120.95856">
    <ele>548.8700000000001</ele>
   </trkpt>
   <trkpt lat="38.949310000000004" lon="-120.95851">
    <ele>548.39</ele>
   </trkpt>
   <trkpt lat="38.94946" lon="-120.95847">
    <ele>548.83</ele>
   </trkpt>
   <trkpt lat="38.949580000000005" lon="-120.95856">
    <ele>550.22</ele>
   </trkpt>
   <trkpt lat="38.9497" lon="-120.95874">
    <ele>551.0500000000001</ele>
   </trkpt>
   <trkpt lat="38.94977" lon="-120.95878">
    <ele>551.4100000000001</ele>
   </trkpt>
   <trkpt lat="38.94981000000001" lon="-120.95874">
    <ele>551.54</ele>
   </trkpt>
   <trkpt lat="38.94990000000001" lon="-120.95842">
    <ele>551.8700000000001</ele>
   </trkpt>
   <trkpt lat="38.94991" lon="-120.95829">
    <ele>552.0200000000001</ele>
   </trkpt>
   <trkpt lat="38.94989" lon="-120.95761000000002">
    <ele>554.96</ele>
   </trkpt>
   <trkpt lat="38.949920000000006" lon="-120.95739">
    <ele>557.34</ele>
   </trkpt>
   <trkpt lat="38.95004" lon="-120.95698000000002">
    <ele>557.6300000000001</ele>
   </trkpt>
   <trkpt lat="38.95008" lon="-120.9569">
    <ele>557.49</ele>
   </trkpt>
   <trkpt lat="38.95047" lon="-120.95646">
    <ele>556.2</ele>
   </trkpt>
   <trkpt lat="38.950660000000006" lon="-120.95619">
    <ele>553.71</ele>
   </trkpt>
   <trkpt lat="38.950680000000006" lon="-120.95609">
    <ele>552.69</ele>
   </trkpt>
   <trkpt lat="38.950680000000006" lon="-120.95604000000002">
    <ele>552.69</ele>
   </trkpt>
   <trkpt lat="38.950630000000004" lon="-120.95587">
    <ele>551.69</ele>
   </trkpt>
   <trkpt lat="38.950480000000006" lon="-120.95555000000002">
    <ele>549.23</ele>
   </trkpt>
   <trkpt lat="38.95047" lon="-120.95539000000001">
    <ele>547.24</ele>
   </trkpt>
   <trkpt lat="38.95049" lon="-120.9552">
    <ele>545.95</ele>
   </trkpt>
   <trkpt lat="38.95055" lon="-120.95510000000002">
    <ele>545.24</ele>
   </trkpt>
   <trkpt lat="38.950660000000006" lon="-120.95497">
    <ele>543.54</ele>
   </trkpt>
   <trkpt lat="38.9508" lon="-120.95489">
    <ele>542.9900000000001</ele>
   </trkpt>
   <trkpt lat="38.95112" lon="-120.95488">
    <ele>542.25</ele>
   </trkpt>
   <trkpt lat="38.95116" lon="-120.95484">
    <ele>542.2600000000001</ele>
   </trkpt>
   <trkpt lat="38.95118" lon="-120.95472000000001">
    <ele>542.4100000000001</ele>
   </trkpt>
   <trkpt lat="38.951190000000004" lon="-120.95363">
    <ele>544.6800000000001</ele>
   </trkpt>
   <trkpt lat="38.951240000000006" lon="-120.95354">
    <ele>545.6</ele>
   </trkpt>
   <trkpt lat="38.95152" lon="-120.95332">
    <ele>546.5300000000001</ele>
   </trkpt>
   <trkpt lat="38.95159" lon="-120.95314">
    <ele>546.72</ele>
   </trkpt>
   <trkpt lat="38.951550000000005" lon="-120.953">
    <ele>546.62</ele>
   </trkpt>
   <trkpt lat="38.95143" lon="-120.95279000000001">
    <ele>546.7500000000001</ele>
   </trkpt>
   <trkpt lat="38.95139" lon="-120.95265">
    <ele>547.0200000000001</ele>
   </trkpt>
   <trkpt lat="38.95145" lon="-120.95230000000001">
    <ele>548.09</ele>
   </trkpt>
   <trkpt lat="38.951510000000006" lon="-120.95226000000001">
    <ele>548.09</ele>
   </trkpt>
   <trkpt lat="38.95183" lon="-120.95238">
    <ele>546.33</ele>
   </trkpt>
   <trkpt lat="38.951980000000006" lon="-120.95247">
    <ele>546.2</ele>
   </trkpt>
   <trkpt lat="38.952200000000005" lon="-120.95267000000001">
    <ele>544.4300000000001</ele>
   </trkpt>
   <trkpt lat="38.952650000000006" lon="-120.95239000000001">
    <ele>538.76</ele>
   </trkpt>
   <trkpt lat="38.95277" lon="-120.95234">
    <ele>538.76</ele>
   </trkpt>
   <trkpt lat="38.95328000000001" lon="-120.95225">
    <ele>533.47</ele>
   </trkpt>
   <trkpt lat="38.953390000000006" lon="-120.95229">
    <ele>532.86</ele>
   </trkpt>
   <trkpt lat="38.95371" lon="-120.95248000000001">
    <ele>531.9599999999999</ele>
   </trkpt>
   <trkpt lat="38.9538" lon="-120.95251">
    <ele>531.8900000000001</ele>
   </trkpt>
   <trkpt lat="38.95398" lon="-120.95242">
    <ele>532.1800000000001</ele>
   </trkpt>
   <trkpt lat="38.95403" lon="-120.95233">
    <ele>532.6700000000001</ele>
   </trkpt>
   <trkpt lat="38.95403" lon="-120.95219000000002">
    <ele>532.8000000000001</ele>
   </trkpt>
   <trkpt lat="38.953810000000004" lon="-120.95144">
    <ele>529.9200000000001</ele>
   </trkpt>
   <trkpt lat="38.953790000000005" lon="-120.95131">
    <ele>529.37</ele>
   </trkpt>
   <trkpt lat="38.9538" lon="-120.95121">
    <ele>529.12</ele>
   </trkpt>
   <trkpt lat="38.95385" lon="-120.95104">
    <ele>528.8900000000001</ele>
   </trkpt>
   <trkpt lat="38.953900000000004" lon="-120.95095">
    <ele>527.52</ele>
   </trkpt>
   <trkpt lat="38.95402" lon="-120.95082000000001">
    <ele>527.34</ele>
   </trkpt>
   <trkpt lat="38.95412" lon="-120.95064">
    <ele>527.1</ele>
   </trkpt>
   <trkpt lat="38.954130000000006" lon="-120.95040000000002">
    <ele>528.2800000000001</ele>
   </trkpt>
   <trkpt lat="38.954170000000005" lon="-120.95032">
    <ele>529.2800000000001</ele>
   </trkpt>
   <trkpt lat="38.95431000000001" lon="-120.95018">
    <ele>530.4000000000001</ele>
   </trkpt>
   <trkpt lat="38.95467" lon="-120.94992">
    <ele>536.47</ele>
   </trkpt>
   <trkpt lat="38.95472" lon="-120.94987">
    <ele>536.78</ele>
   </trkpt>
   <trkpt lat="38.95474" lon="-120.94978">
    <ele>537.0400000000001</ele>
   </trkpt>
   <trkpt lat="38.95474" lon="-120.94973000000002">
    <ele>537.6899999999999</ele>
   </trkpt>
   <trkpt lat="38.954710000000006" lon="-120.94965">
    <ele>537.6899999999999</ele>
   </trkpt>
   <trkpt lat="38.954660000000004" lon="-120.9496">
    <ele>538.24</ele>
   </trkpt>
   <trkpt lat="38.954510000000006" lon="-120.94956">
    <ele>539.76</ele>
   </trkpt>
   <trkpt lat="38.9544" lon="-120.94946000000002">
    <ele>540.59</ele>
   </trkpt>
   <trkpt lat="38.95438" lon="-120.94937000000002">
    <ele>541.5000000000001</ele>
   </trkpt>
   <trkpt lat="38.9544" lon="-120.9492">
    <ele>542.46</ele>
   </trkpt>
   <trkpt lat="38.954730000000005" lon="-120.94872000000001">
    <ele>549.5000000000001</ele>
   </trkpt>
   <trkpt lat="38.955070000000006" lon="-120.94834000000002">
    <ele>554.4300000000001</ele>
   </trkpt>
   <trkpt lat="38.95516000000001" lon="-120.94826">
    <ele>555.13</ele>
   </trkpt>
   <trkpt lat="38.95534000000001" lon="-120.94821">
    <ele>554.96</ele>
   </trkpt>
   <trkpt lat="38.955470000000005" lon="-120.94825000000002">
    <ele>554.2900000000001</ele>
   </trkpt>
   <trkpt lat="38.95553" lon="-120.9483">
    <ele>554.28</ele>
   </trkpt>
   <trkpt lat="38.955580000000005" lon="-120.94850000000001">
    <ele>554.82</ele>
   </trkpt>
   <trkpt lat="38.95566" lon="-120.94924">
    <ele>554.88</ele>
   </trkpt>
   <trkpt lat="38.95575" lon="-120.94969">
    <ele>554.73</ele>
   </trkpt>
   <trkpt lat="38.95575" lon="-120.95028">
    <ele>551.39</ele>
   </trkpt>
   <trkpt lat="38.95572000000001" lon="-120.95055">
    <ele>550.67</ele>
   </trkpt>
   <trkpt lat="38.95573" lon="-120.95069000000001">
    <ele>549.52</ele>
   </trkpt>
   <trkpt lat="38.95577" lon="-120.95086">
    <ele>548.48</ele>
   </trkpt>
   <trkpt lat="38.95593" lon="-120.95113">
    <ele>546.51</ele>
   </trkpt>
   <trkpt lat="38.956100000000006" lon="-120.95135">
    <ele>546.07</ele>
   </trkpt>
   <trkpt lat="38.95631" lon="-120.95148">
    <ele>544.9300000000001</ele>
   </trkpt>
   <trkpt lat="38.956970000000005" lon="-120.95171">
    <ele>540.5600000000001</ele>
   </trkpt>
   <trkpt lat="38.957190000000004" lon="-120.95167000000001">
    <ele>539.86</ele>
   </trkpt>
   <trkpt lat="38.95738" lon="-120.95162">
    <ele>538.95</ele>
   </trkpt>
   <trkpt lat="38.95745" lon="-120.95161000000002">
    <ele>538.1</ele>
   </trkpt>
   <trkpt lat="38.95752" lon="-120.95162">
    <ele>537.59</ele>
   </trkpt>
   <trkpt lat="38.95763" lon="-120.95171">
    <ele>537.0500000000001</ele>
   </trkpt>
   <trkpt lat="38.9581" lon="-120.95237000000002">
    <ele>528.81</ele>
   </trkpt>
   <trkpt lat="38.958330000000004" lon="-120.95257000000001">
    <ele>526.1600000000001</ele>
   </trkpt>
   <trkpt lat="38.958740000000006" lon="-120.95287">
    <ele>524.73</ele>
   </trkpt>
   <trkpt lat="38.959169999964146" lon="-120.9530499988348">
    <ele>522.47</ele>
   </trkpt>
   <trkpt lat="38.9596" lon="-120.95323">
    <ele>521.3800000000001</ele>
   </trkpt>
   <trkpt lat="38.95971" lon="-120.95327">
    <ele>520.8900000000001</ele>
   </trkpt>
   <trkpt lat="38.959830000000004" lon="-120.95324000000001">
    <ele>520.07</ele>
   </trkpt>
   <trkpt lat="38.96036" lon="-120.953">
    <ele>517.45</ele>
   </trkpt>
   <trkpt lat="38.960480000000004" lon="-120.95297000000001">
    <ele>516.1800000000001</ele>
   </trkpt>
   <trkpt lat="38.960730000000005" lon="-120.95301">
    <ele>513.1999999999999</ele>
   </trkpt>
   <trkpt lat="38.9611" lon="-120.95291">
    <ele>510.82000000000005</ele>
   </trkpt>
   <trkpt lat="38.961490000000005" lon="-120.95294000000001">
    <ele>509.41</ele>
   </trkpt>
   <trkpt lat="38.96195" lon="-120.95278">
    <ele>510.30000000000007</ele>
   </trkpt>
   <trkpt lat="38.962070000000004" lon="-120.95269">
    <ele>511.75</ele>
   </trkpt>
   <trkpt lat="38.962300000000006" lon="-120.95237000000002">
    <ele>512.7700000000001</ele>
   </trkpt>
   <trkpt lat="38.962520000000005" lon="-120.95216">
    <ele>512.75</ele>
   </trkpt>
   <trkpt lat="38.962630000000004" lon="-120.95212000000001">
    <ele>512.7700000000001</ele>
   </trkpt>
   <trkpt lat="38.96293" lon="-120.95206">
    <ele>513.33</ele>
   </trkpt>
   <trkpt lat="38.96303" lon="-120.95198">
    <ele>513.6800000000001</ele>
   </trkpt>
   <trkpt lat="38.96311" lon="-120.95190000000001">
    <ele>514.1999999999999</ele>
   </trkpt>
   <trkpt lat="38.96323" lon="-120.95175">
    <ele>515.1300000000001</ele>
   </trkpt>
   <trkpt lat="38.963390000000004" lon="-120.95135">
    <ele>517.0400000000001</ele>
   </trkpt>
   <trkpt lat="38.963480000000004" lon="-120.95125000000002">
    <ele>518.61</ele>
   </trkpt>
   <trkpt lat="38.96361" lon="-120.95116000000002">
    <ele>519.42</ele>
   </trkpt>
   <trkpt lat="38.96369" lon="-120.95113">
    <ele>519.81</ele>
   </trkpt>
   <trkpt lat="38.963750000000005" lon="-120.95117">
    <ele>520.09</ele>
   </trkpt>
   <trkpt lat="38.96385" lon="-120.95134000000002">
    <ele>520.42</ele>
   </trkpt>
   <trkpt lat="38.963950000000004" lon="-120.9518">
    <ele>520.09</ele>
   </trkpt>
   <trkpt lat="38.964020000000005" lon="-120.95184">
    <ele>518.73</ele>
   </trkpt>
   <trkpt lat="38.96432" lon="-120.95176000000001">
    <ele>517.1</ele>
   </trkpt>
   <trkpt lat="38.96461" lon="-120.95166">
    <ele>516.3100000000001</ele>
   </trkpt>
   <trkpt lat="38.964690000000004" lon="-120.95161000000002">
    <ele>516.33</ele>
   </trkpt>
   <trkpt lat="38.96504" lon="-120.95117">
    <ele>516.38</ele>
   </trkpt>
   <trkpt lat="38.96522" lon="-120.95118000000001">
    <ele>516.05</ele>
   </trkpt>
   <trkpt lat="38.96533" lon="-120.95121">
    <ele>515.44</ele>
   </trkpt>
   <trkpt lat="38.96587" lon="-120.95157">
    <ele>513.3199999999999</ele>
   </trkpt>
   <trkpt lat="38.96605" lon="-120.95166">
    <ele>513.95</ele>
   </trkpt>
   <trkpt lat="38.966150000000006" lon="-120.95175">
    <ele>515.09</ele>
   </trkpt>
   <trkpt lat="38.966240000000006" lon="-120.95193">
    <ele>515.58</ele>
   </trkpt>
   <trkpt lat="38.966370000000005" lon="-120.95202">
    <ele>515.9200000000001</ele>
   </trkpt>
   <trkpt lat="38.966660000000005" lon="-120.95196000000001">
    <ele>516.76</ele>
   </trkpt>
   <trkpt lat="38.966660000000005" lon="-120.95195000000001">
    <ele>516.76</ele>
   </trkpt>
  </trkseg>
 </trk>
</gpx>
