<?xml version="1.0" encoding="UTF-8"?>
<gpx creator="StravaGPX" version="1.1" xmlns="http://www.topografix.com/GPX/1/1" xmlns:xsi="http://www.w3.org/2001/XMLSchema-instance" xsi:schemaLocation="http://www.topografix.com/GPX/1/1 http://www.topografix.com/GPX/1/1/gpx.xsd">
 <metadata>
  <name>SUC 038 MED</name>
  <author>
   <name>Brandon Costa</name>
   <link href="https://www.strava.com/athletes/778990"/>
  </author>
  <copyright author="OpenStreetMap contributors">
   <year>2020</year>
   <license>https://www.openstreetmap.org/copyright</license>
  </copyright>
  <link href="https://www.strava.com/routes/3457561194577397966"/>
 </metadata>
 <trk>
  <name>SUC 038 MED</name>
  <link href="https://www.strava.com/routes/3457561194577397966"/>
  <type>trail_running</type>
  <trkseg>
   <trkpt lat="38.88906" lon="-121.01726000000001">
    <ele>464.36</ele>
   </trkpt>
   <trkpt lat="38.88947" lon="-121.01732000000001">
    <ele>465.4800000000001</ele>
   </trkpt>
   <trkpt lat="38.889540000000004" lon="-121.01734">
    <ele>465.4800000000001</ele>
   </trkpt>
   <trkpt lat="38.8896" lon="-121.01731000000001">
    <ele>465.65000000000003</ele>
   </trkpt>
   <trkpt lat="38.889610000000005" lon="-121.01676">
    <ele>465.81000000000006</ele>
   </trkpt>
   <trkpt lat="38.88965" lon="-121.01653">
    <ele>466.26000000000005</ele>
   </trkpt>
   <trkpt lat="38.889860000000006" lon="-121.01627">
    <ele>465.72</ele>
   </trkpt>
   <trkpt lat="38.889950000000006" lon="-121.01618">
    <ele>465.33</ele>
   </trkpt>
   <trkpt lat="38.89079" lon="-121.01608000000002">
    <ele>466.67</ele>
   </trkpt>
   <trkpt lat="38.891360000000006" lon="-121.01602000000001">
    <ele>467.94</ele>
   </trkpt>
   <trkpt lat="38.891420000000004" lon="-121.01602000000001">
    <ele>468.03000000000003</ele>
   </trkpt>
   <trkpt lat="38.89186500005894" lon="-121.0160999995045">
    <ele>467.40000000000003</ele>
   </trkpt>
   <trkpt lat="38.89231" lon="-121.01618">
    <ele>467.05</ele>
   </trkpt>
   <trkpt lat="38.89242" lon="-121.01627">
    <ele>466.91</ele>
   </trkpt>
   <trkpt lat="38.89241000660544" lon="-121.01715000020181">
    <ele>467.6</ele>
   </trkpt>
   <trkpt lat="38.89240000660595" lon="-121.0180300001559">
    <ele>476.03000000000003</ele>
   </trkpt>
   <trkpt lat="38.892390000000006" lon="-121.01891">
    <ele>479.26</ele>
   </trkpt>
   <trkpt lat="38.892570000000006" lon="-121.019">
    <ele>478.6</ele>
   </trkpt>
   <trkpt lat="38.89291" lon="-121.01927">
    <ele>475.55</ele>
   </trkpt>
   <trkpt lat="38.89303" lon="-121.01932000000001">
    <ele>475.34000000000003</ele>
   </trkpt>
   <trkpt lat="38.89358" lon="-121.01944">
    <ele>479.59000000000003</ele>
   </trkpt>
   <trkpt lat="38.8937" lon="-121.01944">
    <ele>479.88</ele>
   </trkpt>
   <trkpt lat="38.89392" lon="-121.01937000000001">
    <ele>480.85</ele>
   </trkpt>
   <trkpt lat="38.89415" lon="-121.0194">
    <ele>480.40000000000003</ele>
   </trkpt>
   <trkpt lat="38.89439" lon="-121.01950000000001">
    <ele>479.31</ele>
   </trkpt>
   <trkpt lat="38.894850000125" lon="-121.0195399997512">
    <ele>478.64000000000004</ele>
   </trkpt>
   <trkpt lat="38.89531" lon="-121.01958">
    <ele>478.05</ele>
   </trkpt>
   <trkpt lat="38.895520000000005" lon="-121.01962">
    <ele>478.19000000000005</ele>
   </trkpt>
   <trkpt lat="38.895700000000005" lon="-121.01968000000001">
    <ele>478.59000000000003</ele>
   </trkpt>
   <trkpt lat="38.89607" lon="-121.01986000000001">
    <ele>478.32</ele>
   </trkpt>
   <trkpt lat="38.896350000000005" lon="-121.02003">
    <ele>476.89000000000004</ele>
   </trkpt>
   <trkpt lat="38.896190000000004" lon="-121.02012">
    <ele>477.4200000000001</ele>
   </trkpt>
   <trkpt lat="38.89612" lon="-121.02021">
    <ele>478.26</ele>
   </trkpt>
   <trkpt lat="38.895900000000005" lon="-121.02038">
    <ele>478.75000000000006</ele>
   </trkpt>
   <trkpt lat="38.89569" lon="-121.0207">
    <ele>478.39000000000004</ele>
   </trkpt>
   <trkpt lat="38.89547" lon="-121.02128">
    <ele>477.66</ele>
   </trkpt>
   <trkpt lat="38.895250000000004" lon="-121.02173">
    <ele>477.81</ele>
   </trkpt>
   <trkpt lat="38.89515" lon="-121.02218">
    <ele>479.04</ele>
   </trkpt>
   <trkpt lat="38.89517" lon="-121.0228">
    <ele>479.45000000000005</ele>
   </trkpt>
   <trkpt lat="38.895230000000005" lon="-121.02312">
    <ele>478.95000000000005</ele>
   </trkpt>
   <trkpt lat="38.89524" lon="-121.02329">
    <ele>478.81</ele>
   </trkpt>
   <trkpt lat="38.89519000000001" lon="-121.02387000000002">
    <ele>477.48</ele>
   </trkpt>
   <trkpt lat="38.89529" lon="-121.02432">
    <ele>475.4200000000001</ele>
   </trkpt>
   <trkpt lat="38.89529" lon="-121.02489000000001">
    <ele>473.05</ele>
   </trkpt>
   <trkpt lat="38.895340000000004" lon="-121.02517">
    <ele>470.63000000000005</ele>
   </trkpt>
   <trkpt lat="38.895390000000006" lon="-121.02531">
    <ele>469.88</ele>
   </trkpt>
   <trkpt lat="38.895570000000006" lon="-121.02566000000002">
    <ele>469.53000000000003</ele>
   </trkpt>
   <trkpt lat="38.89564" lon="-121.02576">
    <ele>469.4800000000001</ele>
   </trkpt>
   <trkpt lat="38.89571" lon="-121.0258">
    <ele>469.4800000000001</ele>
   </trkpt>
   <trkpt lat="38.89584" lon="-121.02586000000001">
    <ele>469.44</ele>
   </trkpt>
   <trkpt lat="38.896100000000004" lon="-121.02589">
    <ele>469.43</ele>
   </trkpt>
   <trkpt lat="38.8962" lon="-121.02593000000002">
    <ele>469.32</ele>
   </trkpt>
   <trkpt lat="38.896460000000005" lon="-121.02604000000001">
    <ele>468.67</ele>
   </trkpt>
   <trkpt lat="38.89668" lon="-121.02605000000001">
    <ele>468.04</ele>
   </trkpt>
   <trkpt lat="38.89694" lon="-121.02603">
    <ele>466.5400000000001</ele>
   </trkpt>
   <trkpt lat="38.89773" lon="-121.02602000000002">
    <ele>459.59000000000003</ele>
   </trkpt>
   <trkpt lat="38.8984" lon="-121.02589">
    <ele>452.21000000000004</ele>
   </trkpt>
   <trkpt lat="38.89855" lon="-121.02585">
    <ele>450.42</ele>
   </trkpt>
   <trkpt lat="38.898740000000004" lon="-121.02571">
    <ele>448.38000000000005</ele>
   </trkpt>
   <trkpt lat="38.898860000000006" lon="-121.02567">
    <ele>447.78000000000003</ele>
   </trkpt>
   <trkpt lat="38.89918" lon="-121.02567">
    <ele>447.45</ele>
   </trkpt>
   <trkpt lat="38.89999" lon="-121.02586000000001">
    <ele>444.28000000000003</ele>
   </trkpt>
   <trkpt lat="38.90055" lon="-121.02612">
    <ele>441.71000000000004</ele>
   </trkpt>
   <trkpt lat="38.90079" lon="-121.0262">
    <ele>440.22</ele>
   </trkpt>
   <trkpt lat="38.90091" lon="-121.02616">
    <ele>437.37</ele>
   </trkpt>
   <trkpt lat="38.90099" lon="-121.02612">
    <ele>435.57</ele>
   </trkpt>
   <trkpt lat="38.901120000000006" lon="-121.02594">
    <ele>433.59000000000003</ele>
   </trkpt>
   <trkpt lat="38.901230000000005" lon="-121.02585">
    <ele>432.85</ele>
   </trkpt>
   <trkpt lat="38.90133" lon="-121.02585">
    <ele>429.77000000000004</ele>
   </trkpt>
   <trkpt lat="38.901450000000004" lon="-121.02589">
    <ele>428.18000000000006</ele>
   </trkpt>
   <trkpt lat="38.90153" lon="-121.02595000000001">
    <ele>426.47</ele>
   </trkpt>
   <trkpt lat="38.90176" lon="-121.02622000000001">
    <ele>420.98</ele>
   </trkpt>
   <trkpt lat="38.90185" lon="-121.02629">
    <ele>420.85</ele>
   </trkpt>
   <trkpt lat="38.90251000000001" lon="-121.02643">
    <ele>417.61</ele>
   </trkpt>
   <trkpt lat="38.90263" lon="-121.02648">
    <ele>417.00000000000006</ele>
   </trkpt>
   <trkpt lat="38.90285" lon="-121.0267">
    <ele>415.82</ele>
   </trkpt>
   <trkpt lat="38.90299" lon="-121.02689000000001">
    <ele>415.15000000000003</ele>
   </trkpt>
   <trkpt lat="38.90312" lon="-121.02701">
    <ele>413.61</ele>
   </trkpt>
   <trkpt lat="38.90326" lon="-121.02707000000001">
    <ele>412.6</ele>
   </trkpt>
   <trkpt lat="38.90392000000001" lon="-121.0271">
    <ele>407.64000000000004</ele>
   </trkpt>
   <trkpt lat="38.9042" lon="-121.02716000000001">
    <ele>406.0</ele>
   </trkpt>
   <trkpt lat="38.904630000000004" lon="-121.02737">
    <ele>400.72</ele>
   </trkpt>
   <trkpt lat="38.904720000000005" lon="-121.02738000000001">
    <ele>399.59000000000003</ele>
   </trkpt>
   <trkpt lat="38.904830000000004" lon="-121.02738000000001">
    <ele>398.8</ele>
   </trkpt>
   <trkpt lat="38.90496" lon="-121.02736000000002">
    <ele>397.97</ele>
   </trkpt>
   <trkpt lat="38.90541" lon="-121.02736000000002">
    <ele>396.21</ele>
   </trkpt>
   <trkpt lat="38.90551000000001" lon="-121.02732">
    <ele>395.81000000000006</ele>
   </trkpt>
   <trkpt lat="38.905590000000004" lon="-121.02728">
    <ele>394.46000000000004</ele>
   </trkpt>
   <trkpt lat="38.905730000000005" lon="-121.02697">
    <ele>392.29</ele>
   </trkpt>
   <trkpt lat="38.90574" lon="-121.02665">
    <ele>388.70000000000005</ele>
   </trkpt>
   <trkpt lat="38.905770000000004" lon="-121.02656">
    <ele>388.15000000000003</ele>
   </trkpt>
   <trkpt lat="38.90583" lon="-121.02656">
    <ele>387.3</ele>
   </trkpt>
   <trkpt lat="38.90614" lon="-121.02665">
    <ele>384.13</ele>
   </trkpt>
   <trkpt lat="38.906290000000006" lon="-121.02665">
    <ele>383.44000000000005</ele>
   </trkpt>
   <trkpt lat="38.906490000000005" lon="-121.0267">
    <ele>381.98</ele>
   </trkpt>
   <trkpt lat="38.90666" lon="-121.0267">
    <ele>380.63</ele>
   </trkpt>
   <trkpt lat="38.9069" lon="-121.02661">
    <ele>378.27000000000004</ele>
   </trkpt>
   <trkpt lat="38.90726" lon="-121.02634">
    <ele>370.89000000000004</ele>
   </trkpt>
   <trkpt lat="38.90738" lon="-121.02617000000001">
    <ele>369.78000000000003</ele>
   </trkpt>
   <trkpt lat="38.90748000000001" lon="-121.02599000000001">
    <ele>368.00000000000006</ele>
   </trkpt>
   <trkpt lat="38.907500000000006" lon="-121.02599000000001">
    <ele>368.00000000000006</ele>
   </trkpt>
   <trkpt lat="38.90751" lon="-121.02599000000001">
    <ele>368.00000000000006</ele>
   </trkpt>
   <trkpt lat="38.907520000000005" lon="-121.02603">
    <ele>367.7300000000001</ele>
   </trkpt>
   <trkpt lat="38.90724" lon="-121.02675">
    <ele>360.3</ele>
   </trkpt>
   <trkpt lat="38.90724" lon="-121.02688">
    <ele>358.65000000000003</ele>
   </trkpt>
   <trkpt lat="38.907360000000004" lon="-121.02692">
    <ele>357.34000000000003</ele>
   </trkpt>
   <trkpt lat="38.907740000000004" lon="-121.02684">
    <ele>357.1</ele>
   </trkpt>
   <trkpt lat="38.907970000000006" lon="-121.0267">
    <ele>354.22</ele>
   </trkpt>
   <trkpt lat="38.90811" lon="-121.02665">
    <ele>354.22</ele>
   </trkpt>
   <trkpt lat="38.90822" lon="-121.02669000000002">
    <ele>352.40000000000003</ele>
   </trkpt>
   <trkpt lat="38.90833000000001" lon="-121.02675">
    <ele>350.22</ele>
   </trkpt>
   <trkpt lat="38.908390000000004" lon="-121.02684">
    <ele>350.22</ele>
   </trkpt>
   <trkpt lat="38.90863" lon="-121.02741">
    <ele>346.56</ele>
   </trkpt>
   <trkpt lat="38.908710000000006" lon="-121.02755">
    <ele>343.48</ele>
   </trkpt>
   <trkpt lat="38.909090000000006" lon="-121.02795">
    <ele>338.3</ele>
   </trkpt>
   <trkpt lat="38.9095" lon="-121.02845">
    <ele>333.84000000000003</ele>
   </trkpt>
   <trkpt lat="38.909580000000005" lon="-121.02853">
    <ele>332.46000000000004</ele>
   </trkpt>
   <trkpt lat="38.909890000000004" lon="-121.02872">
    <ele>329.66</ele>
   </trkpt>
   <trkpt lat="38.9101" lon="-121.02894">
    <ele>327.26000000000005</ele>
   </trkpt>
   <trkpt lat="38.910410000000006" lon="-121.02947">
    <ele>320.23</ele>
   </trkpt>
   <trkpt lat="38.91049" lon="-121.02965">
    <ele>320.23</ele>
   </trkpt>
   <trkpt lat="38.91064" lon="-121.03014">
    <ele>315.32000000000005</ele>
   </trkpt>
   <trkpt lat="38.91075" lon="-121.03074000000001">
    <ele>311.17</ele>
   </trkpt>
   <trkpt lat="38.91073" lon="-121.03090000000002">
    <ele>309.31</ele>
   </trkpt>
   <trkpt lat="38.910680000000006" lon="-121.031">
    <ele>308.00000000000006</ele>
   </trkpt>
   <trkpt lat="38.91062" lon="-121.03105000000001">
    <ele>307.54</ele>
   </trkpt>
   <trkpt lat="38.91049" lon="-121.03108">
    <ele>305.12</ele>
   </trkpt>
   <trkpt lat="38.91030000000001" lon="-121.03108">
    <ele>304.19</ele>
   </trkpt>
   <trkpt lat="38.91004" lon="-121.03113">
    <ele>302.88000000000005</ele>
   </trkpt>
   <trkpt lat="38.9095" lon="-121.03095">
    <ele>295.64</ele>
   </trkpt>
   <trkpt lat="38.909440000000004" lon="-121.031">
    <ele>295.64</ele>
   </trkpt>
   <trkpt lat="38.90948" lon="-121.03113">
    <ele>294.53000000000003</ele>
   </trkpt>
   <trkpt lat="38.90963" lon="-121.03135">
    <ele>291.95000000000005</ele>
   </trkpt>
   <trkpt lat="38.909650000000006" lon="-121.03144">
    <ele>291.34999999999997</ele>
   </trkpt>
   <trkpt lat="38.909650000000006" lon="-121.03225">
    <ele>283.33000000000004</ele>
   </trkpt>
   <trkpt lat="38.90961" lon="-121.03238">
    <ele>282.34000000000003</ele>
   </trkpt>
   <trkpt lat="38.909420000000004" lon="-121.03274">
    <ele>278.16</ele>
   </trkpt>
   <trkpt lat="38.90927000000001" lon="-121.03297">
    <ele>276.21</ele>
   </trkpt>
   <trkpt lat="38.90925" lon="-121.03305">
    <ele>275.33000000000004</ele>
   </trkpt>
   <trkpt lat="38.909240000000004" lon="-121.03318000000002">
    <ele>274.52000000000004</ele>
   </trkpt>
   <trkpt lat="38.909420000000004" lon="-121.03364">
    <ele>273.66</ele>
   </trkpt>
   <trkpt lat="38.90945" lon="-121.03377">
    <ele>266.6</ele>
   </trkpt>
   <trkpt lat="38.90943" lon="-121.03390000000002">
    <ele>266.6</ele>
   </trkpt>
   <trkpt lat="38.909290000000006" lon="-121.03418">
    <ele>265.74</ele>
   </trkpt>
   <trkpt lat="38.909290000000006" lon="-121.03431">
    <ele>265.34000000000003</ele>
   </trkpt>
   <trkpt lat="38.90934" lon="-121.0344">
    <ele>264.58000000000004</ele>
   </trkpt>
   <trkpt lat="38.90983000000001" lon="-121.0344">
    <ele>260.43</ele>
   </trkpt>
   <trkpt lat="38.91026" lon="-121.03453">
    <ele>254.38</ele>
   </trkpt>
   <trkpt lat="38.91039000000001" lon="-121.03458">
    <ele>253.3</ele>
   </trkpt>
   <trkpt lat="38.910470000000004" lon="-121.03463">
    <ele>252.10999999999999</ele>
   </trkpt>
   <trkpt lat="38.910540000000005" lon="-121.03475000000002">
    <ele>250.86</ele>
   </trkpt>
   <trkpt lat="38.910700000000006" lon="-121.03511">
    <ele>246.14000000000001</ele>
   </trkpt>
   <trkpt lat="38.910810000000005" lon="-121.03529">
    <ele>243.94000000000003</ele>
   </trkpt>
   <trkpt lat="38.911350000000006" lon="-121.03565">
    <ele>239.29000000000002</ele>
   </trkpt>
   <trkpt lat="38.911730000000006" lon="-121.03585000000001">
    <ele>234.0</ele>
   </trkpt>
   <trkpt lat="38.91178" lon="-121.03580000000001">
    <ele>232.03</ele>
   </trkpt>
   <trkpt lat="38.91201" lon="-121.03584000000001">
    <ele>229.78</ele>
   </trkpt>
   <trkpt lat="38.91212" lon="-121.03593000000001">
    <ele>219.87</ele>
   </trkpt>
   <trkpt lat="38.912220000000005" lon="-121.03598000000001">
    <ele>218.7</ele>
   </trkpt>
   <trkpt lat="38.91234" lon="-121.03597">
    <ele>216.66000000000003</ele>
   </trkpt>
   <trkpt lat="38.912240000000004" lon="-121.03585000000001">
    <ele>216.77</ele>
   </trkpt>
   <trkpt lat="38.912290000000006" lon="-121.03574">
    <ele>216.84</ele>
   </trkpt>
   <trkpt lat="38.912310000000005" lon="-121.03565">
    <ele>216.56000000000003</ele>
   </trkpt>
   <trkpt lat="38.912310000000005" lon="-121.03551000000002">
    <ele>215.97000000000003</ele>
   </trkpt>
   <trkpt lat="38.91221" lon="-121.0353">
    <ele>213.6</ele>
   </trkpt>
   <trkpt lat="38.911880000000004" lon="-121.03486000000001">
    <ele>209.66</ele>
   </trkpt>
   <trkpt lat="38.91171000000001" lon="-121.03467">
    <ele>208.1</ele>
   </trkpt>
   <trkpt lat="38.91132" lon="-121.03444">
    <ele>204.1</ele>
   </trkpt>
   <trkpt lat="38.91123" lon="-121.03435">
    <ele>201.98000000000002</ele>
   </trkpt>
   <trkpt lat="38.911190000000005" lon="-121.03426">
    <ele>201.98000000000002</ele>
   </trkpt>
   <trkpt lat="38.91118" lon="-121.03417">
    <ele>201.98000000000002</ele>
   </trkpt>
   <trkpt lat="38.9112" lon="-121.03408">
    <ele>201.25</ele>
   </trkpt>
   <trkpt lat="38.91132" lon="-121.03392000000001">
    <ele>198.89000000000001</ele>
   </trkpt>
   <trkpt lat="38.9117" lon="-121.03373">
    <ele>196.4</ele>
   </trkpt>
   <trkpt lat="38.91181" lon="-121.03365000000001">
    <ele>195.71</ele>
   </trkpt>
   <trkpt lat="38.911930000000005" lon="-121.0335">
    <ele>195.31</ele>
   </trkpt>
   <trkpt lat="38.91216" lon="-121.0331">
    <ele>194.44000000000003</ele>
   </trkpt>
   <trkpt lat="38.91236000000001" lon="-121.03243">
    <ele>193.63000000000002</ele>
   </trkpt>
   <trkpt lat="38.91243" lon="-121.03225">
    <ele>193.48000000000002</ele>
   </trkpt>
   <trkpt lat="38.912670000000006" lon="-121.03185">
    <ele>192.62</ele>
   </trkpt>
   <trkpt lat="38.91284" lon="-121.03144">
    <ele>188.95000000000002</ele>
   </trkpt>
   <trkpt lat="38.91288" lon="-121.03108">
    <ele>187.72000000000003</ele>
   </trkpt>
   <trkpt lat="38.912890000000004" lon="-121.03082">
    <ele>186.31</ele>
   </trkpt>
   <trkpt lat="38.91292" lon="-121.03069">
    <ele>186.31</ele>
   </trkpt>
   <trkpt lat="38.913050000000005" lon="-121.03041">
    <ele>185.06</ele>
   </trkpt>
   <trkpt lat="38.91337" lon="-121.02997">
    <ele>184.82000000000002</ele>
   </trkpt>
   <trkpt lat="38.91353" lon="-121.02965">
    <ele>184.92000000000002</ele>
   </trkpt>
   <trkpt lat="38.913700000000006" lon="-121.02898">
    <ele>184.89000000000001</ele>
   </trkpt>
   <trkpt lat="38.91375" lon="-121.02871">
    <ele>184.98</ele>
   </trkpt>
   <trkpt lat="38.913810000000005" lon="-121.02809">
    <ele>184.31</ele>
   </trkpt>
   <trkpt lat="38.91392500135827" lon="-121.02753000080668">
    <ele>184.17000000000002</ele>
   </trkpt>
   <trkpt lat="38.91404" lon="-121.02697">
    <ele>184.2</ele>
   </trkpt>
   <trkpt lat="38.914120000000004" lon="-121.02625">
    <ele>183.92000000000002</ele>
   </trkpt>
   <trkpt lat="38.9144150026097" lon="-121.02546500331259">
    <ele>183.71</ele>
   </trkpt>
   <trkpt lat="38.91471000000001" lon="-121.02468">
    <ele>183.53000000000003</ele>
   </trkpt>
   <trkpt lat="38.91480000000001" lon="-121.02455">
    <ele>183.48</ele>
   </trkpt>
   <trkpt lat="38.914930000000005" lon="-121.02445000000002">
    <ele>183.24</ele>
   </trkpt>
   <trkpt lat="38.91563" lon="-121.02405000000002">
    <ele>183.45</ele>
   </trkpt>
   <trkpt lat="38.91599" lon="-121.02379">
    <ele>183.62</ele>
   </trkpt>
   <trkpt lat="38.91637" lon="-121.02343">
    <ele>183.89000000000001</ele>
   </trkpt>
   <trkpt lat="38.916920000000005" lon="-121.0228">
    <ele>184.41000000000003</ele>
   </trkpt>
   <trkpt lat="38.917010000000005" lon="-121.02267">
    <ele>184.41000000000003</ele>
   </trkpt>
   <trkpt lat="38.91711" lon="-121.02249">
    <ele>184.67000000000002</ele>
   </trkpt>
   <trkpt lat="38.91722" lon="-121.02214000000001">
    <ele>185.15</ele>
   </trkpt>
   <trkpt lat="38.91738" lon="-121.02145000000002">
    <ele>185.76</ele>
   </trkpt>
   <trkpt lat="38.91755000446806" lon="-121.02042500253519">
    <ele>186.29000000000002</ele>
   </trkpt>
   <trkpt lat="38.91772" lon="-121.0194">
    <ele>186.62</ele>
   </trkpt>
   <trkpt lat="38.917770000000004" lon="-121.01891">
    <ele>186.82000000000002</ele>
   </trkpt>
   <trkpt lat="38.91770500154803" lon="-121.018304999323">
    <ele>186.85000000000002</ele>
   </trkpt>
   <trkpt lat="38.917640000000006" lon="-121.0177">
    <ele>186.87</ele>
   </trkpt>
   <trkpt lat="38.91751" lon="-121.01707">
    <ele>186.87</ele>
   </trkpt>
   <trkpt lat="38.917280000000005" lon="-121.01644">
    <ele>187.93</ele>
   </trkpt>
   <trkpt lat="38.917010000000005" lon="-121.01591">
    <ele>195.87</ele>
   </trkpt>
   <trkpt lat="38.91664" lon="-121.01542">
    <ele>204.08</ele>
   </trkpt>
   <trkpt lat="38.91653" lon="-121.01513000000001">
    <ele>208.52</ele>
   </trkpt>
   <trkpt lat="38.916380000000004" lon="-121.01458000000001">
    <ele>209.18</ele>
   </trkpt>
   <trkpt lat="38.91611" lon="-121.01385">
    <ele>214.72000000000003</ele>
   </trkpt>
   <trkpt lat="38.91604" lon="-121.01331">
    <ele>213.28000000000003</ele>
   </trkpt>
   <trkpt lat="38.916000000000004" lon="-121.01317000000002">
    <ele>212.67000000000002</ele>
   </trkpt>
   <trkpt lat="38.915820000000004" lon="-121.01282">
    <ele>205.8</ele>
   </trkpt>
   <trkpt lat="38.91577" lon="-121.01265000000001">
    <ele>204.55</ele>
   </trkpt>
   <trkpt lat="38.91572" lon="-121.01214000000002">
    <ele>202.46000000000004</ele>
   </trkpt>
   <trkpt lat="38.915670000000006" lon="-121.01180000000001">
    <ele>202.5</ele>
   </trkpt>
   <trkpt lat="38.91555" lon="-121.01134">
    <ele>203.23000000000002</ele>
   </trkpt>
   <trkpt lat="38.915470000000006" lon="-121.01067">
    <ele>203.78</ele>
   </trkpt>
   <trkpt lat="38.91541" lon="-121.01054">
    <ele>204.17000000000002</ele>
   </trkpt>
   <trkpt lat="38.91536" lon="-121.01049">
    <ele>204.49</ele>
   </trkpt>
   <trkpt lat="38.91498" lon="-121.01035000000002">
    <ele>205.83</ele>
   </trkpt>
   <trkpt lat="38.91485" lon="-121.01023">
    <ele>206.33</ele>
   </trkpt>
   <trkpt lat="38.91478" lon="-121.01014">
    <ele>206.90000000000003</ele>
   </trkpt>
   <trkpt lat="38.914770000000004" lon="-121.01009">
    <ele>207.25</ele>
   </trkpt>
   <trkpt lat="38.91479" lon="-121.01">
    <ele>208.07</ele>
   </trkpt>
   <trkpt lat="38.915110000000006" lon="-121.00955">
    <ele>211.92000000000002</ele>
   </trkpt>
   <trkpt lat="38.91526" lon="-121.00928">
    <ele>213.1</ele>
   </trkpt>
   <trkpt lat="38.915290000000006" lon="-121.00919">
    <ele>214.3</ele>
   </trkpt>
   <trkpt lat="38.915290000000006" lon="-121.00902">
    <ele>215.28000000000003</ele>
   </trkpt>
   <trkpt lat="38.91525" lon="-121.00879">
    <ele>216.74</ele>
   </trkpt>
   <trkpt lat="38.91525" lon="-121.00865">
    <ele>217.01</ele>
   </trkpt>
   <trkpt lat="38.91545" lon="-121.00802000000002">
    <ele>219.43</ele>
   </trkpt>
   <trkpt lat="38.915470000000006" lon="-121.00789">
    <ele>220.69000000000003</ele>
   </trkpt>
   <trkpt lat="38.91546" lon="-121.00753000000002">
    <ele>222.87</ele>
   </trkpt>
   <trkpt lat="38.91539" lon="-121.00713">
    <ele>223.77</ele>
   </trkpt>
   <trkpt lat="38.91539" lon="-121.007">
    <ele>226.08</ele>
   </trkpt>
   <trkpt lat="38.915440000000004" lon="-121.00691">
    <ele>226.08</ele>
   </trkpt>
   <trkpt lat="38.915490000000005" lon="-121.00687">
    <ele>226.34</ele>
   </trkpt>
   <trkpt lat="38.915960000000005" lon="-121.00655">
    <ele>228.95000000000002</ele>
   </trkpt>
   <trkpt lat="38.91608" lon="-121.00643000000001">
    <ele>230.62</ele>
   </trkpt>
   <trkpt lat="38.91621000000001" lon="-121.00619">
    <ele>232.67000000000002</ele>
   </trkpt>
   <trkpt lat="38.916340000000005" lon="-121.0061">
    <ele>234.24000000000004</ele>
   </trkpt>
   <trkpt lat="38.91669" lon="-121.00592">
    <ele>236.53</ele>
   </trkpt>
   <trkpt lat="38.916920000000005" lon="-121.00576000000001">
    <ele>237.70000000000002</ele>
   </trkpt>
   <trkpt lat="38.916500000000006" lon="-121.00587000000002">
    <ele>241.02</ele>
   </trkpt>
   <trkpt lat="38.91642" lon="-121.00583">
    <ele>241.3</ele>
   </trkpt>
   <trkpt lat="38.91624" lon="-121.00588">
    <ele>242.06000000000003</ele>
   </trkpt>
   <trkpt lat="38.915760000000006" lon="-121.0061">
    <ele>244.81000000000003</ele>
   </trkpt>
   <trkpt lat="38.915440000000004" lon="-121.00619">
    <ele>246.1</ele>
   </trkpt>
   <trkpt lat="38.91517" lon="-121.00614000000002">
    <ele>248.70000000000002</ele>
   </trkpt>
   <trkpt lat="38.91489" lon="-121.00600000000001">
    <ele>251.97000000000003</ele>
   </trkpt>
   <trkpt lat="38.9149" lon="-121.00600000000001">
    <ele>252.06</ele>
   </trkpt>
   <trkpt lat="38.91474" lon="-121.00592">
    <ele>254.48000000000005</ele>
   </trkpt>
   <trkpt lat="38.914530000000006" lon="-121.00574">
    <ele>256.05</ele>
   </trkpt>
   <trkpt lat="38.91445" lon="-121.00576000000001">
    <ele>256.84000000000003</ele>
   </trkpt>
   <trkpt lat="38.914410000000004" lon="-121.00583">
    <ele>257.48</ele>
   </trkpt>
   <trkpt lat="38.914370000000005" lon="-121.00606">
    <ele>258.83</ele>
   </trkpt>
   <trkpt lat="38.91433" lon="-121.00615">
    <ele>260.45</ele>
   </trkpt>
   <trkpt lat="38.91409" lon="-121.00642">
    <ele>263.88</ele>
   </trkpt>
   <trkpt lat="38.91389" lon="-121.00655">
    <ele>266.87</ele>
   </trkpt>
   <trkpt lat="38.913650000000004" lon="-121.00664">
    <ele>270.37</ele>
   </trkpt>
   <trkpt lat="38.91355" lon="-121.00670000000001">
    <ele>270.37</ele>
   </trkpt>
   <trkpt lat="38.91348" lon="-121.00678">
    <ele>274.2</ele>
   </trkpt>
   <trkpt lat="38.913430000000005" lon="-121.00691">
    <ele>274.2</ele>
   </trkpt>
   <trkpt lat="38.913360000000004" lon="-121.00746000000001">
    <ele>280.46000000000004</ele>
   </trkpt>
   <trkpt lat="38.913410000000006" lon="-121.00803">
    <ele>286.84000000000003</ele>
   </trkpt>
   <trkpt lat="38.913360000000004" lon="-121.00825">
    <ele>288.61</ele>
   </trkpt>
   <trkpt lat="38.91317" lon="-121.00857">
    <ele>293.53000000000003</ele>
   </trkpt>
   <trkpt lat="38.9129" lon="-121.00875">
    <ele>296.73</ele>
   </trkpt>
   <trkpt lat="38.9123" lon="-121.00897">
    <ele>307.1</ele>
   </trkpt>
   <trkpt lat="38.91181" lon="-121.00923000000002">
    <ele>316.31</ele>
   </trkpt>
   <trkpt lat="38.91169" lon="-121.00925000000001">
    <ele>319.68</ele>
   </trkpt>
   <trkpt lat="38.91087" lon="-121.00942">
    <ele>332.25000000000006</ele>
   </trkpt>
   <trkpt lat="38.91029" lon="-121.00951">
    <ele>341.55</ele>
   </trkpt>
   <trkpt lat="38.9097" lon="-121.00955">
    <ele>349.30000000000007</ele>
   </trkpt>
   <trkpt lat="38.909310000000005" lon="-121.00962000000001">
    <ele>353.09000000000003</ele>
   </trkpt>
   <trkpt lat="38.9093" lon="-121.00963000000002">
    <ele>353.09000000000003</ele>
   </trkpt>
   <trkpt lat="38.90903" lon="-121.00968">
    <ele>354.65000000000003</ele>
   </trkpt>
   <trkpt lat="38.90874" lon="-121.00972000000002">
    <ele>355.14</ele>
   </trkpt>
   <trkpt lat="38.907990000000005" lon="-121.00987">
    <ele>362.87</ele>
   </trkpt>
   <trkpt lat="38.90789" lon="-121.00986">
    <ele>362.41</ele>
   </trkpt>
   <trkpt lat="38.907720000000005" lon="-121.00972000000002">
    <ele>361.87</ele>
   </trkpt>
   <trkpt lat="38.90773" lon="-121.00964">
    <ele>362.8</ele>
   </trkpt>
   <trkpt lat="38.90785" lon="-121.00952000000001">
    <ele>364.59000000000003</ele>
   </trkpt>
   <trkpt lat="38.90785" lon="-121.00950000000002">
    <ele>365.09000000000003</ele>
   </trkpt>
   <trkpt lat="38.907810000000005" lon="-121.00943000000001">
    <ele>365.54</ele>
   </trkpt>
   <trkpt lat="38.9076" lon="-121.00938000000001">
    <ele>367.44000000000005</ele>
   </trkpt>
   <trkpt lat="38.90742" lon="-121.00938000000001">
    <ele>368.24</ele>
   </trkpt>
   <trkpt lat="38.9072" lon="-121.00946">
    <ele>370.83000000000004</ele>
   </trkpt>
   <trkpt lat="38.90701" lon="-121.00946">
    <ele>374.23</ele>
   </trkpt>
   <trkpt lat="38.90668" lon="-121.00972000000002">
    <ele>377.71000000000004</ele>
   </trkpt>
   <trkpt lat="38.90654" lon="-121.00977">
    <ele>379.11000000000007</ele>
   </trkpt>
   <trkpt lat="38.90645000000001" lon="-121.00977">
    <ele>379.75</ele>
   </trkpt>
   <trkpt lat="38.906240000000004" lon="-121.00964">
    <ele>380.75</ele>
   </trkpt>
   <trkpt lat="38.90617" lon="-121.00961000000001">
    <ele>381.71000000000004</ele>
   </trkpt>
   <trkpt lat="38.906090000000006" lon="-121.00961000000001">
    <ele>382.58000000000004</ele>
   </trkpt>
   <trkpt lat="38.90603" lon="-121.00965000000001">
    <ele>382.58000000000004</ele>
   </trkpt>
   <trkpt lat="38.90598000000001" lon="-121.00973">
    <ele>383.31000000000006</ele>
   </trkpt>
   <trkpt lat="38.90588" lon="-121.00995">
    <ele>386.05</ele>
   </trkpt>
   <trkpt lat="38.905800000000006" lon="-121.01018">
    <ele>388.43000000000006</ele>
   </trkpt>
   <trkpt lat="38.90578" lon="-121.01036">
    <ele>389.5</ele>
   </trkpt>
   <trkpt lat="38.905710000000006" lon="-121.01045">
    <ele>390.68</ele>
   </trkpt>
   <trkpt lat="38.90552" lon="-121.01064000000001">
    <ele>393.23</ele>
   </trkpt>
   <trkpt lat="38.905190000000005" lon="-121.01117">
    <ele>394.55</ele>
   </trkpt>
   <trkpt lat="38.90498" lon="-121.01169000000002">
    <ele>396.31000000000006</ele>
   </trkpt>
   <trkpt lat="38.90484" lon="-121.01183">
    <ele>398.37000000000006</ele>
   </trkpt>
   <trkpt lat="38.90473" lon="-121.01188">
    <ele>399.22</ele>
   </trkpt>
   <trkpt lat="38.904340000000005" lon="-121.01183">
    <ele>400.43</ele>
   </trkpt>
   <trkpt lat="38.904" lon="-121.01201">
    <ele>400.19000000000005</ele>
   </trkpt>
   <trkpt lat="38.903980000000004" lon="-121.0121">
    <ele>400.17</ele>
   </trkpt>
   <trkpt lat="38.90402" lon="-121.01228">
    <ele>400.93</ele>
   </trkpt>
   <trkpt lat="38.90401000000001" lon="-121.01237">
    <ele>400.93</ele>
   </trkpt>
   <trkpt lat="38.903980000000004" lon="-121.01246">
    <ele>402.53000000000003</ele>
   </trkpt>
   <trkpt lat="38.90375" lon="-121.01259">
    <ele>403.45000000000005</ele>
   </trkpt>
   <trkpt lat="38.90363" lon="-121.01272000000002">
    <ele>402.9800000000001</ele>
   </trkpt>
   <trkpt lat="38.90359" lon="-121.01282">
    <ele>401.95000000000005</ele>
   </trkpt>
   <trkpt lat="38.903580000000005" lon="-121.01305">
    <ele>400.33</ele>
   </trkpt>
   <trkpt lat="38.90355" lon="-121.01322">
    <ele>400.0</ele>
   </trkpt>
   <trkpt lat="38.903490000000005" lon="-121.01332000000001">
    <ele>400.06</ele>
   </trkpt>
   <trkpt lat="38.90344" lon="-121.01337000000001">
    <ele>400.4200000000001</ele>
   </trkpt>
   <trkpt lat="38.9033" lon="-121.01345">
    <ele>400.41</ele>
   </trkpt>
   <trkpt lat="38.90296" lon="-121.01349">
    <ele>399.08000000000004</ele>
   </trkpt>
   <trkpt lat="38.902550000000005" lon="-121.01376">
    <ele>402.22</ele>
   </trkpt>
   <trkpt lat="38.902390000000004" lon="-121.01398">
    <ele>401.36</ele>
   </trkpt>
   <trkpt lat="38.90236" lon="-121.01407">
    <ele>399.97</ele>
   </trkpt>
   <trkpt lat="38.902370000000005" lon="-121.01411000000002">
    <ele>399.97</ele>
   </trkpt>
   <trkpt lat="38.902370000000005" lon="-121.01410000000001">
    <ele>399.26000000000005</ele>
   </trkpt>
   <trkpt lat="38.90223" lon="-121.01424000000002">
    <ele>399.5</ele>
   </trkpt>
   <trkpt lat="38.90223" lon="-121.01439">
    <ele>397.74</ele>
   </trkpt>
   <trkpt lat="38.90234" lon="-121.01460000000002">
    <ele>395.64000000000004</ele>
   </trkpt>
   <trkpt lat="38.9025" lon="-121.01484">
    <ele>396.48</ele>
   </trkpt>
   <trkpt lat="38.90274" lon="-121.01467000000001">
    <ele>396.24</ele>
   </trkpt>
   <trkpt lat="38.902800000000006" lon="-121.01479">
    <ele>397.37000000000006</ele>
   </trkpt>
   <trkpt lat="38.902840000000005" lon="-121.01501">
    <ele>397.65000000000003</ele>
   </trkpt>
   <trkpt lat="38.90283" lon="-121.01507000000001">
    <ele>397.83</ele>
   </trkpt>
   <trkpt lat="38.90276" lon="-121.01515">
    <ele>398.54</ele>
   </trkpt>
   <trkpt lat="38.90256" lon="-121.01520000000001">
    <ele>400.15</ele>
   </trkpt>
   <trkpt lat="38.902190000000004" lon="-121.01543000000001">
    <ele>402.14000000000004</ele>
   </trkpt>
   <trkpt lat="38.90198" lon="-121.0156">
    <ele>406.23</ele>
   </trkpt>
   <trkpt lat="38.90162" lon="-121.01596">
    <ele>409.34000000000003</ele>
   </trkpt>
   <trkpt lat="38.90135" lon="-121.01619000000001">
    <ele>410.18000000000006</ele>
   </trkpt>
   <trkpt lat="38.900740000000006" lon="-121.01676">
    <ele>412.7</ele>
   </trkpt>
   <trkpt lat="38.899980000000006" lon="-121.01725">
    <ele>415.03000000000003</ele>
   </trkpt>
   <trkpt lat="38.899910000000006" lon="-121.01734">
    <ele>414.81</ele>
   </trkpt>
   <trkpt lat="38.89985" lon="-121.01747">
    <ele>414.84000000000003</ele>
   </trkpt>
   <trkpt lat="38.899860000000004" lon="-121.01789000000001">
    <ele>417.80000000000007</ele>
   </trkpt>
   <trkpt lat="38.899840000000005" lon="-121.01802">
    <ele>423.43</ele>
   </trkpt>
   <trkpt lat="38.89969" lon="-121.01863000000002">
    <ele>429.59000000000003</ele>
   </trkpt>
   <trkpt lat="38.89969" lon="-121.01878">
    <ele>432.64000000000004</ele>
   </trkpt>
   <trkpt lat="38.899730000000005" lon="-121.01901000000001">
    <ele>434.29</ele>
   </trkpt>
   <trkpt lat="38.899660000000004" lon="-121.01922">
    <ele>437.6700000000001</ele>
   </trkpt>
   <trkpt lat="38.8995" lon="-121.01941000000001">
    <ele>442.26000000000005</ele>
   </trkpt>
   <trkpt lat="38.8994" lon="-121.01949">
    <ele>445.06</ele>
   </trkpt>
   <trkpt lat="38.89905" lon="-121.01958">
    <ele>451.09000000000003</ele>
   </trkpt>
   <trkpt lat="38.89893" lon="-121.01962">
    <ele>452.73</ele>
   </trkpt>
   <trkpt lat="38.898680000000006" lon="-121.01981">
    <ele>461.44</ele>
   </trkpt>
   <trkpt lat="38.898430000000005" lon="-121.01998">
    <ele>463.5400000000001</ele>
   </trkpt>
   <trkpt lat="38.89833" lon="-121.02002000000002">
    <ele>464.64000000000004</ele>
   </trkpt>
   <trkpt lat="38.897980000000004" lon="-121.02007">
    <ele>467.74</ele>
   </trkpt>
   <trkpt lat="38.89755" lon="-121.01994">
    <ele>471.5</ele>
   </trkpt>
   <trkpt lat="38.8971" lon="-121.01989">
    <ele>473.54</ele>
   </trkpt>
   <trkpt lat="38.89652" lon="-121.01998">
    <ele>476.27000000000004</ele>
   </trkpt>
   <trkpt lat="38.896350000000005" lon="-121.02003">
    <ele>476.89000000000004</ele>
   </trkpt>
   <trkpt lat="38.89607" lon="-121.01986000000001">
    <ele>478.02000000000004</ele>
   </trkpt>
   <trkpt lat="38.895700000000005" lon="-121.01968000000001">
    <ele>478.59000000000003</ele>
   </trkpt>
   <trkpt lat="38.895520000000005" lon="-121.01962">
    <ele>478.19000000000005</ele>
   </trkpt>
   <trkpt lat="38.89531" lon="-121.01958">
    <ele>478.05</ele>
   </trkpt>
   <trkpt lat="38.894849999888656" lon="-121.01953999973064">
    <ele>478.64000000000004</ele>
   </trkpt>
   <trkpt lat="38.89439" lon="-121.01950000000001">
    <ele>479.31</ele>
   </trkpt>
   <trkpt lat="38.89415" lon="-121.0194">
    <ele>480.40000000000003</ele>
   </trkpt>
   <trkpt lat="38.89392" lon="-121.01937000000001">
    <ele>480.85</ele>
   </trkpt>
   <trkpt lat="38.8937" lon="-121.01944">
    <ele>479.88</ele>
   </trkpt>
   <trkpt lat="38.89358" lon="-121.01944">
    <ele>479.59000000000003</ele>
   </trkpt>
   <trkpt lat="38.89303" lon="-121.01932000000001">
    <ele>475.34000000000003</ele>
   </trkpt>
   <trkpt lat="38.89291" lon="-121.01927">
    <ele>475.55</ele>
   </trkpt>
   <trkpt lat="38.892570000000006" lon="-121.019">
    <ele>478.6</ele>
   </trkpt>
   <trkpt lat="38.892390000000006" lon="-121.01891">
    <ele>479.26</ele>
   </trkpt>
   <trkpt lat="38.89240000660439" lon="-121.01803000029378">
    <ele>476.03000000000003</ele>
   </trkpt>
   <trkpt lat="38.892410006603875" lon="-121.01715000033968">
    <ele>467.6</ele>
   </trkpt>
   <trkpt lat="38.89242" lon="-121.01627">
    <ele>466.91</ele>
   </trkpt>
   <trkpt lat="38.89231" lon="-121.01618">
    <ele>467.05</ele>
   </trkpt>
   <trkpt lat="38.89186500011449" lon="-121.01609499948344">
    <ele>467.40000000000003</ele>
   </trkpt>
   <trkpt lat="38.891420000000004" lon="-121.01601000000001">
    <ele>468.06</ele>
   </trkpt>
   <trkpt lat="38.89079" lon="-121.01608000000002">
    <ele>466.67</ele>
   </trkpt>
   <trkpt lat="38.889950000000006" lon="-121.01618">
    <ele>465.33</ele>
   </trkpt>
   <trkpt lat="38.889860000000006" lon="-121.01627">
    <ele>465.72</ele>
   </trkpt>
   <trkpt lat="38.88965" lon="-121.01653">
    <ele>466.26000000000005</ele>
   </trkpt>
   <trkpt lat="38.889610000000005" lon="-121.01676">
    <ele>465.81000000000006</ele>
   </trkpt>
   <trkpt lat="38.8896" lon="-121.01731000000001">
    <ele>465.65000000000003</ele>
   </trkpt>
   <trkpt lat="38.889540000000004" lon="-121.01734">
    <ele>465.65000000000003</ele>
   </trkpt>
   <trkpt lat="38.88947" lon="-121.01732000000001">
    <ele>465.4800000000001</ele>
   </trkpt>
   <trkpt lat="38.88911" lon="-121.01726000000001">
    <ele>464.47</ele>
   </trkpt>
  </trkseg>
 </trk>
</gpx>
