<?xml version="1.0" encoding="UTF-8"?>
<gpx creator="StravaGPX" version="1.1" xmlns="http://www.topografix.com/GPX/1/1" xmlns:xsi="http://www.w3.org/2001/XMLSchema-instance" xsi:schemaLocation="http://www.topografix.com/GPX/1/1 http://www.topografix.com/GPX/1/1/gpx.xsd">
 <metadata>
  <name>SUC-039-MED</name>
  <author>
   <name>Brandon Costa</name>
   <link href="https://www.strava.com/athletes/778990"/>
  </author>
  <copyright author="OpenStreetMap contributors">
   <year>2020</year>
   <license>https://www.openstreetmap.org/copyright</license>
  </copyright>
  <link href="https://www.strava.com/routes/3462622953866268520"/>
 </metadata>
 <trk>
  <name>SUC-039-MED</name>
  <link href="https://www.strava.com/routes/3462622953866268520"/>
  <type>running</type>
  <trkseg>
   <trkpt lat="38.67727" lon="-121.18002000000001">
    <ele>57.620000000000005</ele>
   </trkpt>
   <trkpt lat="38.6771" lon="-121.17987000000001">
    <ele>57.910000000000004</ele>
   </trkpt>
   <trkpt lat="38.67680500103274" lon="-121.18037500217211">
    <ele>58.050000000000004</ele>
   </trkpt>
   <trkpt lat="38.67651" lon="-121.18088000000002">
    <ele>58.46</ele>
   </trkpt>
   <trkpt lat="38.67671" lon="-121.18107">
    <ele>58.160000000000004</ele>
   </trkpt>
   <trkpt lat="38.676860000000005" lon="-121.18111">
    <ele>57.690000000000005</ele>
   </trkpt>
   <trkpt lat="38.67748" lon="-121.18106000000002">
    <ele>54.480000000000004</ele>
   </trkpt>
   <trkpt lat="38.677730000000004" lon="-121.18107">
    <ele>53.26</ele>
   </trkpt>
   <trkpt lat="38.67775" lon="-121.18116">
    <ele>52.300000000000004</ele>
   </trkpt>
   <trkpt lat="38.677730000000004" lon="-121.18138">
    <ele>51.730000000000004</ele>
   </trkpt>
   <trkpt lat="38.67765" lon="-121.18165">
    <ele>50.2</ele>
   </trkpt>
   <trkpt lat="38.677670000000006" lon="-121.18180000000001">
    <ele>49.6</ele>
   </trkpt>
   <trkpt lat="38.67766" lon="-121.18192">
    <ele>49.46</ele>
   </trkpt>
   <trkpt lat="38.677580000000006" lon="-121.1821">
    <ele>49.32</ele>
   </trkpt>
   <trkpt lat="38.677350000000004" lon="-121.18227000000002">
    <ele>49.580000000000005</ele>
   </trkpt>
   <trkpt lat="38.677200000000006" lon="-121.18261000000001">
    <ele>49.040000000000006</ele>
   </trkpt>
   <trkpt lat="38.67665" lon="-121.18344">
    <ele>44.78</ele>
   </trkpt>
   <trkpt lat="38.676610000000004" lon="-121.18357">
    <ele>44.78</ele>
   </trkpt>
   <trkpt lat="38.676610000000004" lon="-121.18378000000001">
    <ele>42.89</ele>
   </trkpt>
   <trkpt lat="38.676590000000004" lon="-121.18389">
    <ele>42.45</ele>
   </trkpt>
   <trkpt lat="38.67653" lon="-121.18402">
    <ele>42.150000000000006</ele>
   </trkpt>
   <trkpt lat="38.67645" lon="-121.18406000000002">
    <ele>42.04</ele>
   </trkpt>
   <trkpt lat="38.67627" lon="-121.18408000000001">
    <ele>42.370000000000005</ele>
   </trkpt>
   <trkpt lat="38.676210000000005" lon="-121.1842">
    <ele>42.42000000000001</ele>
   </trkpt>
   <trkpt lat="38.6762" lon="-121.18433000000002">
    <ele>42.42000000000001</ele>
   </trkpt>
   <trkpt lat="38.67622" lon="-121.18442">
    <ele>42.34</ele>
   </trkpt>
   <trkpt lat="38.67636" lon="-121.18465">
    <ele>41.86</ele>
   </trkpt>
   <trkpt lat="38.676370000000006" lon="-121.18481000000001">
    <ele>41.86</ele>
   </trkpt>
   <trkpt lat="38.67631" lon="-121.18519">
    <ele>40.92</ele>
   </trkpt>
   <trkpt lat="38.67609" lon="-121.18559">
    <ele>40.28</ele>
   </trkpt>
   <trkpt lat="38.67602" lon="-121.18563">
    <ele>40.28</ele>
   </trkpt>
   <trkpt lat="38.6758" lon="-121.18568">
    <ele>40.300000000000004</ele>
   </trkpt>
   <trkpt lat="38.67559" lon="-121.18569000000001">
    <ele>40.39</ele>
   </trkpt>
   <trkpt lat="38.675520000000006" lon="-121.18576000000002">
    <ele>40.370000000000005</ele>
   </trkpt>
   <trkpt lat="38.67549" lon="-121.18582">
    <ele>40.370000000000005</ele>
   </trkpt>
   <trkpt lat="38.675470000000004" lon="-121.18605000000001">
    <ele>40.06</ele>
   </trkpt>
   <trkpt lat="38.675430000000006" lon="-121.18617">
    <ele>39.970000000000006</ele>
   </trkpt>
   <trkpt lat="38.675140000000006" lon="-121.18653">
    <ele>39.830000000000005</ele>
   </trkpt>
   <trkpt lat="38.674850000000006" lon="-121.18661000000002">
    <ele>39.970000000000006</ele>
   </trkpt>
   <trkpt lat="38.67479" lon="-121.18663000000001">
    <ele>40.050000000000004</ele>
   </trkpt>
   <trkpt lat="38.67459" lon="-121.18684">
    <ele>40.400000000000006</ele>
   </trkpt>
   <trkpt lat="38.67446" lon="-121.18693">
    <ele>40.730000000000004</ele>
   </trkpt>
   <trkpt lat="38.67418" lon="-121.18703000000001">
    <ele>41.190000000000005</ele>
   </trkpt>
   <trkpt lat="38.6741" lon="-121.18708000000001">
    <ele>41.27</ele>
   </trkpt>
   <trkpt lat="38.67399" lon="-121.18729">
    <ele>41.25</ele>
   </trkpt>
   <trkpt lat="38.67387" lon="-121.18742">
    <ele>41.31</ele>
   </trkpt>
   <trkpt lat="38.6736" lon="-121.18747">
    <ele>41.550000000000004</ele>
   </trkpt>
   <trkpt lat="38.673260000000006" lon="-121.18756">
    <ele>41.260000000000005</ele>
   </trkpt>
   <trkpt lat="38.67309" lon="-121.18755000000002">
    <ele>40.95</ele>
   </trkpt>
   <trkpt lat="38.672940000000004" lon="-121.18756">
    <ele>40.410000000000004</ele>
   </trkpt>
   <trkpt lat="38.67246" lon="-121.18769">
    <ele>39.940000000000005</ele>
   </trkpt>
   <trkpt lat="38.67224" lon="-121.18765">
    <ele>40.019999999999996</ele>
   </trkpt>
   <trkpt lat="38.671940000000006" lon="-121.18755000000002">
    <ele>40.720000000000006</ele>
   </trkpt>
   <trkpt lat="38.67155" lon="-121.18779">
    <ele>40.400000000000006</ele>
   </trkpt>
   <trkpt lat="38.671440000000004" lon="-121.18783">
    <ele>40.510000000000005</ele>
   </trkpt>
   <trkpt lat="38.671260000000004" lon="-121.18783">
    <ele>40.81</ele>
   </trkpt>
   <trkpt lat="38.670550000000006" lon="-121.18778">
    <ele>42.75</ele>
   </trkpt>
   <trkpt lat="38.670390000000005" lon="-121.1877">
    <ele>42.81</ele>
   </trkpt>
   <trkpt lat="38.6702" lon="-121.18754000000001">
    <ele>42.690000000000005</ele>
   </trkpt>
   <trkpt lat="38.669900000000005" lon="-121.18734">
    <ele>42.42000000000001</ele>
   </trkpt>
   <trkpt lat="38.66975" lon="-121.18728000000002">
    <ele>42.230000000000004</ele>
   </trkpt>
   <trkpt lat="38.66933" lon="-121.18725">
    <ele>41.510000000000005</ele>
   </trkpt>
   <trkpt lat="38.66913" lon="-121.18730000000001">
    <ele>41.830000000000005</ele>
   </trkpt>
   <trkpt lat="38.668890000000005" lon="-121.18747">
    <ele>41.910000000000004</ele>
   </trkpt>
   <trkpt lat="38.66877" lon="-121.18748000000001">
    <ele>41.910000000000004</ele>
   </trkpt>
   <trkpt lat="38.66832" lon="-121.18748000000001">
    <ele>41.550000000000004</ele>
   </trkpt>
   <trkpt lat="38.6676" lon="-121.18746000000002">
    <ele>39.53</ele>
   </trkpt>
   <trkpt lat="38.66723" lon="-121.18756">
    <ele>39.63</ele>
   </trkpt>
   <trkpt lat="38.667120000000004" lon="-121.18755000000002">
    <ele>39.690000000000005</ele>
   </trkpt>
   <trkpt lat="38.666760000000004" lon="-121.18746000000002">
    <ele>40.49</ele>
   </trkpt>
   <trkpt lat="38.66657" lon="-121.18742">
    <ele>41.53</ele>
   </trkpt>
   <trkpt lat="38.66646" lon="-121.18744000000001">
    <ele>41.760000000000005</ele>
   </trkpt>
   <trkpt lat="38.666090000000004" lon="-121.18769">
    <ele>41.150000000000006</ele>
   </trkpt>
   <trkpt lat="38.66593" lon="-121.18774">
    <ele>41.14</ele>
   </trkpt>
   <trkpt lat="38.66566" lon="-121.18774">
    <ele>41.29</ele>
   </trkpt>
   <trkpt lat="38.66523" lon="-121.18787">
    <ele>41.25</ele>
   </trkpt>
   <trkpt lat="38.664590000000004" lon="-121.18765">
    <ele>42.190000000000005</ele>
   </trkpt>
   <trkpt lat="38.664210000000004" lon="-121.1877">
    <ele>43.49</ele>
   </trkpt>
   <trkpt lat="38.66404" lon="-121.1877">
    <ele>44.7</ele>
   </trkpt>
   <trkpt lat="38.66364" lon="-121.18778">
    <ele>46.68000000000001</ele>
   </trkpt>
   <trkpt lat="38.663230000000006" lon="-121.18774">
    <ele>47.07</ele>
   </trkpt>
   <trkpt lat="38.663140000000006" lon="-121.18774">
    <ele>46.970000000000006</ele>
   </trkpt>
   <trkpt lat="38.662960000000005" lon="-121.18783">
    <ele>46.330000000000005</ele>
   </trkpt>
   <trkpt lat="38.66288" lon="-121.18784000000001">
    <ele>46.150000000000006</ele>
   </trkpt>
   <trkpt lat="38.66261" lon="-121.18775000000001">
    <ele>45.93000000000001</ele>
   </trkpt>
   <trkpt lat="38.66252" lon="-121.18774">
    <ele>45.75000000000001</ele>
   </trkpt>
   <trkpt lat="38.66225" lon="-121.18796">
    <ele>45.56</ele>
   </trkpt>
   <trkpt lat="38.66203" lon="-121.18801">
    <ele>44.58</ele>
   </trkpt>
   <trkpt lat="38.66161" lon="-121.18819">
    <ele>43.24</ele>
   </trkpt>
   <trkpt lat="38.66138" lon="-121.18832">
    <ele>42.910000000000004</ele>
   </trkpt>
   <trkpt lat="38.660680000000006" lon="-121.18845">
    <ele>43.230000000000004</ele>
   </trkpt>
   <trkpt lat="38.66044" lon="-121.18855">
    <ele>43.02</ele>
   </trkpt>
   <trkpt lat="38.65997" lon="-121.18872">
    <ele>43.17000000000001</ele>
   </trkpt>
   <trkpt lat="38.659710000000004" lon="-121.18885000000002">
    <ele>43.24</ele>
   </trkpt>
   <trkpt lat="38.659310000000005" lon="-121.18899">
    <ele>42.74</ele>
   </trkpt>
   <trkpt lat="38.658860000000004" lon="-121.18906000000001">
    <ele>43.08</ele>
   </trkpt>
   <trkpt lat="38.658770000000004" lon="-121.18909000000001">
    <ele>42.97</ele>
   </trkpt>
   <trkpt lat="38.65856" lon="-121.18922">
    <ele>42.64</ele>
   </trkpt>
   <trkpt lat="38.65834" lon="-121.18931">
    <ele>42.85000000000001</ele>
   </trkpt>
   <trkpt lat="38.65796" lon="-121.18939">
    <ele>42.82</ele>
   </trkpt>
   <trkpt lat="38.657700000000006" lon="-121.18949">
    <ele>42.25</ele>
   </trkpt>
   <trkpt lat="38.65762" lon="-121.18957">
    <ele>42.230000000000004</ele>
   </trkpt>
   <trkpt lat="38.657560000000004" lon="-121.18966">
    <ele>42.230000000000004</ele>
   </trkpt>
   <trkpt lat="38.65751" lon="-121.18982000000001">
    <ele>42.36</ele>
   </trkpt>
   <trkpt lat="38.65744" lon="-121.18993">
    <ele>42.46</ele>
   </trkpt>
   <trkpt lat="38.657320000000006" lon="-121.19002">
    <ele>42.730000000000004</ele>
   </trkpt>
   <trkpt lat="38.657140000000005" lon="-121.19007">
    <ele>43.72</ele>
   </trkpt>
   <trkpt lat="38.656960000000005" lon="-121.19007">
    <ele>44.050000000000004</ele>
   </trkpt>
   <trkpt lat="38.65673" lon="-121.19010000000002">
    <ele>44.120000000000005</ele>
   </trkpt>
   <trkpt lat="38.6565" lon="-121.19016">
    <ele>42.2</ele>
   </trkpt>
   <trkpt lat="38.656130000000005" lon="-121.19029">
    <ele>41.11</ele>
   </trkpt>
   <trkpt lat="38.65597" lon="-121.19029">
    <ele>41.160000000000004</ele>
   </trkpt>
   <trkpt lat="38.655710000000006" lon="-121.19024">
    <ele>41.81000000000001</ele>
   </trkpt>
   <trkpt lat="38.655620000000006" lon="-121.19024">
    <ele>41.96</ele>
   </trkpt>
   <trkpt lat="38.65554" lon="-121.19029">
    <ele>42.13</ele>
   </trkpt>
   <trkpt lat="38.65536" lon="-121.19051">
    <ele>43.24</ele>
   </trkpt>
   <trkpt lat="38.655300000000004" lon="-121.19056">
    <ele>43.27</ele>
   </trkpt>
   <trkpt lat="38.655060000000006" lon="-121.19069">
    <ele>42.61</ele>
   </trkpt>
   <trkpt lat="38.65473" lon="-121.19079">
    <ele>41.17</ele>
   </trkpt>
   <trkpt lat="38.654560000000004" lon="-121.19082000000002">
    <ele>41.7</ele>
   </trkpt>
   <trkpt lat="38.65439000000001" lon="-121.19075000000001">
    <ele>42.39</ele>
   </trkpt>
   <trkpt lat="38.654" lon="-121.19069">
    <ele>42.49000000000001</ele>
   </trkpt>
   <trkpt lat="38.65323" lon="-121.19083">
    <ele>41.0</ele>
   </trkpt>
   <trkpt lat="38.65245" lon="-121.19114">
    <ele>40.49</ele>
   </trkpt>
   <trkpt lat="38.65236" lon="-121.19111000000001">
    <ele>40.49</ele>
   </trkpt>
   <trkpt lat="38.652150000000006" lon="-121.19078">
    <ele>40.720000000000006</ele>
   </trkpt>
   <trkpt lat="38.65185" lon="-121.19042">
    <ele>42.25</ele>
   </trkpt>
   <trkpt lat="38.65166" lon="-121.18998">
    <ele>44.230000000000004</ele>
   </trkpt>
   <trkpt lat="38.651610000000005" lon="-121.18993">
    <ele>44.410000000000004</ele>
   </trkpt>
   <trkpt lat="38.65149" lon="-121.18986000000001">
    <ele>44.52</ele>
   </trkpt>
   <trkpt lat="38.651210000000006" lon="-121.18984">
    <ele>44.56</ele>
   </trkpt>
   <trkpt lat="38.650600000000004" lon="-121.18948">
    <ele>42.870000000000005</ele>
   </trkpt>
   <trkpt lat="38.65054000000001" lon="-121.18939">
    <ele>42.52</ele>
   </trkpt>
   <trkpt lat="38.650450000000006" lon="-121.18918000000001">
    <ele>42.54</ele>
   </trkpt>
   <trkpt lat="38.65028" lon="-121.18917">
    <ele>43.230000000000004</ele>
   </trkpt>
   <trkpt lat="38.65019" lon="-121.18912000000002">
    <ele>43.230000000000004</ele>
   </trkpt>
   <trkpt lat="38.65007000000001" lon="-121.1889">
    <ele>43.410000000000004</ele>
   </trkpt>
   <trkpt lat="38.650020000000005" lon="-121.18886">
    <ele>43.33</ele>
   </trkpt>
   <trkpt lat="38.64988" lon="-121.18886">
    <ele>42.940000000000005</ele>
   </trkpt>
   <trkpt lat="38.649820000000005" lon="-121.18885000000002">
    <ele>42.940000000000005</ele>
   </trkpt>
   <trkpt lat="38.649800000000006" lon="-121.18876000000002">
    <ele>42.940000000000005</ele>
   </trkpt>
   <trkpt lat="38.649800000000006" lon="-121.18863">
    <ele>42.800000000000004</ele>
   </trkpt>
   <trkpt lat="38.64988" lon="-121.18840000000002">
    <ele>42.830000000000005</ele>
   </trkpt>
   <trkpt lat="38.649890000000006" lon="-121.18831000000002">
    <ele>42.830000000000005</ele>
   </trkpt>
   <trkpt lat="38.649860000000004" lon="-121.18823">
    <ele>42.830000000000005</ele>
   </trkpt>
   <trkpt lat="38.649800000000006" lon="-121.18820000000001">
    <ele>42.57</ele>
   </trkpt>
   <trkpt lat="38.64963" lon="-121.18820000000001">
    <ele>42.52</ele>
   </trkpt>
   <trkpt lat="38.64945" lon="-121.18825000000001">
    <ele>42.5</ele>
   </trkpt>
   <trkpt lat="38.64913000000001" lon="-121.18803000000001">
    <ele>42.25</ele>
   </trkpt>
   <trkpt lat="38.649060000000006" lon="-121.18802000000001">
    <ele>42.61</ele>
   </trkpt>
   <trkpt lat="38.64889" lon="-121.18814">
    <ele>43.14</ele>
   </trkpt>
   <trkpt lat="38.64858" lon="-121.18858000000002">
    <ele>43.35000000000001</ele>
   </trkpt>
   <trkpt lat="38.64853" lon="-121.18867000000002">
    <ele>43.08</ele>
   </trkpt>
   <trkpt lat="38.64851" lon="-121.18881">
    <ele>42.72</ele>
   </trkpt>
   <trkpt lat="38.648520000000005" lon="-121.18908">
    <ele>41.74</ele>
   </trkpt>
   <trkpt lat="38.648540000000004" lon="-121.18923000000001">
    <ele>41.370000000000005</ele>
   </trkpt>
   <trkpt lat="38.6486" lon="-121.18951000000001">
    <ele>40.63</ele>
   </trkpt>
   <trkpt lat="38.648390000000006" lon="-121.18971">
    <ele>40.36</ele>
   </trkpt>
   <trkpt lat="38.64822" lon="-121.18989">
    <ele>39.61000000000001</ele>
   </trkpt>
   <trkpt lat="38.64804" lon="-121.18997000000002">
    <ele>39.300000000000004</ele>
   </trkpt>
   <trkpt lat="38.648" lon="-121.19002">
    <ele>39.17</ele>
   </trkpt>
   <trkpt lat="38.647960000000005" lon="-121.19016">
    <ele>39.089999999999996</ele>
   </trkpt>
   <trkpt lat="38.6479" lon="-121.19024">
    <ele>39.040000000000006</ele>
   </trkpt>
   <trkpt lat="38.647740000000006" lon="-121.19029">
    <ele>39.06</ele>
   </trkpt>
   <trkpt lat="38.647690000000004" lon="-121.19033">
    <ele>39.13</ele>
   </trkpt>
   <trkpt lat="38.64759" lon="-121.19069">
    <ele>39.45</ele>
   </trkpt>
   <trkpt lat="38.64755" lon="-121.19078">
    <ele>39.68</ele>
   </trkpt>
   <trkpt lat="38.647450000000006" lon="-121.19087">
    <ele>40.290000000000006</ele>
   </trkpt>
   <trkpt lat="38.647380000000005" lon="-121.19088">
    <ele>40.290000000000006</ele>
   </trkpt>
   <trkpt lat="38.64725" lon="-121.19084000000001">
    <ele>41.46</ele>
   </trkpt>
   <trkpt lat="38.647180000000006" lon="-121.19078">
    <ele>42.0</ele>
   </trkpt>
   <trkpt lat="38.646840000000005" lon="-121.19016">
    <ele>43.78000000000001</ele>
   </trkpt>
   <trkpt lat="38.64678" lon="-121.18972000000001">
    <ele>44.050000000000004</ele>
   </trkpt>
   <trkpt lat="38.64674" lon="-121.18966">
    <ele>44.050000000000004</ele>
   </trkpt>
   <trkpt lat="38.646660000000004" lon="-121.18961000000002">
    <ele>44.02</ele>
   </trkpt>
   <trkpt lat="38.64656" lon="-121.18958">
    <ele>44.09</ele>
   </trkpt>
   <trkpt lat="38.64643" lon="-121.18962">
    <ele>44.33</ele>
   </trkpt>
   <trkpt lat="38.646350000000005" lon="-121.18965000000001">
    <ele>44.730000000000004</ele>
   </trkpt>
   <trkpt lat="38.646260000000005" lon="-121.18984">
    <ele>47.120000000000005</ele>
   </trkpt>
   <trkpt lat="38.64618" lon="-121.18993">
    <ele>47.120000000000005</ele>
   </trkpt>
   <trkpt lat="38.64607" lon="-121.18999000000001">
    <ele>48.78</ele>
   </trkpt>
   <trkpt lat="38.645880000000005" lon="-121.19007">
    <ele>49.71</ele>
   </trkpt>
   <trkpt lat="38.64578" lon="-121.19015000000002">
    <ele>50.27</ele>
   </trkpt>
   <trkpt lat="38.645770000000006" lon="-121.1902">
    <ele>50.800000000000004</ele>
   </trkpt>
   <trkpt lat="38.645770000000006" lon="-121.19034">
    <ele>51.64000000000001</ele>
   </trkpt>
   <trkpt lat="38.645810000000004" lon="-121.19074">
    <ele>52.51</ele>
   </trkpt>
   <trkpt lat="38.64578" lon="-121.19092">
    <ele>52.36</ele>
   </trkpt>
   <trkpt lat="38.64576" lon="-121.19097000000001">
    <ele>52.36</ele>
   </trkpt>
   <trkpt lat="38.64565" lon="-121.1911">
    <ele>52.31</ele>
   </trkpt>
   <trkpt lat="38.6456" lon="-121.19119">
    <ele>52.31</ele>
   </trkpt>
   <trkpt lat="38.645450000000004" lon="-121.19173">
    <ele>52.33</ele>
   </trkpt>
   <trkpt lat="38.64542" lon="-121.19186">
    <ele>52.33</ele>
   </trkpt>
   <trkpt lat="38.645430000000005" lon="-121.19204">
    <ele>52.4</ele>
   </trkpt>
   <trkpt lat="38.645410000000005" lon="-121.19218000000001">
    <ele>52.4</ele>
   </trkpt>
   <trkpt lat="38.64522" lon="-121.19258">
    <ele>52.440000000000005</ele>
   </trkpt>
   <trkpt lat="38.64517" lon="-121.19275">
    <ele>52.58</ele>
   </trkpt>
   <trkpt lat="38.6452" lon="-121.19302">
    <ele>52.61</ele>
   </trkpt>
   <trkpt lat="38.64518" lon="-121.19312000000001">
    <ele>52.61</ele>
   </trkpt>
   <trkpt lat="38.64508" lon="-121.19324">
    <ele>52.49</ele>
   </trkpt>
   <trkpt lat="38.64482" lon="-121.19348000000001">
    <ele>52.480000000000004</ele>
   </trkpt>
   <trkpt lat="38.644450000000006" lon="-121.19392">
    <ele>52.50000000000001</ele>
   </trkpt>
   <trkpt lat="38.64401" lon="-121.19433000000001">
    <ele>52.33</ele>
   </trkpt>
   <trkpt lat="38.64377" lon="-121.19464">
    <ele>52.21000000000001</ele>
   </trkpt>
   <trkpt lat="38.643390000000004" lon="-121.1953">
    <ele>52.07000000000001</ele>
   </trkpt>
   <trkpt lat="38.64316" lon="-121.19585000000001">
    <ele>52.25000000000001</ele>
   </trkpt>
   <trkpt lat="38.64296" lon="-121.19615">
    <ele>52.06</ele>
   </trkpt>
   <trkpt lat="38.642920000000004" lon="-121.19625">
    <ele>52.06</ele>
   </trkpt>
   <trkpt lat="38.64287" lon="-121.1966">
    <ele>52.02</ele>
   </trkpt>
   <trkpt lat="38.64282" lon="-121.19672000000001">
    <ele>52.02</ele>
   </trkpt>
   <trkpt lat="38.64269" lon="-121.19692">
    <ele>51.92</ele>
   </trkpt>
   <trkpt lat="38.64249" lon="-121.19709">
    <ele>51.510000000000005</ele>
   </trkpt>
   <trkpt lat="38.641920000000006" lon="-121.19737">
    <ele>50.68</ele>
   </trkpt>
   <trkpt lat="38.64181000000001" lon="-121.19740000000002">
    <ele>50.36</ele>
   </trkpt>
   <trkpt lat="38.64172000000001" lon="-121.19745">
    <ele>49.43</ele>
   </trkpt>
   <trkpt lat="38.64161" lon="-121.19755">
    <ele>49.43</ele>
   </trkpt>
   <trkpt lat="38.6415" lon="-121.19772">
    <ele>47.88</ele>
   </trkpt>
   <trkpt lat="38.641470000000005" lon="-121.19799">
    <ele>47.32</ele>
   </trkpt>
   <trkpt lat="38.641380000000005" lon="-121.19834000000002">
    <ele>46.67</ele>
   </trkpt>
   <trkpt lat="38.64132" lon="-121.19852000000002">
    <ele>46.43000000000001</ele>
   </trkpt>
   <trkpt lat="38.64117" lon="-121.1988">
    <ele>45.86000000000001</ele>
   </trkpt>
   <trkpt lat="38.64114" lon="-121.19890000000001">
    <ele>45.68000000000001</ele>
   </trkpt>
   <trkpt lat="38.64117" lon="-121.19902">
    <ele>44.85</ele>
   </trkpt>
   <trkpt lat="38.64135" lon="-121.19929">
    <ele>44.39000000000001</ele>
   </trkpt>
   <trkpt lat="38.64137" lon="-121.19942">
    <ele>43.870000000000005</ele>
   </trkpt>
   <trkpt lat="38.64134000000001" lon="-121.19947">
    <ele>43.870000000000005</ele>
   </trkpt>
   <trkpt lat="38.64125000000001" lon="-121.19956">
    <ele>43.31</ele>
   </trkpt>
   <trkpt lat="38.640820000000005" lon="-121.19975000000001">
    <ele>42.9</ele>
   </trkpt>
   <trkpt lat="38.640730000000005" lon="-121.19987">
    <ele>42.9</ele>
   </trkpt>
   <trkpt lat="38.640660000000004" lon="-121.20002000000001">
    <ele>42.97</ele>
   </trkpt>
   <trkpt lat="38.640620000000006" lon="-121.20023">
    <ele>43.2</ele>
   </trkpt>
   <trkpt lat="38.640660000000004" lon="-121.20041">
    <ele>43.64000000000001</ele>
   </trkpt>
   <trkpt lat="38.64074" lon="-121.20063">
    <ele>43.85000000000001</ele>
   </trkpt>
   <trkpt lat="38.640750000000004" lon="-121.20077">
    <ele>43.79</ele>
   </trkpt>
   <trkpt lat="38.640730000000005" lon="-121.20092000000001">
    <ele>43.660000000000004</ele>
   </trkpt>
   <trkpt lat="38.64068" lon="-121.20105000000001">
    <ele>43.64000000000001</ele>
   </trkpt>
   <trkpt lat="38.64056" lon="-121.20121">
    <ele>43.85000000000001</ele>
   </trkpt>
   <trkpt lat="38.64018" lon="-121.20162">
    <ele>43.17000000000001</ele>
   </trkpt>
   <trkpt lat="38.63998" lon="-121.20221000000001">
    <ele>40.79</ele>
   </trkpt>
   <trkpt lat="38.63983" lon="-121.20273000000002">
    <ele>40.21</ele>
   </trkpt>
   <trkpt lat="38.63953" lon="-121.20333000000001">
    <ele>40.470000000000006</ele>
   </trkpt>
   <trkpt lat="38.639450000000004" lon="-121.20336">
    <ele>40.470000000000006</ele>
   </trkpt>
   <trkpt lat="38.639190000000006" lon="-121.20314">
    <ele>40.63</ele>
   </trkpt>
   <trkpt lat="38.63893" lon="-121.20318">
    <ele>40.63</ele>
   </trkpt>
   <trkpt lat="38.638870000000004" lon="-121.20323">
    <ele>40.61</ele>
   </trkpt>
   <trkpt lat="38.638760000000005" lon="-121.20340000000002">
    <ele>40.510000000000005</ele>
   </trkpt>
   <trkpt lat="38.63859" lon="-121.20381">
    <ele>40.040000000000006</ele>
   </trkpt>
   <trkpt lat="38.638290000000005" lon="-121.20408">
    <ele>40.019999999999996</ele>
   </trkpt>
   <trkpt lat="38.638200000000005" lon="-121.20418000000001">
    <ele>40.040000000000006</ele>
   </trkpt>
   <trkpt lat="38.638160000000006" lon="-121.2043">
    <ele>40.040000000000006</ele>
   </trkpt>
   <trkpt lat="38.63812" lon="-121.20462">
    <ele>39.980000000000004</ele>
   </trkpt>
   <trkpt lat="38.638070000000006" lon="-121.20484">
    <ele>40.050000000000004</ele>
   </trkpt>
   <trkpt lat="38.63812" lon="-121.20519000000002">
    <ele>40.260000000000005</ele>
   </trkpt>
   <trkpt lat="38.638090000000005" lon="-121.20539000000001">
    <ele>40.269999999999996</ele>
   </trkpt>
   <trkpt lat="38.63792" lon="-121.20582000000002">
    <ele>40.21</ele>
   </trkpt>
   <trkpt lat="38.637840000000004" lon="-121.20609">
    <ele>40.36</ele>
   </trkpt>
   <trkpt lat="38.637640000000005" lon="-121.20632">
    <ele>40.39</ele>
   </trkpt>
   <trkpt lat="38.637480000000004" lon="-121.20660000000001">
    <ele>40.5</ele>
   </trkpt>
   <trkpt lat="38.63745" lon="-121.20678000000001">
    <ele>40.67</ele>
   </trkpt>
   <trkpt lat="38.637535001436895" lon="-121.20735999934722">
    <ele>40.870000000000005</ele>
   </trkpt>
   <trkpt lat="38.637620000000005" lon="-121.20794000000001">
    <ele>40.89</ele>
   </trkpt>
   <trkpt lat="38.63761" lon="-121.20802">
    <ele>40.480000000000004</ele>
   </trkpt>
   <trkpt lat="38.63731000000001" lon="-121.20839000000001">
    <ele>40.410000000000004</ele>
   </trkpt>
   <trkpt lat="38.637190000000004" lon="-121.20843">
    <ele>40.67</ele>
   </trkpt>
   <trkpt lat="38.636900000000004" lon="-121.20833">
    <ele>40.71</ele>
   </trkpt>
   <trkpt lat="38.636390000000006" lon="-121.20835000000001">
    <ele>39.89</ele>
   </trkpt>
   <trkpt lat="38.636120000000005" lon="-121.20838">
    <ele>40.11</ele>
   </trkpt>
   <trkpt lat="38.636030000000005" lon="-121.20843">
    <ele>40.42</ele>
   </trkpt>
   <trkpt lat="38.63593" lon="-121.20855000000002">
    <ele>41.32</ele>
   </trkpt>
   <trkpt lat="38.63561" lon="-121.20892">
    <ele>42.050000000000004</ele>
   </trkpt>
   <trkpt lat="38.63555" lon="-121.20905">
    <ele>42.050000000000004</ele>
   </trkpt>
   <trkpt lat="38.635540000000006" lon="-121.20918">
    <ele>42.050000000000004</ele>
   </trkpt>
   <trkpt lat="38.63559" lon="-121.2095">
    <ele>41.910000000000004</ele>
   </trkpt>
   <trkpt lat="38.63559" lon="-121.20968">
    <ele>41.910000000000004</ele>
   </trkpt>
   <trkpt lat="38.63544" lon="-121.20994">
    <ele>41.57</ele>
   </trkpt>
   <trkpt lat="38.63535" lon="-121.21013">
    <ele>41.57</ele>
   </trkpt>
   <trkpt lat="38.635160000000006" lon="-121.21081000000001">
    <ele>41.09</ele>
   </trkpt>
   <trkpt lat="38.63496000152023" lon="-121.2114100017099">
    <ele>40.43</ele>
   </trkpt>
   <trkpt lat="38.63476" lon="-121.21201">
    <ele>40.150000000000006</ele>
   </trkpt>
   <trkpt lat="38.63459000159623" lon="-121.21261000119685">
    <ele>40.370000000000005</ele>
   </trkpt>
   <trkpt lat="38.634420000000006" lon="-121.21321">
    <ele>40.85</ele>
   </trkpt>
   <trkpt lat="38.63443" lon="-121.21336000000001">
    <ele>40.86</ele>
   </trkpt>
   <trkpt lat="38.63449000000001" lon="-121.21344">
    <ele>40.86</ele>
   </trkpt>
   <trkpt lat="38.634910000000005" lon="-121.21379">
    <ele>40.580000000000005</ele>
   </trkpt>
   <trkpt lat="38.63499" lon="-121.21402">
    <ele>40.38</ele>
   </trkpt>
   <trkpt lat="38.63497" lon="-121.21433">
    <ele>40.330000000000005</ele>
   </trkpt>
   <trkpt lat="38.6348900016881" lon="-121.2149550004977">
    <ele>40.470000000000006</ele>
   </trkpt>
   <trkpt lat="38.63481" lon="-121.21558000000002">
    <ele>40.92</ele>
   </trkpt>
   <trkpt lat="38.63489000163695" lon="-121.21495500089729">
    <ele>40.370000000000005</ele>
   </trkpt>
   <trkpt lat="38.63497" lon="-121.21433">
    <ele>40.330000000000005</ele>
   </trkpt>
   <trkpt lat="38.63499" lon="-121.21402">
    <ele>40.38</ele>
   </trkpt>
   <trkpt lat="38.634910000000005" lon="-121.21379">
    <ele>40.580000000000005</ele>
   </trkpt>
   <trkpt lat="38.63449000000001" lon="-121.21344">
    <ele>40.86</ele>
   </trkpt>
   <trkpt lat="38.63443" lon="-121.21336000000001">
    <ele>40.86</ele>
   </trkpt>
   <trkpt lat="38.634420000000006" lon="-121.21321">
    <ele>40.85</ele>
   </trkpt>
   <trkpt lat="38.63459000146815" lon="-121.21261000164893">
    <ele>40.150000000000006</ele>
   </trkpt>
   <trkpt lat="38.63476" lon="-121.21201">
    <ele>40.150000000000006</ele>
   </trkpt>
   <trkpt lat="38.63496000154415" lon="-121.21141000163816">
    <ele>40.43</ele>
   </trkpt>
   <trkpt lat="38.635160000000006" lon="-121.21081000000001">
    <ele>41.09</ele>
   </trkpt>
   <trkpt lat="38.63535" lon="-121.21013">
    <ele>41.57</ele>
   </trkpt>
   <trkpt lat="38.63544" lon="-121.20994">
    <ele>41.57</ele>
   </trkpt>
   <trkpt lat="38.63559" lon="-121.20968">
    <ele>41.910000000000004</ele>
   </trkpt>
   <trkpt lat="38.63559" lon="-121.2095">
    <ele>41.910000000000004</ele>
   </trkpt>
   <trkpt lat="38.635540000000006" lon="-121.20918">
    <ele>42.050000000000004</ele>
   </trkpt>
   <trkpt lat="38.63555" lon="-121.20905">
    <ele>42.050000000000004</ele>
   </trkpt>
   <trkpt lat="38.63561" lon="-121.20892">
    <ele>41.980000000000004</ele>
   </trkpt>
   <trkpt lat="38.63593" lon="-121.20855000000002">
    <ele>40.63</ele>
   </trkpt>
   <trkpt lat="38.636030000000005" lon="-121.20843">
    <ele>40.25</ele>
   </trkpt>
   <trkpt lat="38.636120000000005" lon="-121.20838">
    <ele>40.019999999999996</ele>
   </trkpt>
   <trkpt lat="38.636390000000006" lon="-121.20835000000001">
    <ele>39.89</ele>
   </trkpt>
   <trkpt lat="38.636900000000004" lon="-121.20833">
    <ele>40.71</ele>
   </trkpt>
   <trkpt lat="38.637190000000004" lon="-121.20843">
    <ele>40.67</ele>
   </trkpt>
   <trkpt lat="38.63731000000001" lon="-121.20839000000001">
    <ele>40.410000000000004</ele>
   </trkpt>
   <trkpt lat="38.63761" lon="-121.20802">
    <ele>40.89</ele>
   </trkpt>
   <trkpt lat="38.637620000000005" lon="-121.20794000000001">
    <ele>40.89</ele>
   </trkpt>
   <trkpt lat="38.637535001426635" lon="-121.20735999927722">
    <ele>40.870000000000005</ele>
   </trkpt>
   <trkpt lat="38.63745" lon="-121.20678000000001">
    <ele>40.67</ele>
   </trkpt>
   <trkpt lat="38.637480000000004" lon="-121.20660000000001">
    <ele>40.5</ele>
   </trkpt>
   <trkpt lat="38.637640000000005" lon="-121.20632">
    <ele>40.39</ele>
   </trkpt>
   <trkpt lat="38.637840000000004" lon="-121.20609">
    <ele>40.36</ele>
   </trkpt>
   <trkpt lat="38.63792" lon="-121.20582000000002">
    <ele>40.21</ele>
   </trkpt>
   <trkpt lat="38.638090000000005" lon="-121.20539000000001">
    <ele>40.269999999999996</ele>
   </trkpt>
   <trkpt lat="38.63812" lon="-121.20519000000002">
    <ele>40.260000000000005</ele>
   </trkpt>
   <trkpt lat="38.638070000000006" lon="-121.20484">
    <ele>40.050000000000004</ele>
   </trkpt>
   <trkpt lat="38.63812" lon="-121.20462">
    <ele>39.980000000000004</ele>
   </trkpt>
   <trkpt lat="38.638160000000006" lon="-121.2043">
    <ele>40.040000000000006</ele>
   </trkpt>
   <trkpt lat="38.638200000000005" lon="-121.20418000000001">
    <ele>40.019999999999996</ele>
   </trkpt>
   <trkpt lat="38.638290000000005" lon="-121.20408">
    <ele>40.019999999999996</ele>
   </trkpt>
   <trkpt lat="38.63859" lon="-121.20380000000002">
    <ele>40.07</ele>
   </trkpt>
   <trkpt lat="38.63862" lon="-121.20373000000001">
    <ele>40.13</ele>
   </trkpt>
   <trkpt lat="38.638760000000005" lon="-121.20340000000002">
    <ele>40.510000000000005</ele>
   </trkpt>
   <trkpt lat="38.638870000000004" lon="-121.20323">
    <ele>40.61</ele>
   </trkpt>
   <trkpt lat="38.63893" lon="-121.20318">
    <ele>40.63</ele>
   </trkpt>
   <trkpt lat="38.639190000000006" lon="-121.20314">
    <ele>40.540000000000006</ele>
   </trkpt>
   <trkpt lat="38.639450000000004" lon="-121.20336">
    <ele>40.470000000000006</ele>
   </trkpt>
   <trkpt lat="38.63953" lon="-121.20333000000001">
    <ele>40.470000000000006</ele>
   </trkpt>
   <trkpt lat="38.63983" lon="-121.20273000000002">
    <ele>40.21</ele>
   </trkpt>
   <trkpt lat="38.63998" lon="-121.20221000000001">
    <ele>40.940000000000005</ele>
   </trkpt>
   <trkpt lat="38.64018" lon="-121.20162">
    <ele>43.17000000000001</ele>
   </trkpt>
   <trkpt lat="38.64056" lon="-121.20121">
    <ele>43.85000000000001</ele>
   </trkpt>
   <trkpt lat="38.64068" lon="-121.20105000000001">
    <ele>43.64000000000001</ele>
   </trkpt>
   <trkpt lat="38.640730000000005" lon="-121.20092000000001">
    <ele>43.660000000000004</ele>
   </trkpt>
   <trkpt lat="38.640750000000004" lon="-121.20077">
    <ele>43.79</ele>
   </trkpt>
   <trkpt lat="38.64074" lon="-121.20063">
    <ele>43.84</ele>
   </trkpt>
   <trkpt lat="38.640660000000004" lon="-121.20041">
    <ele>43.64000000000001</ele>
   </trkpt>
   <trkpt lat="38.640620000000006" lon="-121.20023">
    <ele>43.2</ele>
   </trkpt>
   <trkpt lat="38.640660000000004" lon="-121.20002000000001">
    <ele>42.9</ele>
   </trkpt>
   <trkpt lat="38.640730000000005" lon="-121.19987">
    <ele>42.9</ele>
   </trkpt>
   <trkpt lat="38.640820000000005" lon="-121.19975000000001">
    <ele>42.9</ele>
   </trkpt>
   <trkpt lat="38.64125000000001" lon="-121.19956">
    <ele>43.870000000000005</ele>
   </trkpt>
   <trkpt lat="38.64134000000001" lon="-121.19947">
    <ele>43.870000000000005</ele>
   </trkpt>
   <trkpt lat="38.64137" lon="-121.19942">
    <ele>43.870000000000005</ele>
   </trkpt>
   <trkpt lat="38.64135" lon="-121.19929">
    <ele>44.39000000000001</ele>
   </trkpt>
   <trkpt lat="38.64117" lon="-121.19902">
    <ele>44.85</ele>
   </trkpt>
   <trkpt lat="38.64114" lon="-121.19890000000001">
    <ele>45.68000000000001</ele>
   </trkpt>
   <trkpt lat="38.64117" lon="-121.1988">
    <ele>45.86000000000001</ele>
   </trkpt>
   <trkpt lat="38.64132" lon="-121.19852000000002">
    <ele>46.43000000000001</ele>
   </trkpt>
   <trkpt lat="38.641380000000005" lon="-121.19834000000002">
    <ele>46.67</ele>
   </trkpt>
   <trkpt lat="38.641470000000005" lon="-121.19799">
    <ele>47.67</ele>
   </trkpt>
   <trkpt lat="38.6415" lon="-121.19772">
    <ele>49.040000000000006</ele>
   </trkpt>
   <trkpt lat="38.64161" lon="-121.19755">
    <ele>49.43</ele>
   </trkpt>
   <trkpt lat="38.64172000000001" lon="-121.19745">
    <ele>50.36</ele>
   </trkpt>
   <trkpt lat="38.64181000000001" lon="-121.19740000000002">
    <ele>50.36</ele>
   </trkpt>
   <trkpt lat="38.641920000000006" lon="-121.19737">
    <ele>50.68</ele>
   </trkpt>
   <trkpt lat="38.64249" lon="-121.19709">
    <ele>51.510000000000005</ele>
   </trkpt>
   <trkpt lat="38.64269" lon="-121.19692">
    <ele>51.92</ele>
   </trkpt>
   <trkpt lat="38.64282" lon="-121.19672000000001">
    <ele>52.02</ele>
   </trkpt>
   <trkpt lat="38.64287" lon="-121.1966">
    <ele>52.02</ele>
   </trkpt>
   <trkpt lat="38.642920000000004" lon="-121.19625">
    <ele>52.06</ele>
   </trkpt>
   <trkpt lat="38.64296" lon="-121.19615">
    <ele>52.06</ele>
   </trkpt>
   <trkpt lat="38.64316" lon="-121.19585000000001">
    <ele>52.25000000000001</ele>
   </trkpt>
   <trkpt lat="38.643390000000004" lon="-121.1953">
    <ele>52.07000000000001</ele>
   </trkpt>
   <trkpt lat="38.64377" lon="-121.19464">
    <ele>52.21000000000001</ele>
   </trkpt>
   <trkpt lat="38.64401" lon="-121.19433000000001">
    <ele>52.33</ele>
   </trkpt>
   <trkpt lat="38.644450000000006" lon="-121.19392">
    <ele>52.50000000000001</ele>
   </trkpt>
   <trkpt lat="38.64482" lon="-121.19348000000001">
    <ele>52.480000000000004</ele>
   </trkpt>
   <trkpt lat="38.64508" lon="-121.19324">
    <ele>52.49</ele>
   </trkpt>
   <trkpt lat="38.64518" lon="-121.19312000000001">
    <ele>52.61</ele>
   </trkpt>
   <trkpt lat="38.6452" lon="-121.19302">
    <ele>52.61</ele>
   </trkpt>
   <trkpt lat="38.64517" lon="-121.19275">
    <ele>52.58</ele>
   </trkpt>
   <trkpt lat="38.64522" lon="-121.19258">
    <ele>52.440000000000005</ele>
   </trkpt>
   <trkpt lat="38.645410000000005" lon="-121.19218000000001">
    <ele>52.4</ele>
   </trkpt>
   <trkpt lat="38.645430000000005" lon="-121.19204">
    <ele>52.4</ele>
   </trkpt>
   <trkpt lat="38.64542" lon="-121.19186">
    <ele>52.33</ele>
   </trkpt>
   <trkpt lat="38.645450000000004" lon="-121.19173">
    <ele>52.33</ele>
   </trkpt>
   <trkpt lat="38.6456" lon="-121.19119">
    <ele>52.31</ele>
   </trkpt>
   <trkpt lat="38.64565" lon="-121.1911">
    <ele>52.36</ele>
   </trkpt>
   <trkpt lat="38.64576" lon="-121.19097000000001">
    <ele>52.36</ele>
   </trkpt>
   <trkpt lat="38.64578" lon="-121.19092">
    <ele>52.51</ele>
   </trkpt>
   <trkpt lat="38.645810000000004" lon="-121.19074">
    <ele>52.51</ele>
   </trkpt>
   <trkpt lat="38.645770000000006" lon="-121.19034">
    <ele>50.800000000000004</ele>
   </trkpt>
   <trkpt lat="38.645770000000006" lon="-121.1902">
    <ele>50.27</ele>
   </trkpt>
   <trkpt lat="38.64578" lon="-121.19015000000002">
    <ele>50.27</ele>
   </trkpt>
   <trkpt lat="38.645880000000005" lon="-121.19007">
    <ele>49.71</ele>
   </trkpt>
   <trkpt lat="38.64607" lon="-121.18999000000001">
    <ele>48.78</ele>
   </trkpt>
   <trkpt lat="38.64618" lon="-121.18993">
    <ele>47.120000000000005</ele>
   </trkpt>
   <trkpt lat="38.646260000000005" lon="-121.18984">
    <ele>45.39000000000001</ele>
   </trkpt>
   <trkpt lat="38.646350000000005" lon="-121.18965000000001">
    <ele>44.730000000000004</ele>
   </trkpt>
   <trkpt lat="38.64643" lon="-121.18962">
    <ele>44.33</ele>
   </trkpt>
   <trkpt lat="38.64656" lon="-121.18958">
    <ele>44.04</ele>
   </trkpt>
   <trkpt lat="38.646660000000004" lon="-121.18961000000002">
    <ele>44.02</ele>
   </trkpt>
   <trkpt lat="38.64674" lon="-121.18966">
    <ele>44.050000000000004</ele>
   </trkpt>
   <trkpt lat="38.64678" lon="-121.18972000000001">
    <ele>44.04</ele>
   </trkpt>
   <trkpt lat="38.646840000000005" lon="-121.19016">
    <ele>43.78000000000001</ele>
   </trkpt>
   <trkpt lat="38.647180000000006" lon="-121.19078">
    <ele>42.0</ele>
   </trkpt>
   <trkpt lat="38.64725" lon="-121.19084000000001">
    <ele>41.46</ele>
   </trkpt>
   <trkpt lat="38.647380000000005" lon="-121.19088">
    <ele>40.290000000000006</ele>
   </trkpt>
   <trkpt lat="38.647450000000006" lon="-121.19087">
    <ele>39.96</ele>
   </trkpt>
   <trkpt lat="38.64755" lon="-121.19078">
    <ele>39.68</ele>
   </trkpt>
   <trkpt lat="38.64759" lon="-121.19069">
    <ele>39.45</ele>
   </trkpt>
   <trkpt lat="38.647690000000004" lon="-121.19033">
    <ele>39.06</ele>
   </trkpt>
   <trkpt lat="38.647740000000006" lon="-121.19029">
    <ele>39.06</ele>
   </trkpt>
   <trkpt lat="38.6479" lon="-121.19024">
    <ele>39.040000000000006</ele>
   </trkpt>
   <trkpt lat="38.647960000000005" lon="-121.19016">
    <ele>39.089999999999996</ele>
   </trkpt>
   <trkpt lat="38.648" lon="-121.19002">
    <ele>39.17</ele>
   </trkpt>
   <trkpt lat="38.64804" lon="-121.18997000000002">
    <ele>39.300000000000004</ele>
   </trkpt>
   <trkpt lat="38.64822" lon="-121.18989">
    <ele>39.61000000000001</ele>
   </trkpt>
   <trkpt lat="38.648390000000006" lon="-121.18971">
    <ele>40.36</ele>
   </trkpt>
   <trkpt lat="38.6486" lon="-121.18951000000001">
    <ele>40.63</ele>
   </trkpt>
   <trkpt lat="38.648540000000004" lon="-121.18923000000001">
    <ele>41.370000000000005</ele>
   </trkpt>
   <trkpt lat="38.648520000000005" lon="-121.18908">
    <ele>41.74</ele>
   </trkpt>
   <trkpt lat="38.64851" lon="-121.18881">
    <ele>42.72</ele>
   </trkpt>
   <trkpt lat="38.64853" lon="-121.18867000000002">
    <ele>43.230000000000004</ele>
   </trkpt>
   <trkpt lat="38.64858" lon="-121.18858000000002">
    <ele>43.440000000000005</ele>
   </trkpt>
   <trkpt lat="38.64889" lon="-121.18814">
    <ele>43.14</ele>
   </trkpt>
   <trkpt lat="38.649060000000006" lon="-121.18802000000001">
    <ele>42.61</ele>
   </trkpt>
   <trkpt lat="38.64913000000001" lon="-121.18803000000001">
    <ele>42.25</ele>
   </trkpt>
   <trkpt lat="38.64945" lon="-121.18825000000001">
    <ele>42.5</ele>
   </trkpt>
   <trkpt lat="38.64963" lon="-121.18820000000001">
    <ele>42.57</ele>
   </trkpt>
   <trkpt lat="38.649800000000006" lon="-121.18820000000001">
    <ele>42.57</ele>
   </trkpt>
   <trkpt lat="38.649860000000004" lon="-121.18823">
    <ele>42.830000000000005</ele>
   </trkpt>
   <trkpt lat="38.649890000000006" lon="-121.18831000000002">
    <ele>42.830000000000005</ele>
   </trkpt>
   <trkpt lat="38.64988" lon="-121.18840000000002">
    <ele>42.830000000000005</ele>
   </trkpt>
   <trkpt lat="38.649800000000006" lon="-121.18863">
    <ele>42.800000000000004</ele>
   </trkpt>
   <trkpt lat="38.649800000000006" lon="-121.18876000000002">
    <ele>42.940000000000005</ele>
   </trkpt>
   <trkpt lat="38.649820000000005" lon="-121.18885000000002">
    <ele>42.940000000000005</ele>
   </trkpt>
   <trkpt lat="38.64988" lon="-121.18886">
    <ele>43.33</ele>
   </trkpt>
   <trkpt lat="38.650020000000005" lon="-121.18886">
    <ele>43.410000000000004</ele>
   </trkpt>
   <trkpt lat="38.65007000000001" lon="-121.1889">
    <ele>43.410000000000004</ele>
   </trkpt>
   <trkpt lat="38.65019" lon="-121.18912000000002">
    <ele>43.230000000000004</ele>
   </trkpt>
   <trkpt lat="38.65028" lon="-121.18917">
    <ele>42.730000000000004</ele>
   </trkpt>
   <trkpt lat="38.650450000000006" lon="-121.18918000000001">
    <ele>42.54</ele>
   </trkpt>
   <trkpt lat="38.65054000000001" lon="-121.18939">
    <ele>42.61</ele>
   </trkpt>
   <trkpt lat="38.650600000000004" lon="-121.18948">
    <ele>42.870000000000005</ele>
   </trkpt>
   <trkpt lat="38.651210000000006" lon="-121.18984">
    <ele>44.56</ele>
   </trkpt>
   <trkpt lat="38.65149" lon="-121.18986000000001">
    <ele>44.52</ele>
   </trkpt>
   <trkpt lat="38.651610000000005" lon="-121.18993">
    <ele>44.33</ele>
   </trkpt>
   <trkpt lat="38.65166" lon="-121.18998">
    <ele>44.230000000000004</ele>
   </trkpt>
   <trkpt lat="38.65185" lon="-121.19042">
    <ele>42.25</ele>
   </trkpt>
   <trkpt lat="38.652150000000006" lon="-121.19078">
    <ele>40.720000000000006</ele>
   </trkpt>
   <trkpt lat="38.65236" lon="-121.19111000000001">
    <ele>40.49</ele>
   </trkpt>
   <trkpt lat="38.65245" lon="-121.19114">
    <ele>40.49</ele>
   </trkpt>
   <trkpt lat="38.65323" lon="-121.19083">
    <ele>41.0</ele>
   </trkpt>
   <trkpt lat="38.654" lon="-121.19069">
    <ele>42.49000000000001</ele>
   </trkpt>
   <trkpt lat="38.65439000000001" lon="-121.19075000000001">
    <ele>42.39</ele>
   </trkpt>
   <trkpt lat="38.654560000000004" lon="-121.19082000000002">
    <ele>41.5</ele>
   </trkpt>
   <trkpt lat="38.65473" lon="-121.19079">
    <ele>41.17</ele>
   </trkpt>
   <trkpt lat="38.655060000000006" lon="-121.19069">
    <ele>42.61</ele>
   </trkpt>
   <trkpt lat="38.655300000000004" lon="-121.19056">
    <ele>43.27</ele>
   </trkpt>
   <trkpt lat="38.65536" lon="-121.19051">
    <ele>43.160000000000004</ele>
   </trkpt>
   <trkpt lat="38.65554" lon="-121.19029">
    <ele>42.13</ele>
   </trkpt>
   <trkpt lat="38.655620000000006" lon="-121.19024">
    <ele>41.96</ele>
   </trkpt>
   <trkpt lat="38.655710000000006" lon="-121.19024">
    <ele>41.57</ele>
   </trkpt>
   <trkpt lat="38.65597" lon="-121.19029">
    <ele>41.160000000000004</ele>
   </trkpt>
   <trkpt lat="38.656130000000005" lon="-121.19029">
    <ele>41.160000000000004</ele>
   </trkpt>
   <trkpt lat="38.6565" lon="-121.19016">
    <ele>43.28000000000001</ele>
   </trkpt>
   <trkpt lat="38.65673" lon="-121.19010000000002">
    <ele>44.120000000000005</ele>
   </trkpt>
   <trkpt lat="38.656960000000005" lon="-121.19007">
    <ele>44.050000000000004</ele>
   </trkpt>
   <trkpt lat="38.657140000000005" lon="-121.19007">
    <ele>43.010000000000005</ele>
   </trkpt>
   <trkpt lat="38.657320000000006" lon="-121.19002">
    <ele>42.730000000000004</ele>
   </trkpt>
   <trkpt lat="38.65744" lon="-121.18993">
    <ele>42.410000000000004</ele>
   </trkpt>
   <trkpt lat="38.65751" lon="-121.18982000000001">
    <ele>42.36</ele>
   </trkpt>
   <trkpt lat="38.657560000000004" lon="-121.18966">
    <ele>42.230000000000004</ele>
   </trkpt>
   <trkpt lat="38.65762" lon="-121.18957">
    <ele>42.230000000000004</ele>
   </trkpt>
   <trkpt lat="38.657700000000006" lon="-121.18949">
    <ele>42.25</ele>
   </trkpt>
   <trkpt lat="38.65796" lon="-121.18939">
    <ele>42.82</ele>
   </trkpt>
   <trkpt lat="38.65834" lon="-121.18931">
    <ele>42.85000000000001</ele>
   </trkpt>
   <trkpt lat="38.65856" lon="-121.18922">
    <ele>42.64</ele>
   </trkpt>
   <trkpt lat="38.658770000000004" lon="-121.18909000000001">
    <ele>42.97</ele>
   </trkpt>
   <trkpt lat="38.658860000000004" lon="-121.18906000000001">
    <ele>43.08</ele>
   </trkpt>
   <trkpt lat="38.659310000000005" lon="-121.18899">
    <ele>42.74</ele>
   </trkpt>
   <trkpt lat="38.659710000000004" lon="-121.18885000000002">
    <ele>43.24</ele>
   </trkpt>
   <trkpt lat="38.65997" lon="-121.18872">
    <ele>43.120000000000005</ele>
   </trkpt>
   <trkpt lat="38.66044" lon="-121.18855">
    <ele>43.02</ele>
   </trkpt>
   <trkpt lat="38.660680000000006" lon="-121.18845">
    <ele>43.230000000000004</ele>
   </trkpt>
   <trkpt lat="38.66138" lon="-121.18832">
    <ele>42.910000000000004</ele>
   </trkpt>
   <trkpt lat="38.66161" lon="-121.18819">
    <ele>43.510000000000005</ele>
   </trkpt>
   <trkpt lat="38.66203" lon="-121.18801">
    <ele>44.58</ele>
   </trkpt>
   <trkpt lat="38.66225" lon="-121.18796">
    <ele>45.56</ele>
   </trkpt>
   <trkpt lat="38.66252" lon="-121.18774">
    <ele>45.75000000000001</ele>
   </trkpt>
   <trkpt lat="38.66261" lon="-121.18775000000001">
    <ele>45.93000000000001</ele>
   </trkpt>
   <trkpt lat="38.66288" lon="-121.18784000000001">
    <ele>46.150000000000006</ele>
   </trkpt>
   <trkpt lat="38.662960000000005" lon="-121.18783">
    <ele>46.330000000000005</ele>
   </trkpt>
   <trkpt lat="38.663140000000006" lon="-121.18774">
    <ele>46.970000000000006</ele>
   </trkpt>
   <trkpt lat="38.663230000000006" lon="-121.18774">
    <ele>47.07</ele>
   </trkpt>
   <trkpt lat="38.66364" lon="-121.18778">
    <ele>46.68000000000001</ele>
   </trkpt>
   <trkpt lat="38.66404" lon="-121.1877">
    <ele>44.7</ele>
   </trkpt>
   <trkpt lat="38.664210000000004" lon="-121.1877">
    <ele>43.49</ele>
   </trkpt>
   <trkpt lat="38.664590000000004" lon="-121.18765">
    <ele>42.190000000000005</ele>
   </trkpt>
   <trkpt lat="38.66523" lon="-121.18787">
    <ele>41.25</ele>
   </trkpt>
   <trkpt lat="38.66566" lon="-121.18774">
    <ele>41.29</ele>
   </trkpt>
   <trkpt lat="38.66593" lon="-121.18774">
    <ele>41.14</ele>
   </trkpt>
   <trkpt lat="38.666090000000004" lon="-121.18769">
    <ele>41.150000000000006</ele>
   </trkpt>
   <trkpt lat="38.66646" lon="-121.18744000000001">
    <ele>41.760000000000005</ele>
   </trkpt>
   <trkpt lat="38.66657" lon="-121.18742">
    <ele>41.38</ele>
   </trkpt>
   <trkpt lat="38.666760000000004" lon="-121.18746000000002">
    <ele>40.49</ele>
   </trkpt>
   <trkpt lat="38.667120000000004" lon="-121.18755000000002">
    <ele>39.690000000000005</ele>
   </trkpt>
   <trkpt lat="38.66723" lon="-121.18756">
    <ele>39.63</ele>
   </trkpt>
   <trkpt lat="38.6676" lon="-121.18746000000002">
    <ele>39.550000000000004</ele>
   </trkpt>
   <trkpt lat="38.66832" lon="-121.18748000000001">
    <ele>41.550000000000004</ele>
   </trkpt>
   <trkpt lat="38.66877" lon="-121.18748000000001">
    <ele>41.910000000000004</ele>
   </trkpt>
   <trkpt lat="38.668890000000005" lon="-121.18747">
    <ele>41.910000000000004</ele>
   </trkpt>
   <trkpt lat="38.66913" lon="-121.18730000000001">
    <ele>41.830000000000005</ele>
   </trkpt>
   <trkpt lat="38.66933" lon="-121.18725">
    <ele>41.49</ele>
   </trkpt>
   <trkpt lat="38.66975" lon="-121.18728000000002">
    <ele>42.230000000000004</ele>
   </trkpt>
   <trkpt lat="38.669900000000005" lon="-121.18734">
    <ele>42.42000000000001</ele>
   </trkpt>
   <trkpt lat="38.6702" lon="-121.18754000000001">
    <ele>42.690000000000005</ele>
   </trkpt>
   <trkpt lat="38.670390000000005" lon="-121.1877">
    <ele>42.81</ele>
   </trkpt>
   <trkpt lat="38.670550000000006" lon="-121.18778">
    <ele>42.75</ele>
   </trkpt>
   <trkpt lat="38.671260000000004" lon="-121.18783">
    <ele>40.81</ele>
   </trkpt>
   <trkpt lat="38.671440000000004" lon="-121.18783">
    <ele>40.510000000000005</ele>
   </trkpt>
   <trkpt lat="38.67155" lon="-121.18779">
    <ele>40.400000000000006</ele>
   </trkpt>
   <trkpt lat="38.671940000000006" lon="-121.18755000000002">
    <ele>40.720000000000006</ele>
   </trkpt>
   <trkpt lat="38.67224" lon="-121.18765">
    <ele>39.900000000000006</ele>
   </trkpt>
   <trkpt lat="38.67246" lon="-121.18769">
    <ele>39.940000000000005</ele>
   </trkpt>
   <trkpt lat="38.672940000000004" lon="-121.18756">
    <ele>40.410000000000004</ele>
   </trkpt>
   <trkpt lat="38.67309" lon="-121.18755000000002">
    <ele>40.95</ele>
   </trkpt>
   <trkpt lat="38.673260000000006" lon="-121.18756">
    <ele>41.260000000000005</ele>
   </trkpt>
   <trkpt lat="38.6736" lon="-121.18747">
    <ele>41.5</ele>
   </trkpt>
   <trkpt lat="38.67387" lon="-121.18742">
    <ele>41.260000000000005</ele>
   </trkpt>
   <trkpt lat="38.67399" lon="-121.18729">
    <ele>41.25</ele>
   </trkpt>
   <trkpt lat="38.6741" lon="-121.18708000000001">
    <ele>41.27</ele>
   </trkpt>
   <trkpt lat="38.67418" lon="-121.18703000000001">
    <ele>41.190000000000005</ele>
   </trkpt>
   <trkpt lat="38.67446" lon="-121.18693">
    <ele>40.540000000000006</ele>
   </trkpt>
   <trkpt lat="38.67459" lon="-121.18684">
    <ele>40.400000000000006</ele>
   </trkpt>
   <trkpt lat="38.67479" lon="-121.18663000000001">
    <ele>40.050000000000004</ele>
   </trkpt>
   <trkpt lat="38.674850000000006" lon="-121.18661000000002">
    <ele>39.970000000000006</ele>
   </trkpt>
   <trkpt lat="38.675140000000006" lon="-121.18653">
    <ele>39.830000000000005</ele>
   </trkpt>
   <trkpt lat="38.675430000000006" lon="-121.18617">
    <ele>40.06</ele>
   </trkpt>
   <trkpt lat="38.675470000000004" lon="-121.18605000000001">
    <ele>40.06</ele>
   </trkpt>
   <trkpt lat="38.67549" lon="-121.18582">
    <ele>40.370000000000005</ele>
   </trkpt>
   <trkpt lat="38.675520000000006" lon="-121.18576000000002">
    <ele>40.39</ele>
   </trkpt>
   <trkpt lat="38.67559" lon="-121.18569000000001">
    <ele>40.39</ele>
   </trkpt>
   <trkpt lat="38.6758" lon="-121.18568">
    <ele>40.300000000000004</ele>
   </trkpt>
   <trkpt lat="38.67602" lon="-121.18563">
    <ele>40.28</ele>
   </trkpt>
   <trkpt lat="38.67609" lon="-121.18559">
    <ele>40.28</ele>
   </trkpt>
   <trkpt lat="38.67631" lon="-121.18519">
    <ele>40.92</ele>
   </trkpt>
   <trkpt lat="38.676370000000006" lon="-121.18481000000001">
    <ele>41.86</ele>
   </trkpt>
   <trkpt lat="38.67636" lon="-121.18465">
    <ele>41.86</ele>
   </trkpt>
   <trkpt lat="38.67622" lon="-121.18442">
    <ele>42.34</ele>
   </trkpt>
   <trkpt lat="38.6762" lon="-121.18433000000002">
    <ele>42.42000000000001</ele>
   </trkpt>
   <trkpt lat="38.676210000000005" lon="-121.1842">
    <ele>42.370000000000005</ele>
   </trkpt>
   <trkpt lat="38.67627" lon="-121.18408000000001">
    <ele>42.080000000000005</ele>
   </trkpt>
   <trkpt lat="38.67645" lon="-121.18406000000002">
    <ele>42.04</ele>
   </trkpt>
   <trkpt lat="38.67653" lon="-121.18402">
    <ele>42.150000000000006</ele>
   </trkpt>
   <trkpt lat="38.676590000000004" lon="-121.18389">
    <ele>42.45</ele>
   </trkpt>
   <trkpt lat="38.676610000000004" lon="-121.18378000000001">
    <ele>42.89</ele>
   </trkpt>
   <trkpt lat="38.676610000000004" lon="-121.18357">
    <ele>44.78</ele>
   </trkpt>
   <trkpt lat="38.67665" lon="-121.18344">
    <ele>44.78</ele>
   </trkpt>
   <trkpt lat="38.677200000000006" lon="-121.18261000000001">
    <ele>49.040000000000006</ele>
   </trkpt>
   <trkpt lat="38.677350000000004" lon="-121.18227000000002">
    <ele>49.550000000000004</ele>
   </trkpt>
   <trkpt lat="38.677580000000006" lon="-121.1821">
    <ele>49.32</ele>
   </trkpt>
   <trkpt lat="38.67766" lon="-121.18192">
    <ele>49.46</ele>
   </trkpt>
   <trkpt lat="38.677670000000006" lon="-121.18180000000001">
    <ele>49.6</ele>
   </trkpt>
   <trkpt lat="38.67765" lon="-121.18165">
    <ele>50.2</ele>
   </trkpt>
   <trkpt lat="38.677730000000004" lon="-121.18138">
    <ele>51.730000000000004</ele>
   </trkpt>
   <trkpt lat="38.67775" lon="-121.18116">
    <ele>53.26</ele>
   </trkpt>
   <trkpt lat="38.677730000000004" lon="-121.18107">
    <ele>53.26</ele>
   </trkpt>
   <trkpt lat="38.67748" lon="-121.18106000000002">
    <ele>54.480000000000004</ele>
   </trkpt>
   <trkpt lat="38.676860000000005" lon="-121.18111">
    <ele>57.690000000000005</ele>
   </trkpt>
   <trkpt lat="38.67671" lon="-121.18107">
    <ele>58.160000000000004</ele>
   </trkpt>
   <trkpt lat="38.67654" lon="-121.18090000000001">
    <ele>58.46</ele>
   </trkpt>
   <trkpt lat="38.676570000000005" lon="-121.18084">
    <ele>58.49000000000001</ele>
   </trkpt>
   <trkpt lat="38.676550000000006" lon="-121.18081000000001">
    <ele>58.49000000000001</ele>
   </trkpt>
   <trkpt lat="38.67658" lon="-121.18075">
    <ele>58.49000000000001</ele>
   </trkpt>
   <trkpt lat="38.6771" lon="-121.17987000000001">
    <ele>57.910000000000004</ele>
   </trkpt>
   <trkpt lat="38.67705" lon="-121.17983000000001">
    <ele>57.99000000000001</ele>
   </trkpt>
   <trkpt lat="38.677310000000006" lon="-121.17939000000001">
    <ele>58.25</ele>
   </trkpt>
  </trkseg>
 </trk>
</gpx>
